<?xml version="1.0" encoding="UTF-8"?>
<kml xmlns="http://www.opengis.net/kml/2.2">
  <Document>
    <name>太平村-仙人堀杉林步道</name>
    <Placemark>
      <name>路線軌跡</name>
      <LineString>
        <tessellate>1</tessellate>
        <coordinates>
          120.612045,23.561892,923
          120.61207,23.561905,922.9
          120.612045,23.561893,923.1
          120.61202,23.561904,926.7
          120.612011,23.561899,926
          120.612007,23.561889,925.7
          120.61202,23.561888,924
          120.612027,23.561877,923.3
          120.612037,23.561878,922.6
          120.612025,23.561873,920.9
          120.612024,23.561884,920.2
          120.612026,23.561875,922.5
          120.61203,23.561893,923.3
          120.612036,23.561912,922
          120.612036,23.561925,921.4
          120.612046,23.561918,920.3
          120.612044,23.561905,920.2
          120.612053,23.561896,923.3
          120.612062,23.561906,924.1
          120.612067,23.561918,923.4
          120.612057,23.561916,926.7
          120.612044,23.561918,926.4
          120.612057,23.561912,924.7
          120.612063,23.561895,923.5
          120.61205,23.56189,922.9
          120.612042,23.561897,922.8
          120.612048,23.561874,920.8
          120.612043,23.561885,921.6
          120.612052,23.561904,921.3
          120.612069,23.561931,919.8
          120.612079,23.561972,918.7
          120.612096,23.561996,917.7
          120.612112,23.562022,917.5
          120.612124,23.56205,916.2
          120.612136,23.562058,914.6
          120.612136,23.562038,915.3
          120.612112,23.562034,915.1
          120.612098,23.562024,914.5
          120.61207,23.562006,915.9
          120.612043,23.561988,916.3
          120.612044,23.562,918
          120.612037,23.562013,920
          120.612026,23.562021,920.7
          120.612012,23.562044,920.6
          120.612,23.562051,920.1
          120.611995,23.562067,919.2
          120.611996,23.562107,920.4
          120.612002,23.56213,922.1
          120.612003,23.562145,922.6
          120.612014,23.562144,922.9
          120.612001,23.562153,922.2
          120.612006,23.562181,921.5
          120.612015,23.562165,922.8
          120.612029,23.56214,923.2
          120.61202,23.562135,923.3
          120.611993,23.562155,924.3
          120.611996,23.562165,924.6
          120.612002,23.562157,923.9
          120.612002,23.562178,922.2
          120.612011,23.562187,920.1
          120.612022,23.562184,919.3
          120.612031,23.562189,918.1
          120.612046,23.562172,917.5
          120.612057,23.562179,919
          120.612036,23.562158,920.5
          120.612033,23.562147,921.6
          120.612037,23.562136,921.8
          120.612039,23.562147,922
          120.612037,23.562159,922.8
          120.612031,23.562136,922.9
          120.612014,23.562068,923.5
          120.612022,23.562081,923.8
          120.612028,23.56209,923.4
          120.612059,23.5621,923.1
          120.612052,23.56211,923.1
          120.612019,23.562118,923
          120.611998,23.562116,923.9
          120.612014,23.562108,922.8
          120.612009,23.56213,921
          120.612022,23.562148,921
          120.612028,23.562171,921.8
          120.612037,23.562177,922.3
          120.612064,23.562189,923
          120.612034,23.562192,922.7
          120.612025,23.562197,922.1
          120.612025,23.562209,921.6
          120.61199,23.562206,921.2
          120.611979,23.562202,921.1
          120.611995,23.562223,920.1
          120.61199,23.562235,919
          120.611986,23.562244,918.7
          120.611984,23.562255,917.9
          120.612024,23.562184,915.8
          120.612036,23.562147,915.3
          120.612022,23.562129,917.7
          120.61202,23.562105,919.3
          120.612022,23.562061,919
          120.612024,23.562048,918.8
          120.612029,23.562062,919.3
          120.61202,23.56208,921.5
          120.612021,23.562107,921.7
          120.612011,23.562106,922
          120.612019,23.562112,922.5
          120.612006,23.562102,923.1
          120.611996,23.562095,923.7
          120.611985,23.562093,923.5
          120.611959,23.56212,924
          120.611954,23.562142,924.8
          120.611958,23.56216,925.2
          120.611983,23.562159,925.6
          120.612,23.562175,926.2
          120.611981,23.56218,926.3
          120.611953,23.56215,926.9
          120.611941,23.562116,927.7
          120.611943,23.562092,927.8
          120.611928,23.562082,927.2
          120.611899,23.562051,927.4
          120.611888,23.562025,926.7
          120.611925,23.562034,926.2
          120.61194,23.562026,926.5
          120.611932,23.562039,924
          120.611926,23.562029,923.7
          120.611919,23.562011,923.4
          120.611915,23.562002,923.8
          120.611906,23.561989,925
          120.611911,23.561965,924.9
          120.611902,23.561962,924.2
          120.611873,23.561956,923.8
          120.611859,23.561945,923.8
          120.611831,23.561943,923.1
          120.611833,23.561932,923.5
          120.611828,23.561946,923.8
          120.611825,23.56196,924
          120.611822,23.56198,924.3
          120.611829,23.561974,924.6
          120.611833,23.561983,924.7
          120.611853,23.56202,923
          120.611857,23.562029,923.2
          120.611865,23.56204,923.8
          120.611844,23.562022,924.7
          120.611843,23.562009,925.1
          120.611861,23.561971,924.9
          120.611858,23.561913,924.4
          120.611873,23.561937,924
          120.611881,23.561951,924.3
          120.611871,23.561961,924.1
          120.611876,23.561985,923.9
          120.611869,23.561972,924.8
          120.61186,23.561978,926
          120.611846,23.561981,925.7
          120.611844,23.561991,925.7
          120.611842,23.561982,925.3
          120.611819,23.561962,924.9
          120.611821,23.561977,925
          120.611815,23.561989,925.6
          120.611813,23.561971,927.1
          120.611811,23.561957,928.1
          120.611797,23.561944,927.1
          120.61179,23.561931,926.5
          120.611778,23.561911,925.8
          120.611766,23.561919,925.3
          120.611762,23.561906,925.4
          120.611855,23.561902,927
          120.611845,23.561892,926.7
          120.611838,23.561882,924.5
          120.611809,23.561868,926.3
          120.611786,23.561858,926.2
          120.61176,23.561852,927.3
          120.611747,23.561854,927.9
          120.6118,23.561803,928.5
          120.611784,23.56178,928.9
          120.611769,23.561782,929.6
          120.611731,23.561782,929.7
          120.61171,23.561801,929.7
          120.611689,23.561809,930.5
          120.61166,23.561806,931.6
          120.611626,23.561802,932.2
          120.611583,23.561785,932.4
          120.611554,23.56177,932.9
          120.611524,23.56174,932.9
          120.611466,23.561726,933.3
          120.611439,23.561717,933.5
          120.611403,23.561711,933.6
          120.611369,23.561708,934
          120.611361,23.561693,934.4
          120.611347,23.561671,934.9
          120.611314,23.561647,935
          120.611297,23.561651,936
          120.611261,23.561643,936.6
          120.611229,23.561641,937.9
          120.611199,23.561641,938.4
          120.611174,23.561635,939.2
          120.611147,23.56163,939.4
          120.611119,23.561616,940
          120.611104,23.561584,941
          120.611078,23.561573,942.6
          120.611069,23.561574,942.1
          120.611044,23.561566,942.7
          120.611023,23.561564,942.1
          120.611027,23.561536,943
          120.611017,23.561521,943
          120.610986,23.561493,942.3
          120.610979,23.561479,942.7
          120.610982,23.561453,943.3
          120.610977,23.561441,943.1
          120.610965,23.561411,942.2
          120.610938,23.561364,942
          120.610934,23.561325,942.1
          120.610921,23.561282,942
          120.610908,23.561258,941.7
          120.610895,23.56124,942.4
          120.610869,23.561222,941.3
          120.610853,23.561216,940.7
          120.61084,23.561198,940.3
          120.610813,23.561226,939.5
          120.610782,23.5612,939
          120.610777,23.561192,938.7
          120.610767,23.561178,938.4
          120.610757,23.561157,939.4
          120.610735,23.561141,938.5
          120.610714,23.56112,938
          120.61069,23.561099,937.8
          120.61066,23.561062,937.8
          120.610651,23.561031,938.3
          120.610624,23.561006,938.7
          120.610596,23.560982,937.8
          120.610571,23.560954,937.9
          120.610541,23.560932,937.6
          120.610513,23.560914,937.6
          120.610494,23.560891,937.8
          120.610481,23.560871,937
          120.610454,23.560834,936.5
          120.610422,23.560798,937.2
          120.610408,23.560793,937.8
          120.61039,23.5608,937.5
          120.610355,23.56077,937
          120.610329,23.560729,937.8
          120.610288,23.560706,938.3
          120.610257,23.560685,938.6
          120.61023,23.560662,939.4
          120.6102,23.560657,940.5
          120.610158,23.560643,940.7
          120.610126,23.560639,940.8
          120.610095,23.560627,941.3
          120.610066,23.560594,941.6
          120.610048,23.560573,941.5
          120.610009,23.560561,940.4
          120.609988,23.560546,941
          120.609972,23.560534,941.6
          120.609934,23.560521,941.6
          120.609899,23.560509,941.9
          120.60988,23.560488,942.7
          120.609868,23.560468,943.1
          120.609841,23.560454,943.5
          120.609805,23.560443,943.9
          120.60977,23.560448,944.1
          120.609747,23.560428,944.3
          120.609717,23.560408,944.9
          120.609702,23.560387,944.7
          120.60968,23.560361,944.4
          120.609639,23.560354,945
          120.609603,23.560342,946.2
          120.609595,23.560333,946.4
          120.609594,23.560315,947.5
          120.609589,23.560322,946.8
          120.60959,23.560343,945.1
          120.609574,23.560337,944.5
          120.609571,23.560324,944.9
          120.609581,23.560329,944.8
          120.609582,23.56034,945.1
          120.609582,23.56035,945
          120.609594,23.560369,945
          120.609588,23.560379,945.3
          120.609587,23.560367,945.8
          120.609578,23.560346,946.3
          120.609572,23.560338,946.6
          120.609583,23.560334,947
          120.609572,23.560338,945.4
          120.60959,23.560346,945.4
          120.609601,23.56034,945.7
          120.609606,23.56033,945.9
          120.609593,23.560321,946.4
          120.609582,23.560317,945.4
          120.609569,23.560332,945.3
          120.609558,23.560335,945.2
          120.609569,23.560325,945.3
          120.609598,23.560328,943.4
          120.609612,23.560348,943.2
          120.609612,23.560335,944.1
          120.609591,23.560333,944
          120.609584,23.560345,943.6
          120.609558,23.560356,944.1
          120.609524,23.56036,945.1
          120.60948,23.56036,945.5
          120.609449,23.560372,946.5
          120.609418,23.560377,946.7
          120.609382,23.560365,947.8
          120.609343,23.560348,948.9
          120.609293,23.560337,949.5
          120.609252,23.560337,949.8
          120.609209,23.56033,951
          120.609157,23.560316,952.5
          120.609118,23.56029,952.2
          120.609087,23.560275,953.2
          120.609061,23.56026,954.6
          120.609029,23.560242,955.3
          120.608984,23.560246,955.9
          120.608949,23.560236,956.7
          120.608903,23.560236,958.4
          120.608864,23.560227,961.5
          120.608817,23.560225,963.2
          120.608777,23.560217,964.6
          120.608731,23.560199,966
          120.608699,23.560182,966.9
          120.608658,23.560178,968.3
          120.608624,23.560172,969.2
          120.608607,23.56017,970.2
          120.608587,23.560158,970.9
          120.60858,23.56015,971.1
          120.60857,23.560131,972.1
          120.608565,23.560141,972.3
          120.608557,23.560148,972.3
          120.608556,23.560168,972.7
          120.60857,23.560171,973
          120.608564,23.56018,974.8
          120.608565,23.560199,974.7
          120.608566,23.560188,974.6
          120.608564,23.560179,975.1
          120.60854,23.560182,974.8
          120.608589,23.560155,973.8
          120.608594,23.560171,974
          120.608606,23.56019,973.6
          120.608635,23.560212,973.8
          120.608678,23.56023,972.8
          120.608715,23.560237,972.3
          120.608737,23.56027,972
          120.608781,23.560283,970.7
          120.608828,23.560296,969.7
          120.608853,23.56031,968.5
          120.608901,23.560327,967.9
          120.608944,23.560334,966.7
          120.608971,23.560357,965.3
          120.608997,23.560366,964.2
          120.60904,23.560367,962.4
          120.609075,23.560393,962
          120.609126,23.560406,961.7
          120.609184,23.560422,960.1
          120.609227,23.560421,960.5
          120.609273,23.560423,959.6
          120.609323,23.560431,959
          120.609365,23.560444,958
          120.609408,23.560462,958.2
          120.609447,23.560484,957
          120.609464,23.560507,955.7
          120.609489,23.560538,954.6
          120.609523,23.560569,953.9
          120.60955,23.560596,953.6
          120.609589,23.56063,953.5
          120.609619,23.56066,954
          120.609654,23.560686,954.6
          120.609678,23.560705,955.3
          120.609721,23.560732,954.8
          120.609754,23.560771,955.8
          120.609781,23.5608,956
          120.60982,23.56082,956.2
          120.609857,23.560849,955.4
          120.609893,23.560877,955.4
          120.609922,23.560909,957.1
          120.609941,23.56095,957.3
          120.609973,23.560988,958.1
          120.610007,23.561024,957.5
          120.61005,23.561055,957.5
          120.610077,23.561082,958.5
          120.610101,23.561102,958.3
          120.61014,23.561136,957.9
          120.610179,23.561165,957.1
          120.610207,23.561195,957.2
          120.610236,23.561225,957.2
          120.610262,23.56125,957.2
          120.610302,23.561284,957.1
          120.610347,23.561311,955.8
          120.610374,23.561329,955.1
          120.610401,23.561366,955.6
          120.610427,23.561406,955.1
          120.61046,23.561435,955.3
          120.610493,23.561466,955.3
          120.610514,23.5615,956
          120.610537,23.561516,956.6
          120.610586,23.561539,956.4
          120.610617,23.561552,957.2
          120.610647,23.561575,957.5
          120.610669,23.561593,957.3
          120.610712,23.561614,957.4
          120.610733,23.561619,957.2
          120.610776,23.561651,957.2
          120.610806,23.561676,958
          120.610832,23.561707,957.4
          120.610877,23.561754,956.5
          120.610906,23.561791,956.5
          120.610939,23.561815,956.7
          120.610967,23.561849,957.2
          120.611016,23.561871,957.6
          120.611053,23.561888,956.9
          120.611077,23.561904,956.7
          120.611121,23.561928,956.4
          120.611163,23.561944,955.5
          120.611212,23.561972,955.9
          120.611242,23.561983,954.7
          120.611274,23.562016,954.5
          120.611315,23.562046,953.4
          120.611369,23.562081,953.5
          120.611408,23.562106,953
          120.611443,23.562136,952.2
          120.611482,23.56217,951.7
          120.611517,23.562209,951
          120.611554,23.562241,951.3
          120.611602,23.562269,951.1
          120.611641,23.562302,950.2
          120.611675,23.562327,950.5
          120.611722,23.562354,950
          120.611765,23.562383,949.9
          120.611785,23.562414,950.4
          120.611802,23.562457,950.4
          120.611832,23.562485,950.8
          120.61185,23.562506,950.7
          120.611872,23.562511,949.6
          120.611887,23.562493,949.3
          120.611885,23.562504,949.5
          120.611895,23.562495,949.5
          120.611905,23.562483,948.5
          120.611912,23.562493,947.5
          120.611933,23.56251,944.7
          120.611948,23.562502,941
          120.611904,23.562502,945.1
          120.611919,23.562497,944.8
          120.611933,23.562503,944.6
          120.611946,23.562506,944.2
          120.611923,23.562508,946.2
          120.61193,23.562495,946.3
          120.611954,23.562496,945.7
          120.611966,23.5625,945.3
          120.611968,23.56249,945.3
          120.611975,23.562482,944.7
          120.611968,23.562474,944.2
          120.611943,23.562471,944.6
          120.611928,23.562479,944.9
          120.61193,23.562462,943.4
          120.611905,23.562467,943.9
          120.611887,23.562473,944.6
          120.61188,23.56248,944.1
          120.611853,23.562482,944.3
          120.611841,23.562473,945.7
          120.611838,23.562489,945.2
          120.611837,23.562474,946.4
          120.611822,23.562473,945.7
          120.611808,23.562474,945.9
          120.611787,23.562481,946
          120.611812,23.562473,945.7
          120.61183,23.562468,945.7
          120.611838,23.562457,946.1
          120.611847,23.56245,945.8
          120.61185,23.562462,946.4
          120.611833,23.562464,946.7
          120.611811,23.562471,947.8
          120.611821,23.562479,949.3
          120.611809,23.562482,948.8
          120.611828,23.562487,949
          120.611841,23.562492,948.9
          120.611849,23.562486,948.3
          120.611834,23.56248,948.4
          120.611837,23.56247,947.2
          120.611845,23.562448,947.6
          120.611866,23.562433,946.2
          120.611904,23.562419,945.6
          120.611935,23.562377,945.4
          120.611945,23.562373,945.5
          120.611945,23.562351,944.9
          120.611949,23.562333,945
          120.611939,23.562326,942.5
          120.611924,23.562317,941.1
          120.611922,23.562307,938.3
          120.611936,23.562313,934.7
          120.611955,23.562328,933.7
          120.611969,23.562337,931.5
          120.61201,23.562349,932.2
          120.612035,23.562348,932.2
          120.612032,23.562339,930.4
          120.612009,23.562323,929.7
          120.612012,23.562315,928.4
          120.612024,23.562317,927.8
          120.612048,23.562308,925.2
          120.612063,23.562299,924.1
          120.612072,23.56229,923.3
          120.612083,23.562284,921.9
          120.612078,23.562277,921.7
          120.612084,23.562287,920.8
          120.612086,23.562303,918.7
          120.61209,23.56232,918.7
          120.612103,23.562321,919
          120.612112,23.56231,917
          120.612113,23.562295,915.3
          120.612134,23.562276,912.8
          120.612114,23.562253,910.9
          120.612094,23.562235,909.5
          120.612075,23.562226,909.3
          120.612073,23.56221,909.3
          120.612074,23.5622,912.1
          120.612064,23.562193,914.7
          120.612053,23.562181,916.2
          120.612043,23.562176,916.9
          120.61205,23.562158,918.1
          120.612054,23.562145,918.8
          120.612055,23.562132,919.8
          120.612057,23.562117,920.5
          120.612063,23.562101,921.9
          120.612073,23.562091,921.9
          120.612078,23.562082,922.3
          120.612093,23.562137,917.1
          120.612095,23.562116,918.2
          120.612135,23.562087,921.5
          120.61213,23.5621,921.4
          120.612114,23.562106,921.3
          120.612096,23.562118,920.2
          120.61208,23.562118,917.6
          120.612083,23.562108,918
          120.612074,23.562115,918.3
          120.61207,23.562103,918.6
          120.612072,23.56209,919.6
          120.612082,23.562092,920.8
          120.612064,23.56209,921.6
          120.61207,23.562081,921.1
          120.612059,23.562068,921
          120.612047,23.562074,920.6
          120.61206,23.562072,920.3
          120.61207,23.562058,920.7
          120.612064,23.562068,920.7
          120.612067,23.562077,921.4
          120.612082,23.562071,921.6
          120.61209,23.562078,921.3
          120.612103,23.562077,921.2
          120.612115,23.562066,919.7
          120.612136,23.562076,919.6
          120.612154,23.562083,919.5
          120.612161,23.562093,919.8
          120.612158,23.562083,919.8
          120.612128,23.562092,919.8
          120.6121,23.562073,919.4
          120.612115,23.562069,920.3
          120.612102,23.562074,920.6
          120.612092,23.562077,921.2
          120.612111,23.562078,920.5
          120.612124,23.56208,921.5
          120.612137,23.562083,922.9
          120.612159,23.562073,922.7
          120.612162,23.562053,923.8
          120.612156,23.562045,924
          120.612151,23.562029,924.4
          120.612144,23.562015,924.2
          120.612155,23.562013,924.4
          120.612169,23.562018,924.3
          120.612171,23.562008,924.2
          120.612175,23.561998,923.7
          120.612199,23.561997,922.3
          120.61223,23.562005,920.9
          120.612268,23.562011,919.2
          120.612313,23.562016,919.7
          120.612347,23.562009,918.2
          120.612382,23.562007,917
          120.612412,23.562006,916
          120.612386,23.561996,915.9
          120.612412,23.561991,915.1
          120.612453,23.561987,913.8
          120.612472,23.561982,914
          120.61249,23.561985,913.8
          120.612512,23.561975,914.7
          120.612522,23.561958,915.2
          120.612523,23.561944,916.3
          120.612525,23.561935,916.9
        </coordinates>
      </LineString>
    </Placemark>
    <Placemark>
      <name>步道出入口2</name>
      <description></description>
      <ExtendedData>
        <Data name="icon"><value>map-pin</value></Data>
        <Data name="color"><value>#e27653</value></Data>
      </ExtendedData>
      <Point>
        <coordinates>120.6120368,23.5619028,0</coordinates>
      </Point>
    </Placemark>
    <Placemark>
      <name>仙腳印</name>
      <description></description>
      <ExtendedData>
        <Data name="icon"><value>star</value></Data>
        <Data name="color"><value>#3b82f6</value></Data>
      </ExtendedData>
      <Point>
        <coordinates>120.6120247,23.5621621,0</coordinates>
      </Point>
    </Placemark>
    <Placemark>
      <name>玉螺洞</name>
      <description></description>
      <ExtendedData>
        <Data name="icon"><value>star</value></Data>
        <Data name="color"><value>#3b82f6</value></Data>
      </ExtendedData>
      <Point>
        <coordinates>120.612019,23.562214,0</coordinates>
      </Point>
    </Placemark>
    <Placemark>
      <name>步道出入口3</name>
      <description></description>
      <ExtendedData>
        <Data name="icon"><value>map-pin</value></Data>
        <Data name="color"><value>#e27653</value></Data>
      </ExtendedData>
      <Point>
        <coordinates>120.609558,23.560338,0</coordinates>
      </Point>
    </Placemark>
    <Placemark>
      <name>嘉154與162甲線交叉口</name>
      <description></description>
      <ExtendedData>
        <Data name="icon"><value>map-pin</value></Data>
        <Data name="color"><value>#3b82f6</value></Data>
      </ExtendedData>
      <Point>
        <coordinates>120.60857,23.560131,0</coordinates>
      </Point>
    </Placemark>
    <Placemark>
      <name>步道出入口1</name>
      <description></description>
      <ExtendedData>
        <Data name="icon"><value>map-pin</value></Data>
        <Data name="color"><value>#e27653</value></Data>
      </ExtendedData>
      <Point>
        <coordinates>120.611919,23.562497,0</coordinates>
      </Point>
    </Placemark>
    <Placemark>
      <name>停車處</name>
      <description></description>
      <ExtendedData>
        <Data name="icon"><value>P</value></Data>
        <Data name="color"><value>#3b82f6</value></Data>
      </ExtendedData>
      <Point>
        <coordinates>120.6125471,23.5620104,0</coordinates>
      </Point>
    </Placemark>
  </Document>
</kml>