<?xml version="1.0" encoding="UTF-8"?>
<kml xmlns="http://www.opengis.net/kml/2.2">
  <Document>
    <name>龍眼村-大尖二尖山步道</name>
    <Placemark>
      <name>路線軌跡</name>
      <LineString>
        <tessellate>1</tessellate>
        <coordinates>
          120.623134,23.589996,1291.8
          120.623131,23.589995,1291.6
          120.623135,23.590005,1293.4
          120.623128,23.590017,1293
          120.623123,23.590033,1294
          120.623123,23.590043,1295.2
          120.623129,23.590025,1294.7
          120.623121,23.589998,1293.2
          120.623125,23.589987,1292.8
          120.623118,23.589998,1292
          120.623125,23.589984,1294.2
          120.623136,23.589955,1293.9
          120.62314,23.589916,1293.7
          120.62315,23.589878,1293.5
          120.623159,23.589862,1293.2
          120.623174,23.589832,1292.2
          120.623192,23.589789,1290.6
          120.623215,23.589765,1290
          120.623214,23.589756,1290.5
          120.623216,23.589736,1289.2
          120.623214,23.589715,1288.4
          120.623217,23.589658,1288.3
          120.623229,23.589626,1288.9
          120.623234,23.5896,1287.5
          120.62325,23.58958,1287.9
          120.623259,23.58955,1286.8
          120.623256,23.58952,1285.1
          120.623265,23.589501,1285.2
          120.623256,23.589474,1284.4
          120.623268,23.589447,1284.2
          120.623276,23.589419,1283.6
          120.623274,23.589405,1283.9
          120.623269,23.589397,1282.4
          120.623271,23.589377,1281.2
          120.623264,23.589349,1281
          120.623248,23.589313,1280.7
          120.623243,23.589289,1279
          120.62325,23.589264,1279.5
          120.62326,23.589244,1278.9
          120.62326,23.589218,1279.2
          120.623251,23.589194,1278.7
          120.623258,23.589167,1278.4
          120.62325,23.589134,1278.3
          120.62323,23.589097,1279.2
          120.623208,23.589079,1278.1
          120.623205,23.589064,1278
          120.623194,23.58905,1276
          120.623178,23.58903,1274.6
          120.623152,23.589013,1272.6
          120.623145,23.589,1271.6
          120.623134,23.588986,1271.7
          120.62313,23.588953,1271.3
          120.623115,23.588939,1270.6
          120.623107,23.588933,1270
          120.623099,23.588911,1269.5
          120.623103,23.588884,1269.6
          120.623093,23.588868,1269
          120.623071,23.58885,1269.1
          120.62308,23.588815,1269.9
          120.6231,23.588794,1271.2
          120.623107,23.588778,1272.5
          120.623104,23.58876,1272.8
          120.623106,23.588725,1273.4
          120.623102,23.588698,1274.1
          120.623094,23.588664,1273.9
          120.623088,23.588636,1273.8
          120.623087,23.588608,1273.8
          120.623086,23.588569,1274.2
          120.623103,23.588536,1275.2
          120.623094,23.588509,1274
          120.623087,23.588481,1273.1
          120.623083,23.588462,1272.5
          120.623075,23.588446,1271.8
          120.623059,23.588417,1271.1
          120.623049,23.588386,1270.3
          120.623039,23.588357,1270.4
          120.623026,23.588327,1270
          120.623012,23.588302,1270.2
          120.622995,23.588282,1269.9
          120.622976,23.588256,1269.5
          120.622961,23.588233,1268.5
          120.622941,23.588212,1267.8
          120.62293,23.588193,1267
          120.622905,23.58817,1266.1
          120.622897,23.588156,1265
          120.622878,23.588138,1264.4
          120.622861,23.588124,1264.4
          120.622842,23.588115,1263.9
          120.622827,23.588105,1263.4
          120.622811,23.588098,1263
          120.62279,23.588088,1262.3
          120.622773,23.588081,1262.2
          120.622757,23.588075,1261.8
          120.622745,23.588065,1261.7
          120.62273,23.588055,1261
          120.622722,23.588049,1260.3
          120.622702,23.588035,1258.8
          120.622677,23.588019,1257.5
          120.622658,23.588009,1256.8
          120.622649,23.587998,1256.5
          120.622623,23.58798,1256.7
          120.622599,23.587958,1256.8
          120.62258,23.587941,1256.9
          120.622556,23.587917,1258.1
          120.622542,23.587896,1257.7
          120.622524,23.587877,1257.5
          120.622498,23.587853,1257.3
          120.622478,23.587831,1256.5
          120.62245,23.587815,1256.2
          120.622416,23.587802,1256.9
          120.622386,23.587793,1256
          120.622361,23.587772,1255.5
          120.622347,23.587747,1254.8
          120.622332,23.587729,1255
          120.622314,23.587715,1256.2
          120.622295,23.587699,1257.6
          120.62228,23.587678,1259.9
          120.622262,23.587663,1261.9
          120.622236,23.587648,1263.5
          120.622213,23.587637,1263.5
          120.622196,23.587617,1264.3
          120.622176,23.587593,1266
          120.622167,23.587579,1267.3
          120.622154,23.587561,1268
          120.622145,23.587552,1268.1
          120.622128,23.587541,1266.6
          120.622097,23.587531,1266.7
          120.622075,23.587526,1267.2
          120.622058,23.587516,1267.5
          120.622043,23.587501,1267.3
          120.622022,23.58749,1267.7
          120.62199,23.587469,1267
          120.621963,23.58746,1266.4
          120.621933,23.587448,1265.1
          120.621903,23.587432,1263.7
          120.621866,23.587417,1263.1
          120.621829,23.587408,1262.5
          120.621781,23.587385,1260.8
          120.621756,23.587365,1260.1
          120.621717,23.587344,1258.5
          120.621671,23.587335,1257.9
          120.621643,23.587323,1257.4
          120.621617,23.587301,1256.1
          120.621609,23.587284,1254.1
          120.621594,23.587265,1252.7
          120.621578,23.587239,1251.6
          120.621566,23.587218,1250.3
          120.621549,23.587207,1248.6
          120.621512,23.58719,1246.8
          120.62149,23.587172,1245.4
          120.621463,23.587153,1244.6
          120.62143,23.587133,1244.2
          120.621414,23.587116,1244.1
          120.62138,23.587094,1244
          120.621351,23.587065,1244.7
          120.621322,23.587027,1243.1
          120.621283,23.586991,1242.7
          120.621247,23.586969,1241.7
          120.621212,23.586932,1241.3
          120.621191,23.586893,1241.2
          120.621162,23.58688,1241.6
          120.621137,23.586857,1241
          120.621101,23.586836,1240.9
          120.621078,23.586809,1238.8
          120.62106,23.586774,1237.6
          120.621037,23.586738,1236.4
          120.620997,23.586723,1235.6
          120.620981,23.586697,1236.8
          120.620948,23.586663,1236.1
          120.620913,23.586631,1236.1
          120.620873,23.586603,1235.8
          120.620832,23.586577,1236
          120.620794,23.586554,1235.6
          120.620773,23.586536,1235.8
          120.620752,23.586528,1236.5
          120.620728,23.586504,1237.4
          120.620705,23.586481,1237.5
          120.620685,23.586458,1237.7
          120.620651,23.586424,1238.2
          120.620629,23.586394,1237.8
          120.620613,23.586353,1238.3
          120.620593,23.586313,1238.8
          120.620574,23.586267,1239.7
          120.620559,23.586231,1240.1
          120.620549,23.586202,1241.2
          120.620537,23.586171,1241.5
          120.620529,23.586145,1242.5
          120.620524,23.586118,1244
          120.620519,23.586093,1244.8
          120.620517,23.586064,1245.3
          120.620508,23.586035,1245.4
          120.620497,23.586003,1246.2
          120.620489,23.585978,1246.8
          120.620474,23.585951,1246.9
          120.62046,23.585917,1246.7
          120.620453,23.58589,1246.2
          120.620445,23.585866,1245.2
          120.620441,23.585842,1244.4
          120.620422,23.585814,1243.3
          120.620407,23.585789,1243.5
          120.620385,23.585753,1243.4
          120.620361,23.585708,1243.9
          120.620348,23.585671,1244
          120.620329,23.585629,1244.8
          120.620309,23.585593,1245.8
          120.620292,23.585564,1246.5
          120.620277,23.585519,1247.1
          120.620254,23.585481,1247.7
          120.620221,23.585438,1248.5
          120.620194,23.585398,1248.4
          120.620166,23.585364,1248.5
          120.620143,23.585329,1248
          120.620125,23.585302,1247.1
          120.620105,23.585272,1246.6
          120.620081,23.585246,1246
          120.620063,23.585222,1246.4
          120.620042,23.585198,1246.1
          120.620024,23.585177,1246.1
          120.619993,23.585144,1245.9
          120.619974,23.585117,1246.8
          120.619941,23.58508,1246.7
          120.619926,23.58506,1247.7
          120.619891,23.585022,1247.2
          120.619869,23.585,1247.4
          120.619846,23.584974,1245.9
          120.619816,23.584944,1247.1
          120.619788,23.584921,1247
          120.619765,23.584895,1247.6
          120.619727,23.58486,1247.5
          120.619705,23.58483,1248.4
          120.619684,23.584804,1248
          120.619655,23.58478,1249.2
          120.61962,23.584761,1250
          120.619601,23.584746,1250.2
          120.619574,23.584744,1250.2
          120.619548,23.584734,1251.3
          120.619497,23.584712,1253
          120.619469,23.584691,1253.6
          120.619439,23.58467,1254.2
          120.619414,23.584653,1254.2
          120.619413,23.584632,1255.3
          120.619434,23.5846,1255.5
          120.619435,23.584566,1254.8
          120.619438,23.58453,1254.3
          120.619445,23.584496,1253.7
          120.619451,23.58446,1254.1
          120.619452,23.584428,1253.3
          120.619453,23.584396,1253.1
          120.619449,23.584361,1252.9
          120.619446,23.584323,1252.6
          120.619433,23.584301,1253.5
          120.619401,23.584306,1254.2
          120.619388,23.584307,1255.5
          120.61937,23.584304,1256.6
          120.61935,23.584302,1257.1
          120.619338,23.584305,1258.4
          120.619321,23.584304,1259
          120.619312,23.584325,1260.4
          120.619306,23.584338,1261.2
          120.619291,23.584359,1262
          120.61927,23.584376,1262.4
          120.619247,23.584387,1262.6
          120.619219,23.584407,1263.1
          120.619202,23.584397,1262.8
          120.619188,23.584383,1263
          120.619165,23.584377,1263
          120.619145,23.584376,1262.9
          120.619121,23.584374,1263.9
          120.619108,23.58438,1263.8
          120.619089,23.58438,1263.4
          120.619071,23.58438,1263.9
          120.619069,23.584359,1263.8
          120.619045,23.584341,1263.8
          120.619024,23.584329,1263.4
          120.618995,23.584312,1264.5
          120.618975,23.584289,1265.1
          120.618969,23.584266,1264.5
          120.618953,23.584242,1264.1
          120.618936,23.584219,1265.6
          120.618906,23.584202,1265.7
          120.618869,23.584185,1266.1
          120.618839,23.584171,1265.6
          120.61882,23.584157,1265.5
          120.618782,23.58415,1265.6
          120.618744,23.584138,1265.3
          120.618715,23.584125,1264.2
          120.61869,23.584115,1263.1
          120.61867,23.584102,1262.2
          120.618644,23.584087,1261.6
          120.618608,23.584066,1261
          120.618586,23.584046,1260.5
          120.618551,23.584017,1260.7
          120.618527,23.583999,1260.8
          120.618498,23.583971,1262.2
          120.618482,23.583946,1263.3
          120.618471,23.58392,1264
          120.618467,23.583892,1264.2
          120.618467,23.58387,1263.2
          120.618469,23.58384,1263.6
          120.618465,23.583818,1262.9
          120.618469,23.583784,1262.4
          120.618469,23.583754,1262.4
          120.618477,23.583724,1262.5
          120.618496,23.583691,1262.4
          120.618512,23.583657,1263.3
          120.618536,23.58362,1265
          120.618552,23.583598,1265.1
          120.618562,23.583582,1265.4
          120.618569,23.583576,1265.7
          120.618584,23.583557,1265.9
          120.618591,23.583539,1265.9
          120.618603,23.583515,1265.9
          120.618596,23.583491,1265.5
          120.618602,23.583462,1265.6
          120.618597,23.583434,1265.1
          120.618594,23.583412,1265.1
          120.618599,23.583398,1265.2
          120.618607,23.583412,1266.1
          120.6186,23.583438,1267.2
          120.618594,23.583471,1268.5
          120.61859,23.583497,1269.4
          120.61858,23.583518,1269.9
          120.61859,23.583516,1268.4
          120.618589,23.583526,1267.6
          120.618594,23.58351,1267.3
          120.618602,23.58349,1267.2
          120.618608,23.583464,1266.7
          120.618603,23.583436,1265.1
          120.618597,23.583413,1264.3
          120.618599,23.583371,1263.8
          120.618599,23.583347,1261.4
          120.618603,23.583312,1260
          120.618614,23.583274,1257.9
          120.618612,23.583239,1256.1
          120.618621,23.583207,1255.4
          120.61863,23.583156,1254.9
          120.618648,23.583105,1254.7
          120.61867,23.583073,1254.5
          120.618694,23.583041,1254.6
          120.618727,23.583027,1255.1
          120.618769,23.583005,1255.4
          120.618801,23.582974,1255
          120.618829,23.582938,1255.4
          120.618853,23.582909,1255.2
          120.618886,23.582883,1254.9
          120.61891,23.582851,1253.8
          120.618922,23.582818,1254
          120.618928,23.582793,1253.5
          120.618934,23.582762,1252.7
          120.618943,23.582737,1252.5
          120.618946,23.582712,1251.5
          120.618948,23.58268,1250.7
          120.618945,23.582642,1249.3
          120.618941,23.58261,1248.4
          120.618931,23.582578,1248
          120.618927,23.582542,1249.2
          120.618916,23.582508,1249.9
          120.618913,23.582465,1250.3
          120.618916,23.582427,1249.9
          120.61892,23.58239,1249.8
          120.618917,23.582352,1248.7
          120.618911,23.582325,1248.2
          120.61891,23.582274,1247.1
          120.618899,23.582226,1245.8
          120.618897,23.582175,1244.7
          120.618907,23.582124,1243.9
          120.618895,23.582073,1243.7
          120.61887,23.582035,1242.7
          120.618848,23.581998,1242.9
          120.618817,23.581969,1243.1
          120.618783,23.58194,1243.2
          120.618751,23.581911,1242.4
          120.618718,23.581883,1241.2
          120.618696,23.581853,1239.2
          120.61867,23.581829,1236.8
          120.618646,23.58181,1233.7
          120.618643,23.581752,1232.2
          120.61863,23.581704,1230.4
          120.61862,23.581671,1228.8
          120.618617,23.581636,1229.8
          120.618615,23.581613,1229.3
          120.618611,23.581593,1229.5
          120.618609,23.581577,1229.5
          120.618608,23.581538,1229.9
          120.618597,23.5815,1229.3
          120.618593,23.581458,1228.7
          120.618589,23.581423,1228.2
          120.618574,23.581386,1227.4
          120.618565,23.581358,1226.2
          120.618557,23.581321,1224.9
          120.618545,23.58129,1223.6
          120.618539,23.581249,1223.2
          120.618531,23.581219,1223
          120.618523,23.581188,1222.2
          120.618521,23.581149,1223
          120.618519,23.581116,1223.2
          120.618516,23.58108,1223.2
          120.618512,23.581045,1223.2
          120.618505,23.58101,1224.5
          120.618502,23.580992,1224.2
          120.618494,23.580972,1223.4
          120.618485,23.580954,1222.4
          120.618475,23.580944,1221.9
          120.618465,23.580929,1220.6
          120.618443,23.580909,1219.7
          120.618431,23.580895,1219.4
          120.618408,23.580878,1219
          120.618386,23.580857,1218.9
          120.618372,23.580849,1218.8
          120.618352,23.580845,1218.2
          120.618335,23.580834,1218.4
          120.618317,23.580826,1217.5
          120.618302,23.580819,1216.5
          120.618289,23.5808,1215.5
          120.618273,23.58079,1213.8
          120.618262,23.580782,1213.3
          120.618248,23.580771,1212.2
          120.618238,23.580757,1211.7
          120.618232,23.580743,1210
          120.618226,23.580722,1208.6
          120.618216,23.580707,1207
          120.618198,23.58069,1207.4
          120.618176,23.580673,1207.4
          120.618167,23.580661,1206.8
          120.618151,23.580645,1205.9
          120.618137,23.580623,1205.2
          120.618135,23.58061,1204.3
          120.618136,23.580591,1203.4
          120.618126,23.580568,1203.4
          120.618119,23.580551,1201.8
          120.618116,23.580532,1201.3
          120.618112,23.580508,1200.6
          120.618109,23.580481,1200.1
          120.6181,23.580461,1199.7
          120.618093,23.580431,1198.7
          120.618078,23.580399,1198.3
          120.618068,23.580383,1197.6
          120.618028,23.580344,1198.3
          120.618009,23.580311,1197.4
          120.617983,23.580264,1197.3
          120.617952,23.580226,1197.2
          120.617913,23.58019,1197.4
          120.617877,23.580154,1196.1
          120.617835,23.58013,1193.9
          120.617796,23.580112,1192.6
          120.617759,23.580095,1193
          120.61776,23.580079,1192.1
          120.617742,23.580068,1191.5
          120.617726,23.580057,1193.2
          120.617743,23.580048,1194
          120.61773,23.580044,1194.6
          120.61772,23.580048,1193.6
          120.617686,23.580039,1193.9
          120.617625,23.580034,1194.3
          120.6176,23.580032,1193.2
          120.617579,23.580028,1193
          120.617538,23.58003,1192.1
          120.617526,23.580031,1191.1
          120.617499,23.580024,1189.5
          120.617483,23.580022,1188.1
          120.617445,23.580021,1187.4
          120.617419,23.58001,1186.4
          120.617382,23.580001,1186.4
          120.617344,23.579993,1186.4
          120.617311,23.579978,1186
          120.617271,23.57995,1185.5
          120.617235,23.579931,1185
          120.617185,23.579884,1186.4
          120.617147,23.579849,1187.7
          120.617134,23.579822,1189.6
          120.617105,23.579804,1188.2
          120.617082,23.579788,1188.2
          120.617056,23.579762,1188.3
          120.617036,23.579734,1188.6
          120.61701,23.579713,1189.2
          120.616983,23.579696,1189.7
          120.616958,23.579686,1190.2
          120.616933,23.579676,1190.8
          120.616907,23.579656,1191.4
          120.616882,23.579637,1192.2
          120.616853,23.579616,1192
          120.61683,23.57959,1191.9
          120.616819,23.579569,1192.1
          120.616813,23.579549,1193
          120.616803,23.579535,1192
          120.616789,23.579516,1190.7
          120.616775,23.579496,1189.9
          120.616771,23.579467,1189.2
          120.616757,23.57943,1188.9
          120.616757,23.579404,1188.2
          120.616764,23.579371,1187.4
          120.61677,23.579339,1187.8
          120.616768,23.579305,1188
          120.616767,23.579271,1187.9
          120.616759,23.579239,1188.5
          120.616751,23.579198,1189.1
          120.616743,23.579154,1187.4
          120.616739,23.579122,1187.6
          120.616727,23.579073,1187.4
          120.616726,23.579031,1187.3
          120.61672,23.578991,1188.3
          120.616714,23.578966,1189.2
          120.616717,23.57893,1189
          120.616721,23.57889,1189.5
          120.616728,23.578857,1189.5
          120.616746,23.578829,1189.7
          120.616759,23.578796,1190.8
          120.616761,23.578786,1192.4
          120.616766,23.578775,1192.7
          120.616774,23.578761,1193.5
          120.616786,23.578719,1193.1
          120.616782,23.578692,1192.9
          120.616784,23.578668,1191.5
          120.616782,23.578646,1189.6
          120.61679,23.578616,1187.5
          120.616801,23.578575,1185.6
          120.616806,23.578536,1185.3
          120.616812,23.578499,1184.1
          120.616821,23.578467,1183.4
          120.616832,23.578435,1182.8
          120.616841,23.578402,1182.2
          120.616852,23.578366,1181.9
          120.61686,23.578344,1180.9
          120.616869,23.578309,1179.8
          120.61687,23.578283,1178.8
          120.616873,23.578257,1178.8
          120.616871,23.578248,1178.5
          120.616876,23.578235,1178.8
          120.616876,23.578222,1178.5
          120.616869,23.578215,1178.2
          120.61687,23.578206,1178.4
          120.616861,23.5782,1177.3
          120.61686,23.578191,1176
          120.616861,23.57818,1175.1
          120.616863,23.578158,1175.6
          120.616855,23.578164,1176.4
          120.616865,23.578147,1176.8
          120.616868,23.578138,1175.9
          120.61687,23.578121,1175.2
          120.61687,23.578108,1174.5
          120.616871,23.578092,1174
          120.616876,23.578083,1173.4
          120.616874,23.578069,1172.9
          120.61688,23.578058,1172.5
          120.616879,23.578068,1173
          120.616888,23.578055,1172.5
          120.616881,23.578041,1171.7
          120.616877,23.57803,1169.8
          120.616875,23.578012,1168.9
          120.616873,23.577997,1167.6
          120.616869,23.577985,1166.8
          120.616867,23.577973,1167
          120.616868,23.577961,1166.3
          120.616861,23.577944,1165.6
          120.616855,23.577929,1164.2
          120.616849,23.577911,1163.8
          120.616844,23.577899,1163
          120.616841,23.577884,1161
          120.616835,23.577873,1159.9
          120.616823,23.57786,1158.4
          120.61682,23.577839,1158.1
          120.616816,23.57783,1157.1
          120.61681,23.577812,1156.6
          120.616797,23.577798,1155.6
          120.616786,23.577787,1154.8
          120.61677,23.577771,1153.2
          120.616765,23.577758,1152.3
          120.616759,23.577749,1151.8
          120.616759,23.577722,1151.6
          120.616757,23.577712,1152.5
          120.616757,23.577695,1152.9
          120.616754,23.577679,1153.5
          120.61676,23.577668,1155.1
          120.616754,23.577651,1154.2
          120.616753,23.577635,1155.1
          120.616744,23.577604,1154.2
          120.616739,23.577575,1154.3
          120.616733,23.577559,1153.7
          120.616731,23.577544,1152.9
          120.616725,23.577528,1153.1
          120.616722,23.577509,1151.7
          120.616712,23.577472,1151.7
          120.616703,23.577461,1152.1
          120.616697,23.577452,1151.3
          120.616687,23.577437,1149
          120.616684,23.577418,1148.1
          120.616674,23.577398,1147.4
          120.61667,23.577382,1147.6
          120.616665,23.577364,1146.8
          120.616653,23.577354,1146.6
          120.616647,23.577344,1145.5
          120.616632,23.577338,1145.9
          120.616628,23.577327,1143.6
          120.616622,23.577318,1143
          120.616619,23.577308,1141.8
          120.61661,23.577296,1141
          120.616603,23.57727,1141.8
          120.616598,23.577262,1141.4
          120.616594,23.57725,1142.2
          120.616587,23.577242,1142.2
          120.616581,23.577223,1140.7
          120.616582,23.577212,1142.5
          120.616575,23.577192,1142.1
          120.616575,23.577173,1142.5
          120.616576,23.577146,1142.7
          120.61658,23.577128,1142.3
          120.616588,23.577117,1141.2
          120.616598,23.577093,1140.4
          120.616601,23.577068,1141.2
          120.616599,23.577051,1141.4
          120.616598,23.577032,1141.8
          120.616597,23.577015,1142.4
          120.616608,23.577007,1142.5
          120.616613,23.576996,1142
          120.616616,23.576985,1141.1
          120.616611,23.57697,1141.4
          120.616624,23.576977,1140.1
          120.616638,23.576983,1138.7
          120.616652,23.576977,1137.8
          120.616669,23.576971,1136.7
          120.61668,23.576971,1135.9
          120.616688,23.576963,1135.1
          120.616702,23.576961,1134.6
          120.616713,23.576967,1134.2
          120.616744,23.576965,1134.2
          120.616769,23.576963,1134.4
          120.616802,23.576949,1134.9
          120.616836,23.576931,1134.9
          120.616864,23.576917,1135.7
          120.616885,23.576907,1136.1
          120.616901,23.576897,1136.2
          120.616919,23.576891,1135.5
          120.61694,23.576899,1135.4
          120.616968,23.576932,1136.7
          120.616976,23.57695,1137.3
          120.616997,23.576979,1138.4
          120.617015,23.577001,1139.1
          120.617024,23.577031,1139.1
          120.617018,23.577057,1139.5
          120.617023,23.577048,1140.1
          120.617012,23.577051,1141.4
          120.617004,23.577038,1141.9
          120.617009,23.57705,1141.3
          120.617016,23.577057,1141.2
          120.617026,23.57707,1140.1
          120.617042,23.577082,1139.9
          120.617044,23.577096,1139.5
          120.617058,23.577108,1139.4
          120.617068,23.577121,1138.6
          120.617091,23.577123,1138
          120.617117,23.577135,1138.4
          120.617117,23.577163,1138.6
          120.617115,23.577185,1138.4
          120.617128,23.57721,1138
          120.617138,23.577245,1138.3
          120.61715,23.577275,1138.2
          120.617156,23.577296,1137.8
          120.617174,23.577315,1139.2
          120.617176,23.577325,1139.6
          120.617184,23.577331,1139.1
          120.61719,23.577339,1138.2
          120.6172,23.577336,1139.1
          120.617203,23.577326,1139.6
          120.617209,23.577335,1138.8
          120.617217,23.577331,1139.2
          120.617228,23.577329,1138.7
          120.61723,23.577339,1138.8
          120.617225,23.57735,1138.9
          120.617232,23.577359,1139.2
          120.617232,23.577369,1139.4
          120.617243,23.577377,1139.6
          120.617255,23.577384,1140.8
          120.61726,23.577393,1141.1
          120.617273,23.577398,1141.5
          120.617282,23.577417,1142.2
          120.617293,23.577426,1140.9
          120.617308,23.577437,1140.4
          120.617324,23.577448,1140.1
          120.617351,23.577458,1140.2
          120.617372,23.57746,1139.8
          120.617399,23.577468,1139.5
          120.617426,23.577482,1139.6
          120.61744,23.57749,1139.8
          120.617461,23.577499,1140
          120.617484,23.577503,1139.1
          120.617508,23.57751,1139
          120.617531,23.577516,1139.3
          120.617552,23.577524,1139.4
          120.617572,23.577539,1139.2
          120.617583,23.577547,1138.8
          120.617591,23.577555,1139
          120.617596,23.577562,1139.5
        </coordinates>
      </LineString>
    </Placemark>
    <Placemark>
      <name>停車場</name>
      <description></description>
      <ExtendedData>
        <Data name="icon"><value>P</value></Data>
        <Data name="color"><value>#3b82f6</value></Data>
      </ExtendedData>
      <Point>
        <coordinates>120.6175721,23.5775577,0</coordinates>
      </Point>
    </Placemark>
    <Placemark>
      <name>步道入口</name>
      <description></description>
      <ExtendedData>
        <Data name="icon"><value>map-pin</value></Data>
        <Data name="color"><value>#e27653</value></Data>
      </ExtendedData>
      <Point>
        <coordinates>120.6169138,23.5769113,0</coordinates>
      </Point>
    </Placemark>
    <Placemark>
      <name>二尖山</name>
      <description>海拔 1,274 公尺是大尖山的副峰</description>
      <ExtendedData>
        <Data name="icon"><value>mountain</value></Data>
        <Data name="color"><value>#8b5cf6</value></Data>
      </ExtendedData>
      <Point>
        <coordinates>120.618503,23.5836705,0</coordinates>
      </Point>
    </Placemark>
    <Placemark>
      <name>二尖山休閒農場</name>
      <description>餐廳</description>
      <ExtendedData>
        <Data name="icon"><value>star</value></Data>
        <Data name="color"><value>#3b82f6</value></Data>
      </ExtendedData>
      <Point>
        <coordinates>120.6187712,23.5843052,0</coordinates>
      </Point>
    </Placemark>
    <Placemark>
      <name>大尖山</name>
      <description>海拔 1,304 公尺</description>
      <ExtendedData>
        <Data name="icon"><value>mountain</value></Data>
        <Data name="color"><value>#8b5cf6</value></Data>
      </ExtendedData>
      <Point>
        <coordinates>120.62318912167996,23.59012529193214,0</coordinates>
      </Point>
    </Placemark>
    <Placemark>
      <name>洗手間</name>
      <description></description>
      <ExtendedData>
        <Data name="icon"><value>wc</value></Data>
        <Data name="color"><value>#10b981</value></Data>
      </ExtendedData>
      <Point>
        <coordinates>120.6172841,23.5768899,0</coordinates>
      </Point>
    </Placemark>
    <Placemark>
      <name>龍興宮</name>
      <description>⟡主祀玄天上帝（上帝公）⟡創建於清咸豐四年（1854年），至今已有百年以上歷史</description>
      <ExtendedData>
        <Data name="icon"><value>star</value></Data>
        <Data name="color"><value>#3b82f6</value></Data>
      </ExtendedData>
      <Point>
        <coordinates>120.6170942,23.5772771,0</coordinates>
      </Point>
    </Placemark>
  </Document>
</kml>