<?xml version="1.0" encoding="UTF-8"?>
<kml xmlns="http://www.opengis.net/kml/2.2">
  <Document>
    <name>瑞里村-野薑花溪步道</name>
    <Placemark>
      <name>路線軌跡</name>
      <LineString>
        <tessellate>1</tessellate>
        <coordinates>
          120.68345,23.543451,1124
          120.683426,23.543447,1123
          120.6834,23.543484,1122
          120.68341,23.543575,1123
          120.68336,23.54365,1122
          120.68335,23.543703,1123
          120.68328,23.543781,1123
          120.68322,23.543825,1123
          120.68318,23.543896,1123
          120.68318,23.543938,1124
          120.683105,23.54401,1122
          120.683014,23.54409,1120
          120.68295,23.544168,1117
          120.682945,23.544214,1115
          120.682945,23.544262,1113
          120.682976,23.54434,1112
          120.68304,23.544416,1112
          120.68309,23.544497,1110
          120.68315,23.544573,1108
          120.68319,23.544632,1106
          120.68324,23.54465,1106
          120.68328,23.544674,1106
          120.68336,23.544691,1107
          120.68341,23.544685,1107
          120.6835,23.544659,1109
          120.68359,23.544613,1111
          120.6837,23.544607,1112
          120.68379,23.544703,1106
          120.68382,23.54478,1103
          120.68391,23.544828,1102
          120.68396,23.544893,1102
          120.683975,23.544914,1102
          120.68401,23.544983,1101
          120.68406,23.545076,1100
          120.68407,23.545122,1099
          120.684135,23.545181,1100
          120.68417,23.54522,1099
          120.68423,23.54529,1098
          120.68428,23.54537,1096
          120.68436,23.545456,1094
          120.68443,23.545536,1093
          120.684525,23.545528,1090
          120.68458,23.545437,1091
          120.684654,23.545364,1090
          120.68467,23.545326,1091
          120.68468,23.545288,1092
          120.6847,23.545198,1094
          120.68469,23.54517,1096
          120.68473,23.545135,1095
          120.68479,23.545073,1095
          120.68485,23.54502,1094
          120.68489,23.544977,1093
          120.68495,23.54489,1092
          120.68503,23.544828,1091
          120.68513,23.544786,1090
          120.68523,23.544735,1089
          120.68533,23.54475,1087
          120.685394,23.544765,1086
          120.685524,23.54479,1085
          120.68556,23.544792,1085
          120.685646,23.54476,1086
          120.68569,23.54475,1086
          120.68565,23.54477,1086
          120.68572,23.54481,1085
          120.685776,23.544851,1084
          120.68583,23.544863,1084
          120.68593,23.544872,1084
          120.68602,23.544882,1084
          120.68605,23.544899,1084
          120.6861,23.544909,1083
          120.68607,23.544926,1083
          120.6861,23.544949,1082
          120.68612,23.544958,1082
          120.68614,23.544987,1081
          120.686165,23.545034,1080
          120.6862,23.545055,1080
          120.686226,23.545115,1079
          120.68624,23.545145,1079
          120.68625,23.545187,1079
          120.68623,23.545221,1078
          120.68623,23.54529,1078
          120.68618,23.545362,1076
          120.68616,23.545395,1075
          120.68613,23.54548,1073
          120.68611,23.545515,1072
          120.68613,23.545551,1073
          120.686134,23.545584,1073
          120.68612,23.545626,1073
          120.686066,23.545681,1072
          120.68602,23.54575,1071
          120.686005,23.545778,1070
          120.68594,23.545832,1068
          120.685905,23.545872,1067
          120.68585,23.545904,1065
          120.68583,23.545929,1064
          120.68575,23.545979,1063
          120.685684,23.546038,1061
          120.68565,23.546106,1060
          120.685684,23.546175,1060
          120.68569,23.546215,1059
          120.68572,23.546309,1059
          120.685745,23.54634,1059
          120.68578,23.546423,1060
          120.6858,23.54645,1060
          120.68577,23.54647,1060
          120.685684,23.546516,1058
          120.68562,23.54655,1056
          120.685616,23.546566,1056
          120.68559,23.54665,1055
          120.685524,23.546707,1054
          120.6855,23.546751,1055
          120.68544,23.54682,1054
          120.685356,23.546867,1053
          120.68527,23.546915,1051
          120.68518,23.546968,1049
          120.68513,23.547039,1048
          120.68511,23.547066,1048
          120.68505,23.547113,1046
          120.68502,23.54714,1045
          120.684975,23.54718,1044
          120.68495,23.547207,1043
          120.68489,23.547234,1043
          120.684845,23.54727,1043
          120.68482,23.547344,1045
          120.6848,23.547363,1046
          120.684784,23.547314,1044
          120.68476,23.547312,1044
          120.684715,23.547285,1042
          120.68469,23.547277,1042
          120.68462,23.54729,1042
          120.68459,23.547304,1042
          120.68452,23.547304,1041
          120.68444,23.547297,1040
          120.684395,23.547293,1039
          120.684296,23.547281,1038
          120.684265,23.547262,1038
          120.68416,23.547232,1036
          120.68413,23.547207,1036
          120.684105,23.547194,1036
          120.684074,23.547165,1036
          120.68403,23.547144,1036
          120.68394,23.547075,1035
          120.68394,23.547054,1035
          120.683914,23.547005,1035
          120.68382,23.546972,1034
          120.68377,23.54697,1034
          120.68368,23.546968,1034
          120.683624,23.546965,1034
          120.68353,23.54699,1035
          120.68342,23.54696,1034
          120.68341,23.546928,1034
          120.683365,23.546852,1035
          120.68338,23.546877,1035
          120.683395,23.546919,1034
          120.6834,23.546965,1034
          120.68345,23.547,1035
          120.68347,23.547012,1035
          120.68344,23.547092,1036
          120.68342,23.547163,1037
          120.683395,23.547203,1037
          120.68332,23.547256,1038
          120.68326,23.547314,1039
          120.68324,23.547382,1041
          120.68322,23.547401,1041
          120.683174,23.547436,1041
          120.683105,23.547531,1042
          120.68307,23.547575,1043
          120.68302,23.54758,1042
          120.682945,23.54758,1041
          120.68291,23.547583,1041
          120.682816,23.547558,1038
          120.68277,23.547537,1036
          120.68273,23.547537,1037
          120.682724,23.547512,1036
          120.68267,23.54746,1035
          120.68261,23.547401,1034
          120.682556,23.547377,1033
          120.682465,23.547335,1032
          120.68237,23.547281,1030
          120.68226,23.547258,1029
          120.682144,23.547297,1028
          120.6821,23.547323,1027
          120.68201,23.547367,1026
          120.68195,23.547392,1024
          120.68188,23.547424,1023
          120.68184,23.547434,1022
          120.68177,23.547466,1021
          120.68173,23.547503,1019
          120.68171,23.547506,1019
          120.68167,23.547466,1019
          120.68164,23.547432,1021
          120.681595,23.547426,1021
          120.68155,23.547457,1020
          120.68153,23.54746,1020
          120.68152,23.547482,1019
          120.68144,23.547554,1017
          120.68141,23.547575,1017
          120.681366,23.547606,1016
          120.68135,23.547634,1016
          120.68132,23.547626,1016
          120.6813,23.547623,1016
          120.681335,23.54764,1016
          120.68132,23.547626,1016
          120.68132,23.547647,1015
          120.68134,23.547699,1014
          120.68134,23.547739,1013
          120.681305,23.547806,1012
          120.6813,23.547842,1013
          120.68121,23.547804,1011
          120.68115,23.5478,1010
          120.68105,23.547829,1010
          120.680984,23.547865,1009
          120.680954,23.547884,1009
          120.6809,23.547905,1008
          120.68082,23.547943,1007
          120.680756,23.547964,1006
          120.68067,23.54798,1005
          120.680695,23.54796,1006
          120.68064,23.54798,1005
          120.68058,23.547987,1004
          120.68046,23.547997,1003
          120.68036,23.548038,1000
          120.680305,23.548054,998
          120.68024,23.548094,999
          120.680214,23.548115,1000
          120.68013,23.54817,1002
          120.6801,23.548193,1002
          120.679985,23.548195,1001
          120.679855,23.54819,999
          120.67973,23.548182,997
          120.67966,23.548183,995
          120.67953,23.548231,993
          120.679474,23.54826,992
          120.67935,23.548286,990
          120.67928,23.548296,989
          120.67915,23.548344,987
          120.67903,23.548386,988
          120.67893,23.548454,988
          120.67888,23.548466,987
          120.678825,23.548494,987
          120.67872,23.548538,986
          120.67865,23.548544,985
          120.67853,23.548548,984
          120.6785,23.548555,984
          120.67846,23.548552,984
          120.67837,23.548534,983
          120.67825,23.548523,982
          120.67817,23.548489,982
          120.67811,23.548471,982
          120.678,23.548424,983
          120.67793,23.54841,983
          120.677826,23.548397,984
          120.677734,23.54851,979
          120.67764,23.54854,977
          120.67756,23.548624,972
          120.677536,23.548672,972
          120.67751,23.54871,971
          120.67746,23.548775,971
          120.67742,23.548784,971
          120.67737,23.548792,971
          120.677246,23.548798,970
          120.67712,23.548813,971
          120.67697,23.548857,969
          120.67693,23.548893,967
          120.67691,23.548979,967
          120.676865,23.549017,967
          120.6768,23.549065,966
          120.6767,23.549116,963
          120.67665,23.549168,961
          120.67659,23.54918,962
          120.67653,23.549212,963
          120.67651,23.5493,962
          120.676506,23.549358,960
          120.676476,23.549358,960
          120.676346,23.549416,959
          120.676254,23.549486,957
          120.67622,23.549528,957
          120.67615,23.549614,954
          120.67615,23.549719,950
          120.67606,23.549782,950
          120.67595,23.54982,949
          120.67586,23.549826,948
          120.675804,23.549822,947
          120.675674,23.549839,947
          120.67556,23.549881,947
          120.675476,23.549955,945
          120.67545,23.550003,945
          120.67539,23.55012,947
          120.67539,23.550173,949
          120.67537,23.55022,950
          120.6753,23.550287,951
          120.675255,23.550299,951
          120.67514,23.550285,948
          120.67503,23.550253,945
          120.67498,23.550257,944
          120.67488,23.550247,942
          120.67481,23.550241,941
          120.67474,23.550255,941
          120.67466,23.550245,941
          120.67457,23.55025,942
          120.674515,23.550247,943
          120.67437,23.550207,943
          120.67424,23.550194,942
          120.67417,23.550198,942
          120.67404,23.550188,941
          120.673996,23.550201,941
          120.673935,23.550226,942
          120.673836,23.550264,944
          120.67371,23.550266,945
          120.6736,23.550245,945
          120.67351,23.550232,945
          120.6734,23.5502,943
          120.67328,23.550125,937
          120.67321,23.550198,941
          120.67308,23.550106,934
          120.6731,23.550175,938
          120.67316,23.550158,938
          120.67322,23.550125,936
          120.67327,23.550154,939
          120.673325,23.550161,940
          120.67346,23.55011,937
          120.67354,23.550144,939
          120.673676,23.55018,941
          120.67374,23.550198,942
          120.673805,23.550209,942
          120.673935,23.550236,943
          120.67399,23.550201,941
          120.67408,23.550129,939
          120.67416,23.55011,938
          120.67427,23.550116,939
          120.67439,23.550116,939
          120.67445,23.550116,939
          120.67457,23.550167,940
          120.67463,23.550188,940
          120.67474,23.550241,941
          120.67481,23.550255,942
          120.67494,23.550274,944
          120.67502,23.55029,946
          120.67509,23.55024,945
          120.67521,23.550253,948
          120.67526,23.550219,948
          120.675354,23.550205,949
          120.67541,23.550184,949
          120.67542,23.550177,950
          120.67543,23.550198,950
          120.675514,23.550142,950
          120.675575,23.550058,949
          120.67559,23.550009,948
          120.67563,23.549963,948
          120.67559,23.550009,948
          120.675575,23.550058,949
          120.675514,23.550142,950
          120.67543,23.550198,950
          120.67542,23.550177,950
          120.67541,23.550184,949
          120.675354,23.550205,949
          120.67526,23.550219,948
          120.67521,23.550253,948
          120.67509,23.55024,945
          120.67502,23.55029,946
          120.67494,23.550274,944
          120.67481,23.550255,942
          120.67474,23.550241,941
          120.67463,23.550188,940
          120.67457,23.550167,940
          120.67445,23.550116,939
          120.67439,23.550116,939
          120.67427,23.550116,939
          120.67416,23.55011,938
          120.67408,23.550129,939
          120.67399,23.550201,941
          120.673935,23.550236,943
          120.673805,23.550209,942
          120.67374,23.550198,942
          120.673676,23.55018,941
          120.67354,23.550144,939
          120.67346,23.55011,937
          120.673325,23.550161,940
          120.67327,23.550154,939
          120.67322,23.550125,936
          120.67316,23.550158,938
          120.6731,23.550175,938
          120.67308,23.550106,934
          120.67321,23.550198,941
          120.67328,23.550125,937
          120.6734,23.5502,943
          120.67351,23.550232,945
          120.6736,23.550245,945
          120.67371,23.550266,945
          120.673836,23.550264,944
          120.673935,23.550226,942
          120.673996,23.550201,941
          120.67404,23.550188,941
          120.67417,23.550198,942
          120.67424,23.550194,942
          120.67437,23.550207,943
          120.674515,23.550247,943
          120.67457,23.55025,942
          120.67466,23.550245,941
          120.67474,23.550255,941
          120.67481,23.550241,941
          120.67488,23.550247,942
          120.67498,23.550257,944
          120.67503,23.550253,945
          120.67514,23.550285,948
          120.675255,23.550299,951
          120.6753,23.550287,951
          120.67537,23.55022,950
          120.67539,23.550173,949
          120.67539,23.55012,947
          120.67545,23.550003,945
          120.675476,23.549955,945
          120.67556,23.549881,947
          120.675674,23.549839,947
          120.675804,23.549822,947
          120.67586,23.549826,948
          120.67595,23.54982,949
          120.67606,23.549782,950
          120.67615,23.549719,950
          120.67615,23.549614,954
          120.67622,23.549528,957
          120.676254,23.549486,957
          120.676346,23.549416,959
          120.676476,23.549358,960
          120.676506,23.549358,960
          120.67651,23.5493,962
          120.67653,23.549212,963
          120.67659,23.54918,962
          120.67665,23.549168,961
          120.6767,23.549116,963
          120.6768,23.549065,966
          120.676865,23.549017,967
          120.67691,23.548979,967
          120.67693,23.548893,967
          120.67697,23.548857,969
          120.67712,23.548813,971
          120.677246,23.548798,970
          120.67737,23.548792,971
          120.67742,23.548784,971
          120.67746,23.548775,971
          120.67751,23.54871,971
          120.677536,23.548672,972
          120.67756,23.548624,972
          120.67764,23.54854,977
          120.677734,23.54851,979
          120.677826,23.548397,984
          120.67793,23.54841,983
          120.678,23.548424,983
          120.67811,23.548471,982
          120.67817,23.548489,982
          120.67825,23.548523,982
          120.67837,23.548534,983
          120.67846,23.548552,984
          120.6785,23.548555,984
          120.67853,23.548548,984
          120.67865,23.548544,985
          120.67872,23.548538,986
          120.678825,23.548494,987
          120.67888,23.548466,987
          120.67893,23.548454,988
          120.67903,23.548386,988
          120.67915,23.548344,987
          120.67928,23.548296,989
          120.67935,23.548286,990
          120.679474,23.54826,992
          120.67953,23.548231,993
          120.67966,23.548183,995
          120.67973,23.548182,997
          120.679855,23.54819,999
          120.679985,23.548195,1001
          120.6801,23.548193,1002
          120.68013,23.54817,1002
          120.680214,23.548115,1000
          120.68024,23.548094,999
          120.680305,23.548054,998
          120.68036,23.548038,1000
          120.68046,23.547997,1003
          120.68058,23.547987,1004
          120.68064,23.54798,1005
          120.680695,23.54796,1006
          120.68067,23.54798,1005
          120.680756,23.547964,1006
          120.68082,23.547943,1007
          120.6809,23.547905,1008
          120.680954,23.547884,1009
          120.680984,23.547865,1009
          120.68105,23.547829,1010
          120.68115,23.5478,1010
          120.68121,23.547804,1011
          120.6813,23.547842,1013
          120.681305,23.547806,1012
          120.68134,23.547739,1013
          120.68134,23.547699,1014
          120.68132,23.547647,1015
          120.68132,23.547626,1016
          120.681335,23.54764,1016
          120.6813,23.547623,1016
          120.68132,23.547626,1016
          120.68135,23.547634,1016
          120.681366,23.547606,1016
          120.68141,23.547575,1017
          120.68144,23.547554,1017
          120.68152,23.547482,1019
          120.68153,23.54746,1020
          120.68155,23.547457,1020
          120.681595,23.547426,1021
          120.68164,23.547432,1021
          120.68167,23.547466,1019
          120.68171,23.547506,1019
          120.68173,23.547503,1019
          120.68177,23.547466,1021
          120.68184,23.547434,1022
          120.68188,23.547424,1023
          120.68195,23.547392,1024
          120.68201,23.547367,1026
          120.6821,23.547323,1027
          120.682144,23.547297,1028
          120.68226,23.547258,1029
          120.68237,23.547281,1030
          120.682465,23.547335,1032
          120.682556,23.547377,1033
          120.68261,23.547401,1034
          120.68267,23.54746,1035
          120.682724,23.547512,1036
          120.68273,23.547537,1037
          120.68277,23.547537,1036
          120.682816,23.547558,1038
          120.68291,23.547583,1041
          120.682945,23.54758,1041
          120.68302,23.54758,1042
          120.68307,23.547575,1043
          120.683105,23.547531,1042
          120.683174,23.547436,1041
          120.68322,23.547401,1041
          120.68324,23.547382,1041
          120.68326,23.547314,1039
          120.68332,23.547256,1038
          120.683395,23.547203,1037
          120.68342,23.547163,1037
          120.68344,23.547092,1036
          120.68347,23.547012,1035
          120.68345,23.547,1035
          120.6834,23.546965,1034
          120.683395,23.546919,1034
          120.68338,23.546877,1035
          120.683365,23.546852,1035
          120.68341,23.546928,1034
          120.68342,23.54696,1034
          120.68353,23.54699,1035
          120.683624,23.546965,1034
          120.68368,23.546968,1034
          120.68377,23.54697,1034
          120.68382,23.546972,1034
          120.683914,23.547005,1035
          120.68394,23.547054,1035
          120.68394,23.547075,1035
          120.68403,23.547144,1036
          120.684074,23.547165,1036
          120.684105,23.547194,1036
          120.68413,23.547207,1036
          120.68416,23.547232,1036
          120.684265,23.547262,1038
          120.684296,23.547281,1038
          120.684395,23.547293,1039
          120.68444,23.547297,1040
          120.68452,23.547304,1041
          120.68459,23.547304,1042
          120.68462,23.54729,1042
          120.68469,23.547277,1042
          120.684715,23.547285,1042
          120.68476,23.547312,1044
          120.684784,23.547314,1044
          120.6848,23.547363,1046
          120.68482,23.547344,1045
          120.684845,23.54727,1043
          120.68489,23.547234,1043
          120.68495,23.547207,1043
          120.684975,23.54718,1044
          120.68502,23.54714,1045
          120.68505,23.547113,1046
          120.68511,23.547066,1048
          120.68513,23.547039,1048
          120.68518,23.546968,1049
          120.68527,23.546915,1051
          120.685356,23.546867,1053
          120.68544,23.54682,1054
          120.6855,23.546751,1055
          120.685524,23.546707,1054
          120.68559,23.54665,1055
          120.685616,23.546566,1056
          120.68562,23.54655,1056
          120.685684,23.546516,1058
          120.68577,23.54647,1060
          120.6858,23.54645,1060
          120.68578,23.546423,1060
          120.685745,23.54634,1059
          120.68572,23.546309,1059
          120.68569,23.546215,1059
          120.685684,23.546175,1060
          120.68565,23.546106,1060
          120.685684,23.546038,1061
          120.68575,23.545979,1063
          120.68583,23.545929,1064
          120.68585,23.545904,1065
          120.685905,23.545872,1067
          120.68594,23.545832,1068
          120.686005,23.545778,1070
          120.68602,23.54575,1071
          120.686066,23.545681,1072
          120.68612,23.545626,1073
          120.686134,23.545584,1073
          120.68613,23.545551,1073
          120.68611,23.545515,1072
          120.68613,23.54548,1073
          120.68616,23.545395,1075
          120.68618,23.545362,1076
          120.68623,23.54529,1078
          120.68623,23.545221,1078
          120.68625,23.545187,1079
          120.68624,23.545145,1079
          120.686226,23.545115,1079
          120.6862,23.545055,1080
          120.686165,23.545034,1080
          120.68614,23.544987,1081
          120.68612,23.544958,1082
          120.6861,23.544949,1082
          120.68607,23.544926,1083
          120.6861,23.544909,1083
          120.68605,23.544899,1084
          120.68602,23.544882,1084
          120.68593,23.544872,1084
          120.68583,23.544863,1084
          120.685776,23.544851,1084
          120.68572,23.54481,1085
          120.68565,23.54477,1086
          120.68569,23.54475,1086
          120.685646,23.54476,1086
          120.68556,23.544792,1085
          120.685524,23.54479,1085
          120.685394,23.544765,1086
          120.68533,23.54475,1087
          120.68523,23.544735,1089
          120.68513,23.544786,1090
          120.68503,23.544828,1091
          120.68495,23.54489,1092
          120.68489,23.544977,1093
          120.68485,23.54502,1094
          120.68479,23.545073,1095
          120.68473,23.545135,1095
          120.68469,23.54517,1096
          120.6847,23.545198,1094
          120.68468,23.545288,1092
          120.68467,23.545326,1091
          120.684654,23.545364,1090
          120.68458,23.545437,1091
          120.684525,23.545528,1090
          120.68443,23.545536,1093
          120.68436,23.545456,1094
          120.68428,23.54537,1096
          120.68423,23.54529,1098
          120.68417,23.54522,1099
          120.684135,23.545181,1100
          120.68407,23.545122,1099
          120.68406,23.545076,1100
          120.68401,23.544983,1101
          120.683975,23.544914,1102
          120.68396,23.544893,1102
          120.68391,23.544828,1102
          120.68382,23.54478,1103
          120.68379,23.544703,1106
          120.6837,23.544607,1112
          120.68359,23.544613,1111
          120.6835,23.544659,1109
          120.68341,23.544685,1107
          120.68336,23.544691,1107
          120.68328,23.544674,1106
          120.68324,23.54465,1106
          120.68319,23.544632,1106
          120.68315,23.544573,1108
          120.68309,23.544497,1110
          120.68304,23.544416,1112
          120.682976,23.54434,1112
          120.682945,23.544262,1113
          120.682945,23.544214,1115
          120.68295,23.544168,1117
          120.683014,23.54409,1120
          120.683105,23.54401,1122
          120.68318,23.543938,1124
          120.68318,23.543896,1123
          120.68322,23.543825,1123
          120.68328,23.543781,1123
          120.68335,23.543703,1123
          120.68336,23.54365,1122
          120.68341,23.543575,1123
          120.6834,23.543484,1122
          120.683426,23.543447,1123
          120.68345,23.543451,1124
        </coordinates>
      </LineString>
    </Placemark>
    <Placemark>
      <name>洗手間</name>
      <description>八角涼亭/廁所</description>
      <ExtendedData>
        <Data name="icon"><value>wc</value></Data>
        <Data name="color"><value>#10b981</value></Data>
      </ExtendedData>
      <Point>
        <coordinates>120.67324969723416,23.550243113962182,0</coordinates>
      </Point>
    </Placemark>
    <Placemark>
      <name>024</name>
      <description>水塘</description>
      <ExtendedData>
        <Data name="icon"><value>google-pin</value></Data>
        <Data name="color"><value>#3b82f6</value></Data>
      </ExtendedData>
      <Point>
        <coordinates>120.68426,23.547073,0</coordinates>
      </Point>
    </Placemark>
    <Placemark>
      <name>梅山農會|瑞里分布</name>
      <description></description>
      <ExtendedData>
        <Data name="icon"><value>star</value></Data>
        <Data name="color"><value>#10b981</value></Data>
      </ExtendedData>
      <Point>
        <coordinates>120.68637039678157,23.54774332648998,0</coordinates>
      </Point>
    </Placemark>
    <Placemark>
      <name>瑞里(瑞太古道)站</name>
      <description>7315/7315A ꒰每日兩班꒱
台灣好行 ꒰假日行駛꒱</description>
      <ExtendedData>
        <Data name="icon"><value>bus-front</value></Data>
        <Data name="color"><value>#3b82f6</value></Data>
      </ExtendedData>
      <Point>
        <coordinates>120.68323978068071,23.54341265915687,0</coordinates>
      </Point>
    </Placemark>
    <Placemark>
      <name>瑞太古道</name>
      <description></description>
      <ExtendedData>
        <Data name="icon"><value>star</value></Data>
        <Data name="color"><value>#e27653</value></Data>
      </ExtendedData>
      <Point>
        <coordinates>120.68352956672607,23.54337591862533,0</coordinates>
      </Point>
    </Placemark>
    <Placemark>
      <name>坔埔坑</name>
      <description>7315/7315A ꒰每日兩班꒱</description>
      <ExtendedData>
        <Data name="icon"><value>bus-front</value></Data>
        <Data name="color"><value>#3b82f6</value></Data>
      </ExtendedData>
      <Point>
        <coordinates>120.68636287432213,23.54471782268122,0</coordinates>
      </Point>
    </Placemark>
    <Placemark>
      <name>農會瑞里分布站</name>
      <description>7315/7315A ꒰每日兩班꒱</description>
      <ExtendedData>
        <Data name="icon"><value>bus-front</value></Data>
        <Data name="color"><value>#3b82f6</value></Data>
      </ExtendedData>
      <Point>
        <coordinates>120.68607407972053,23.5479262364356,0</coordinates>
      </Point>
    </Placemark>
    <Placemark>
      <name>野薑花溪步道站</name>
      <description>台灣好行110 ꒰假日行駛꒱</description>
      <ExtendedData>
        <Data name="icon"><value>bus-front</value></Data>
        <Data name="color"><value>#3b82f6</value></Data>
      </ExtendedData>
      <Point>
        <coordinates>120.68761911438497,23.544164744503206,0</coordinates>
      </Point>
    </Placemark>
  </Document>
</kml>