<?xml version="1.0" encoding="UTF-8"?>
<kml xmlns="http://www.opengis.net/kml/2.2">
  <Document>
    <name>瑞里村-綠色隧道</name>
    <Placemark>
      <name>路線軌跡</name>
      <LineString>
        <tessellate>1</tessellate>
        <coordinates>
          120.67350039269836,23.539117402419016,1053.634464263916
          120.67347633633175,23.539115264751906,1054.0098555094146
          120.67340127574812,23.53910704490392,1051.8052066122095
          120.67332751904233,23.53910793565606,1049.8076420164007
          120.67327175687234,23.539088166101138,1045.7092776083107
          120.67320730163162,23.539071230029887,1044.0024746762626
          120.67315095487525,23.539046040251943,1043.7428349916115
          120.67308562764893,23.539020066648895,1044.1770119731689
          120.67302748748138,23.539008461470246,1043.6172343606868
          120.67296783539948,23.538993860769768,1043.281079753787
          120.67290578917061,23.53897628287003,1043.6848042092206
          120.6728458484075,23.53894753675036,1044.7658911837116
          120.67278667895881,23.538936220578343,1045.5177590035496
          120.67272463012473,23.538926358247085,1045.8657572860263
          120.67266297744085,23.53891944377632,1045.4963106466025
          120.67259844893074,23.538914373149176,1044.976263704275
          120.67253732540256,23.5388873931192,1044.2728823556981
          120.672467007255,23.53888240170082,1044.5153751302644
          120.67238824094322,23.538869520749603,1045.0685707264684
          120.67234385193098,23.538847120988578,1044.3984628712146
          120.67230351179903,23.538828709958143,1043.0586193536792
          120.67224397598287,23.538809740375854,1043.098657269468
          120.67219590650136,23.538795865671382,1044.0076340429166
          120.6721430800353,23.538792461208132,1043.52058116802
          120.67209029144712,23.53880721275063,1043.1748345923663
          120.67203803604752,23.538832033965914,1042.7780873724519
          120.67199650661567,23.538848234496957,1041.9101573267708
          120.67194252383798,23.538862576478802,1041.2976154627129
          120.671878216519,23.538865219517373,1041.648127763154
          120.67182079437964,23.53886485826409,1040.7604856738972
          120.67180234399743,23.538850927207097,1041.2047559505816
          120.67174369920978,23.538855926299636,1038.8779596817963
          120.67167576763673,23.53884418204291,1039.484012506577
          120.67160940337732,23.538840297511705,1040.0742513330433
          120.67156109388655,23.538862533593168,1039.5403387590095
          120.67152285867917,23.53888597247354,1040.2383820561247
          120.67151865138804,23.538896469082257,1040.7371672575757
          120.67152258797749,23.538896990126542,1040.835841669199
          120.6714896733275,23.53890347060559,1039.8184138610347
          120.6714292196036,23.538927368720664,1039.2285444076786
          120.67138333728224,23.538968710994993,1039.50925352346
          120.67130427767903,23.538997228560042,1041.302640851225
          120.6712135423663,23.538971213646672,1043.2828515811375
          120.67113264629685,23.538940817384244,1043.9505266033
          120.67107052665942,23.538914053001154,1044.7819243994293
          120.67102162143213,23.538881402292148,1044.770639454821
          120.67097001489904,23.538852317303757,1043.533692208985
          120.6709293399669,23.538828038484734,1042.2319073750255
          120.67088020050265,23.538810008889794,1040.5075332843544
          120.67083298845908,23.538794536832473,1040.8684917549938
          120.67078730668784,23.538774160509977,1040.9406417013413
          120.6707328644899,23.538760556950173,1041.4785097083234
          120.67069435196441,23.53873018152635,1040.9778536944623
          120.67066344368193,23.538701649370132,1040.278453516404
          120.67062777736633,23.538659626507254,1040.4436484680696
          120.67059978771901,23.538609246450143,1039.891898656874
          120.6705821357608,23.538559345897617,1039.3016005432128
          120.67055358477313,23.53850443108396,1039.581883362229
          120.67053561502732,23.53845501400856,1039.5515469635366
          120.6705241504047,23.53837450879657,1041.8361131130407
          120.67052806213758,23.538309726756946,1043.8585885124342
          120.6704752251655,23.538293378564934,1042.3329786373465
          120.67040202203965,23.5382778328206,1041.2507017857074
          120.67032878189595,23.538294464485887,1040.9130952420217
          120.67025735015828,23.538307694555943,1039.7239029454133
          120.67018889862307,23.538318385675748,1038.8423136741633
          120.67012541112236,23.53832419857946,1039.3588126449154
          120.67007282189894,23.538333708906247,1039.4461671275164
          120.67001943097165,23.538337422735697,1039.5989887717992
          120.66996673108513,23.538348667212492,1039.648499671344
          120.66990510324959,23.53836891307584,1040.3217669831945
          120.66985055919464,23.53838728700265,1040.0385109427154
          120.66979490463086,23.538393373469965,1040.2266510740349
          120.66973748392,23.538412257549606,1038.8905423141337
          120.66968575571826,23.538430195498353,1039.271745010824
          120.66965030089075,23.538471026570974,1038.5265141550983
          120.66962850682494,23.53851552241272,1038.803321083837
          120.669603531899,23.53856174821726,1038.8119269827782
          120.66957698752891,23.538595995113603,1038.3280542209848
          120.66952824646796,23.538627301563043,1038.8360495989361
          120.66948653921462,23.538657895679098,1038.2677885559613
          120.6694515708028,23.5386996672724,1038.0917474967264
          120.66941449234285,23.538734814098696,1038.0184580664409
          120.669372368044,23.53876815693766,1037.9319880434978
          120.66930516221952,23.53879751388357,1039.1089801026562
          120.66924033409468,23.538835859793956,1040.4239425149206
          120.66919229912457,23.53888460494566,1042.9759296314107
          120.6691581169882,23.53892109103766,1043.253821856463
          120.66911693159571,23.538949924537246,1042.9273545919036
          120.6690614392475,23.538964514709498,1043.8399658347669
          120.66902374770807,23.538971043076238,1044.191171621958
          120.66897989520008,23.53895058394246,1043.7847466193189
          120.66892171253251,23.53892710489935,1043.2128661528272
          120.66885752708909,23.538905874366257,1041.4920500167295
          120.66880132681737,23.538896394415257,1040.9106143717534
          120.66873743870752,23.53890239368398,1041.2352715872184
          120.66868162392423,23.538922199646894,1041.9459899116966
          120.66861962262686,23.538928980324425,1042.6508946317658
          120.66856151523541,23.538948691865464,1042.3042416794524
          120.66850428117026,23.53896438369169,1042.1661622574984
          120.66845618251752,23.538980198506874,1042.1861736616127
          120.66840783320272,23.538998870931916,1041.945674739551
          120.6683676813093,23.53901294820882,1042.4649810628673
          120.6683238142409,23.53902717821147,1043.4346584068353
          120.66828827503969,23.53905455620215,1043.6490173460807
          120.66826101135756,23.539078277173896,1044.5332516806802
          120.66821541088434,23.53910497516565,1043.6373518876999
          120.66818961073389,23.53913578054147,1041.4205960568745
          120.66819038732338,23.539176597624976,1039.582860409517
          120.66817238150618,23.539199499369225,1038.1360100600455
          120.66811298558518,23.539226791405486,1037.4410804722984
          120.66803919084754,23.539253170802525,1038.7257862831664
          120.6679625457129,23.53925484134903,1039.6881461429718
          120.66789294735294,23.539249812543776,1040.7714474256757
          120.66781975701736,23.53925750633913,1042.738927538481
          120.66776905296705,23.539282863559304,1043.543573322429
          120.66771797907978,23.53931642128568,1044.7492051132112
          120.66769527118998,23.53936726108552,1042.3760585957707
          120.66762384107302,23.53939685380629,1043.114121868538
          120.66755347482153,23.53942618163653,1043.9056947198148
          120.66748440414347,23.539442004468263,1044.57009113176
          120.66741285025765,23.539457272422027,1045.6938291403164
          120.66735524862024,23.539478227457415,1045.484140431377
          120.66730036016425,23.539505825116333,1044.6224036479948
          120.66724563343396,23.53952461637492,1044.5562368779613
          120.667194185506,23.539563411663643,1045.8598930561977
          120.66716552867493,23.53960613239266,1047.3128111718197
          120.66715958790294,23.53965376909219,1048.7124725648387
          120.66716727271138,23.539711784384195,1049.5587015889216
          120.6671676175193,23.539763010163327,1049.8627716207973
          120.6671588115861,23.539806510663205,1049.3777303501156
          120.66713739367626,23.53985228206991,1047.73303910387
          120.6671263455474,23.53988272452199,1046.569247537818
          120.66714053361774,23.539928347620283,1045.1712621421589
          120.66714070823994,23.539966934145696,1046.4678666173852
          120.66712975555284,23.539994717681612,1047.3196899083187
          120.66709632692815,23.540037458650456,1048.66940377389
          120.66707327610673,23.540057980629033,1048.911797051839
          120.66706562875733,23.540074021513693,1048.9685161385257
          120.66706687919593,23.540093707775366,1048.2075565653154
          120.66708565122036,23.54009298353048,1048.4397763067425
          120.66709120885353,23.540102244287844,1048.7076112025982
          120.66709001494613,23.54010755922448,1049.1130938553006
          120.66706134840108,23.54007533437755,1048.619626213844
          120.66704289649756,23.540069053005904,1048.540815734566
          120.6670114152233,23.540131023933174,1048.9431602921698
          120.66704530465897,23.54025134634753,1050.4850874618412
          120.66703298716673,23.54033017958529,1051.8397650528082
          120.66700374006949,23.540382621849,1052.8379308587748
          120.66698982541232,23.54043598480922,1053.2976920613332
          120.66698762361985,23.540492549343117,1053.0237775927058
          120.66698990127561,23.540540131042803,1054.0046378180912
          120.66699301045772,23.540586443898345,1054.683188634627
          120.66699447914384,23.540622648694146,1056.0625692308759
          120.66700209061364,23.540675708423823,1056.9610195073226
          120.66700870508852,23.54072574499879,1059.2076820809634
          120.66701367833727,23.540757777401243,1062.2938702829188
          120.66701868295807,23.540790502409738,1064.3984840652104
          120.66702674496025,23.54083911579753,1064.6198375817035
          120.66703061703068,23.540861658068852,1063.869105465167
          120.66703952303558,23.540895100249447,1063.002767220371
          120.66706311718735,23.54093322854881,1062.2988036814827
          120.66707762445363,23.540972203405538,1062.6860947280575
          120.66709631019165,23.541010235337644,1063.411994579844
          120.66708495188139,23.541051741068934,1065.0671621832248
          120.66708978946643,23.54109139195936,1066.4359773615474
          120.6670847146643,23.541114523563756,1068.2791965240199
          120.66708921421575,23.54113973009402,1069.854885770495
          120.66710645984536,23.541172353739327,1071.5274649109049
          120.66712972623667,23.541175290819783,1072.838045686125
          120.66714570300174,23.541198389802396,1073.5665088318508
          120.66717224711074,23.541218831502423,1073.4379697698207
          120.66721071365798,23.54123367548137,1073.742216614221
          120.6672298706157,23.541270082473236,1073.797508120331
          120.66720822973915,23.541313535502418,1074.5871680988469
          120.66721631928526,23.541353524386167,1076.0569487489493
          120.66720585588301,23.5413998525611,1076.9069548188384
          120.66720467611077,23.541427798391485,1077.3494446109905
          120.66720516282787,23.54144097740683,1078.0565380118692
          120.6671992634079,23.54148481477486,1079.5980332260262
          120.66719787566599,23.541522109977368,1080.3325321220461
          120.667196800815,23.541534400831097,1080.2570041992944
          120.66720563494363,23.541552213517527,1081.5611085875594
          120.66721498945674,23.541592393577062,1082.841280643949
          120.66723357079341,23.541622782772738,1083.3126436551827
          120.66727456381331,23.541642430757914,1082.5599078168416
          120.6673318240347,23.54164815021053,1083.1196670103088
          120.66739049733056,23.541651490927375,1085.2160092102647
          120.6674319899146,23.541675815154385,1087.9018916991283
          120.66746969816519,23.541707657581302,1088.6402902856692
          120.66749638418676,23.541732481105104,1089.3045095179232
          120.66752627079569,23.541752369445,1089.1655917060639
          120.66755086731526,23.541786780500644,1089.2176492831438
          120.66756812074178,23.54182494950476,1088.6263724294104
          120.6675906143967,23.541859369392835,1089.287933900489
          120.66760841736033,23.541892018182157,1089.3962231760236
          120.66766118972167,23.54192757067766,1090.3219836688693
          120.66770992519577,23.54195781458366,1091.2341958299346
          120.66775814791013,23.541965946703495,1093.0825090539574
          120.66781167831616,23.541983717407962,1095.4911147474309
          120.66781925325076,23.542026257306535,1096.6144204152897
          120.66780018076521,23.542077166023255,1096.9517828699275
          120.6677408292557,23.542134627223447,1097.527393090754
          120.66768499719332,23.542154288894466,1097.9695339495677
          120.6676457450148,23.54216291442316,1098.4586111386407
          120.66760029318061,23.542179236487204,1099.0645857306122
          120.66753508551407,23.542196280165946,1099.5736488037646
          120.66748695792334,23.542203984704074,1100.4925550293153
          120.66745268261032,23.54220720334378,1100.8586636039759
          120.66740394866366,23.542210483499726,1101.1013937776759
          120.66737817805239,23.542205454122655,1101.2367795535376
          120.66736511368998,23.54220369373941,1100.5822744835543
          120.66736382456754,23.542201677367792,1100.7121850793608
          120.66734008990366,23.542205821132956,1100.4660967938526
          120.66730039572634,23.54221509812461,1100.4956848259685
          120.6672656783992,23.54222989666322,1101.7107047518111
          120.66724732525053,23.542248904054578,1102.835093830214
          120.66727572007632,23.542252811650645,1103.0141188938235
          120.66732984007479,23.54224345627678,1103.6419389823902
          120.66738599776731,23.542224204709235,1103.4917525016974
          120.6674448927649,23.54221207609161,1103.6869755711627
          120.66750750696477,23.542201088026143,1103.4656491313447
          120.66756559732819,23.54219041286998,1103.6298954998313
          120.66760730523451,23.542179237479363,1104.2475061838009
          120.66763869055703,23.542166231733347,1104.4017175545061
          120.66767676110938,23.542150196803213,1105.2163092407188
          120.6677349415663,23.542177280959088,1105.3815298790903
          120.66783012240654,23.54222429844958,1105.304020754803
          120.6679017623499,23.542230097714295,1106.252549862703
          120.6679399409733,23.54222827417737,1106.657372355988
          120.66799849287641,23.542223379712198,1106.7268500123134
          120.66804556902561,23.542232536675336,1106.5704276319696
          120.66807127409419,23.542253421422195,1106.818449681878
          120.66811259218416,23.542267372533853,1106.946917373997
          120.66817329799271,23.54226690484448,1107.6748812789185
          120.66823470142059,23.542268703213338,1108.0593374198588
          120.66827321550839,23.542298295798705,1108.1645265027169
          120.6683173784025,23.542313858174936,1108.3946812665188
          120.6683570743672,23.542326711902973,1108.974556213432
          120.66840097642852,23.542335313714894,1109.5745463310925
          120.66845402930998,23.542333514758464,1109.9672867779616
          120.66850993341463,23.54234077812527,1109.5753707999854
          120.66855013662752,23.542347185752718,1109.363119356665
          120.66858662278479,23.54235631600723,1110.115520083344
          120.66862931199009,23.542348983437208,1111.2715626975394
          120.66866988688423,23.542330204246472,1112.0418767834688
          120.66871805845672,23.542320194938057,1112.5845928620097
          120.66876436338151,23.54231453224145,1112.9034115264142
          120.6688179189681,23.542315519035387,1112.0643121801575
          120.6688643471359,23.542319681508825,1112.4346265182774
          120.66889664443123,23.54230835171739,1113.0930171333678
          120.66892817205562,23.54229283272141,1114.1008380452695
          120.66896318987517,23.542275251004032,1114.6966775819687
          120.66900646859771,23.5422706570421,1115.0773745328831
          120.66904982766147,23.54225835465836,1115.7629517722412
          120.66910310748997,23.54225224819083,1116.5420002297042
          120.66914977516848,23.542237465021394,1118.1809711825417
          120.66918587301484,23.54222653609086,1119.386849313275
          120.66921899722362,23.542216196446194,1120.9959611930765
          120.66925665246976,23.54221902204825,1122.9491792346491
          120.66930452538904,23.54222482696511,1124.194562396727
          120.66934192619674,23.542241454605783,1125.3379223316454
          120.66935749523029,23.54226114549196,1124.1667066348743
          120.66935681102872,23.54230699494804,1123.1142269127035
          120.66932779637855,23.542341065419794,1123.4475562986681
          120.66927894208918,23.542361932501336,1125.386255800158
          120.66921920604732,23.54238908575708,1125.9917547387029
          120.6691680218764,23.542418733752196,1126.7610348365852
          120.669122888749,23.542443571591953,1127.9472733124185
          120.66908532249518,23.54246633308356,1128.9430363405029
          120.66904539986514,23.542489751134703,1128.9358539054974
          120.6690041326205,23.54250740118321,1128.4982856508905
          120.6689633109073,23.542528387218656,1128.8696290341343
          120.66893192093166,23.542546717402143,1129.057600567306
          120.66890046842245,23.542550814072868,1128.7442842175356
          120.6688829243218,23.54256462011187,1129.206474733204
          120.66884780878917,23.542583715353746,1130.0890647948622
          120.66880191085752,23.542603512629803,1131.7694713448466
          120.6687590294918,23.54262821526054,1132.5511128641774
          120.66871686028688,23.542650447611784,1132.3410715752166
          120.66867442542893,23.54267877691098,1132.377574558718
          120.66865447580308,23.542706596923395,1131.5054616516813
          120.66863178026846,23.542745641696243,1129.1916296555592
          120.66862166012275,23.542789750249728,1129.3135030426033
          120.66863579157406,23.54282414576552,1129.9263327156957
          120.66862896213605,23.542882425130678,1130.1637299647375
          120.66861976461067,23.542924111301215,1130.4210836478799
          120.66862548770165,23.54296828491077,1130.19007315455
          120.66862823801067,23.543012512407536,1128.3445587757972
          120.66863518833878,23.54306370718195,1127.363089195254
          120.6686403204483,23.543120610358443,1125.090921233744
          120.66865453313892,23.54316518682034,1124.7180191858617
          120.6686684588456,23.543206763485532,1125.6853001797044
          120.66867882425794,23.54324266243765,1125.9860185024668
          120.66868996708305,23.54328141748379,1127.3407430691534
          120.66870233576556,23.54332283611808,1127.9216383819194
          120.6687144234971,23.543357975926302,1127.1534589694986
          120.66873182212436,23.543397101465086,1126.5121091796238
          120.66876653990194,23.543441528983077,1128.0222141669708
          120.66879500570538,23.54348411058987,1129.062218611472
          120.6688178180481,23.54352383079632,1129.9188843853194
          120.66884712783548,23.543554335795708,1130.7757948886895
          120.66887077150164,23.543575766154877,1130.291694820259
          120.66888309185474,23.5436073912071,1128.9765087312362
          120.66892764904446,23.543630082911164,1127.988435733742
          120.66898763401015,23.543649982577527,1128.5180852889314
          120.66903536796907,23.543672166015163,1130.0268592019738
          120.66907552872844,23.543699186543027,1130.7447842769254
          120.66911660385884,23.543725097377273,1132.1057762283701
          120.66915579885013,23.543751711533115,1132.5470085932557
          120.6691828179161,23.543796366043892,1133.9387907749356
          120.66918380231836,23.5438135985655,1134.130712997822
          120.66919331372348,23.54385129017346,1131.5632880006083
          120.66924682001546,23.54386659297729,1131.2647887824207
          120.66929728472186,23.543897718761286,1129.3618701087278
          120.6693425992934,23.543928164887564,1127.2568930031036
          120.66938019224374,23.54395695246919,1126.537777395245
          120.66941713025959,23.543983475959575,1126.0791847823805
          120.66945256406682,23.544002341277544,1125.8577750193112
          120.66945723000485,23.544003924561046,1125.5795478258037
          120.66944162113535,23.54399634536312,1126.026827919798
          120.66942298993936,23.543983459070798,1126.1414030286746
          120.66943116196823,23.543981184569425,1126.051461264177
          120.66943516050897,23.543984465853182,1125.9680986129758
          120.6694455889294,23.54399007967278,1126.1639052566322
          120.66944437841815,23.543991220874503,1126.004079849705
          120.66944806129699,23.543991706810356,1125.9451986222955
          120.66945341089495,23.543990755122792,1125.7512099839541
          120.66947129871657,23.54399228932353,1125.682305306544
          120.6695028238434,23.54399774843783,1125.685803042538
          120.66952694726362,23.544024237338107,1126.0931496324722
          120.66956882088802,23.544055415182147,1125.9847542267783
          120.6696165408512,23.544090305467424,1126.0358473770225
          120.66964702897634,23.54411603437604,1126.7024794980057
          120.66967951508909,23.54414055588387,1127.0759030431782
          120.66971519015387,23.54416606420987,1127.3043681712559
          120.66975029241654,23.544193067584136,1127.2010427655662
          120.6697847559581,23.544218005123774,1126.8594465484832
          120.66981128535397,23.54423624565339,1125.7397450134497
          120.66983805410011,23.544248396307015,1125.460799759292
          120.66984961110708,23.54425723337081,1126.1914799156843
          120.66989024686835,23.544273844619408,1127.0000660706803
          120.66993200254511,23.54428920322553,1127.712896695327
          120.66996884577695,23.544303744395815,1127.3384011401865
          120.67000807504562,23.544327643051105,1125.8684677643434
          120.67003256030098,23.544361370854915,1124.307389801942
          120.67003406776175,23.54437881850393,1123.6493136553793
          120.67002975830076,23.544381034534293,1123.4591810598563
          120.67004249134534,23.544374998311383,1123.0163419962082
          120.67005061404245,23.544366482536056,1122.3573826578195
          120.67005389447831,23.544366088969532,1121.8048037566714
          120.67006370636838,23.544366959880882,1121.3830480269464
          120.67007472612731,23.544357012258253,1121.35346601849
          120.67007821778928,23.54435545400332,1120.6035198803133
          120.67007067328511,23.544361217364678,1119.797356971072
          120.67009412625829,23.544355547021134,1119.8255555765784
          120.6701399981339,23.544344247571175,1120.1836292736043
          120.67020084379448,23.54435165521847,1122.2515436988076
          120.67024509060636,23.544364628547097,1123.978289455371
          120.67029775520945,23.544388391845278,1125.0677545620742
          120.67032847731018,23.544404190600833,1125.7759746833565
          120.6703734476516,23.544428051737718,1125.9331617850996
          120.67040037672864,23.544442769980694,1126.0897729281305
          120.67043881808831,23.544463687986905,1126.2920591269176
          120.67047653457658,23.544487742910583,1126.6084424110572
          120.67052933197029,23.544515123803084,1128.4627848429209
          120.67056227300185,23.54453280624509,1130.2666821519879
          120.67060252062608,23.54455611568242,1132.347569472882
          120.67063450225503,23.544575045858554,1132.9305601721353
          120.67068424955609,23.544604845988243,1133.6119253278691
          120.67073601443052,23.544637762633815,1133.6429533726493
          120.67077532379425,23.544663375877967,1135.9092343319003
          120.67080822085708,23.544684959203472,1137.3807331110631
          120.67084398973346,23.54470805891156,1138.6371836770488
          120.6708745479024,23.544728262603257,1139.8830782152463
          120.67090618909972,23.54474946691619,1140.3039718755633
          120.67095267487183,23.54478026932555,1140.9076976628126
          120.67098452130675,23.544800629498596,1140.7059715755984
          120.67102602201997,23.544826363335748,1140.670025098635
          120.67108159297024,23.544860223130957,1142.018528333143
          120.67112498507952,23.544884871790632,1142.5641899604682
          120.67116939965393,23.54490785913438,1142.834205505691
          120.67121087874285,23.544930181747084,1142.998005148364
          120.6712806502942,23.544954865453665,1142.786697961481
          120.67132934521324,23.544970242018646,1142.567099111137
          120.67136759168112,23.544991733168533,1142.461077096975
          120.67140984765074,23.544998258326743,1142.0492072783984
          120.67146144604779,23.54500983462278,1142.5040999632586
          120.67151993017755,23.545028437265323,1143.6534681370097
          120.67156477540509,23.545044924893237,1144.4640890656708
          120.67159728753188,23.54506041676258,1145.8606575105014
          120.67162606244611,23.54507580661298,1146.3054867665328
          120.67167174383104,23.545102435133895,1146.9950045553855
          120.67171102671153,23.545128651306566,1148.1519332001203
          120.67176538531372,23.545171066841558,1149.2700400499873
          120.67181614464656,23.545218360597854,1150.1336625993242
          120.67184405216591,23.54524668813218,1150.5511927275084
          120.671875670116,23.545283697215357,1150.834886805826
          120.67189459175785,23.545308691568568,1150.511348975697
          120.67191666893473,23.545340556368487,1150.5892479974755
          120.6719421268206,23.545377975448694,1149.839518435367
          120.67197719931504,23.54543090234727,1149.1178914522884
          120.67200475382309,23.54547143840021,1148.9423037122199
          120.67202630185977,23.545526369057136,1146.1870087948319
          120.6720573588131,23.545577579839478,1143.5665871098877
          120.67208558997403,23.545614283292664,1142.4869327285026
          120.67213655768144,23.54563000333763,1143.1371009063525
          120.67220328270736,23.545616787638018,1143.2363640288613
          120.67227370676838,23.54560227857357,1143.4164798029774
          120.67234793641954,23.545591928384514,1143.8549162838954
          120.67239656948945,23.545616338065315,1143.2952222063986
          120.6724449162667,23.54562911491815,1143.49145192725
          120.67248146178972,23.545646974070788,1143.8580689948164
          120.672486953796,23.54570969384871,1143.0086745414749
          120.67249886644171,23.545768112862834,1141.6255873266578
          120.67251670393851,23.545809280606843,1140.6860729294958
          120.67252299007953,23.545855889885516,1140.197121220096
          120.67253137318926,23.545898613661482,1138.7572982160013
          120.67256134175081,23.545935603859323,1138.3161658460956
          120.67259870012718,23.545967119919386,1139.060118421342
          120.67262559960014,23.54600069581298,1139.3416164875184
          120.67264707894336,23.546038899848714,1140.0605957365206
          120.67266459875214,23.546085266299194,1142.6576134755664
          120.6726773707297,23.546139308700596,1143.0629414950924
          120.67269101480377,23.546190957363223,1142.3263837912566
          120.67271021319053,23.546227095041683,1143.0293025733556
          120.6727318326973,23.546279370676004,1143.2039735051844
          120.672751422236,23.546333182522943,1143.9590350612743
          120.67276545567897,23.546376629220912,1144.7650871492322
          120.67277712992463,23.546413720356654,1145.7482226055592
          120.67278804707742,23.546447332402714,1147.1036970267776
          120.67280499276936,23.546500730544842,1146.7502989410227
          120.67281864919859,23.54654934586327,1146.8019441618194
          120.67282593684799,23.546578571798605,1147.1730565390696
          120.67283371514611,23.546616223592956,1148.3240169680644
          120.67284066422022,23.54666524457607,1150.3675530138419
          120.67284506587166,23.5467209445311,1151.4920289956976
          120.67284698621512,23.546769066001733,1152.4772747568782
          120.67284864414567,23.54680516618329,1152.4618159084582
          120.67285216418287,23.546851427107928,1152.0882064098241
          120.6728558171699,23.546888759226224,1150.9783590911732
          120.67285420436158,23.546928316798628,1149.7376697855734
          120.6728601038975,23.54695731407897,1149.427578691514
          120.67288745849268,23.54699976869308,1148.6589785231802
          120.67292219913156,23.547038999089807,1147.9382226850241
          120.67295459394045,23.547069397274054,1148.2467909255683
          120.67299949382029,23.54710401828109,1148.2498015168158
          120.67302595463275,23.547126327268582,1149.3795286875531
          120.6730462846618,23.54718339482238,1150.9199042676992
          120.67307322192084,23.54720980962545,1150.0083081880653
          120.67309553582474,23.5472162901626,1149.1516264032093
          120.67313457612673,23.54721927940008,1149.0174539636428
          120.67320326347314,23.54724181454207,1149.3103479109723
          120.67325731658096,23.547270331483272,1150.4752707946107
          120.67330422729319,23.547298216682247,1151.4751035092588
          120.67336042298581,23.547330963223523,1153.6192176741174
          120.67339120329302,23.547348673500945,1154.6062500981668
          120.67343010767178,23.547376065934362,1154.4029232606808
          120.67345791027552,23.5473976837431,1153.5401837229617
          120.6735064672884,23.547418576244407,1152.771543821408
          120.67354828231052,23.54743985696568,1152.062000106865
          120.67359769797588,23.547467373378,1150.7402182799026
          120.6736605398858,23.547492938268647,1148.9514821636255
          120.67372222942411,23.547499988930394,1147.4157923517682
          120.67378221047925,23.547494433822536,1146.587109442493
          120.67383373491924,23.54748214053263,1147.1150732677809
          120.67386408730955,23.547468768503208,1147.5775032612562
          120.67390222573808,23.54745410869291,1147.7662172680268
          120.67392865331746,23.547439954327544,1148.3155182685907
          120.67394512269802,23.547432088155304,1149.170208672921
          120.67398303146463,23.54741974750084,1151.224579936876
          120.67402910554613,23.547410426620857,1153.5283388479227
          120.67407029195385,23.547406512901876,1155.0426323433376
          120.6741204344917,23.5474076266436,1156.0843160494487
          120.67418178448496,23.547424520876127,1156.3024833601098
          120.67422634516197,23.547455751874857,1155.916824707573
          120.67427733220241,23.5474872109106,1155.5019615380963
          120.67430553406592,23.54748611247265,1155.0899681159149
          120.67434825927401,23.5474983570996,1154.8271233651506
          120.6743898692632,23.5474916614159,1155.0933623334872
          120.67441102991927,23.547492285439155,1154.7871670481898
          120.6744660775986,23.547510192179,1154.5971261721854
          120.67450504017825,23.547525230744654,1154.0994060186606
          120.67453739019514,23.547541063648513,1154.1812732470928
          120.67457663880994,23.54757511721801,1153.7369321167441
          120.67462245604784,23.547597409382583,1153.2363474790257
          120.67468338857964,23.547619053111788,1152.9284362648593
          120.67468987108799,23.547635305158032,1152.4371193097775
          120.67466012387673,23.547646183415466,1151.607484078141
          120.67464599681028,23.547645987003836,1151.042949548443
          120.67466703453603,23.547631396118646,1151.43722565813
          120.67468811864805,23.54764950549706,1151.077166282703
          120.67469514645082,23.54765858616357,1150.906656407221
          120.67471299226709,23.547676847092266,1149.8201653178937
          120.67474576171303,23.547677199681,1149.1959383544686
          120.674810861181,23.54765873461971,1148.370122738907
          120.67487785501068,23.547665502292105,1147.6167717988308
          120.6749266624602,23.54767482962655,1148.0292393936165
          120.67497256293198,23.547683914590166,1148.906573258049
          120.67502959487311,23.547689776480972,1149.7330175577347
          120.67508038754173,23.547702697374525,1149.005685958366
          120.67512719865816,23.547721230063814,1147.8498106452594
          120.67517286326259,23.547717088439757,1146.558919243452
          120.67521445383935,23.54769671354293,1146.6388734945988
          120.6752534739737,23.547680344404203,1146.7561142446457
          120.67534289523127,23.547667210938044,1146.6489681196224
          120.6754042076603,23.547658471018146,1146.2400848999605
          120.6754655572181,23.547653300491387,1145.929371200498
          120.67551489887329,23.547652083593928,1145.661793421233
          120.67557063396377,23.547647015563243,1146.1837371161978
          120.67562375508442,23.547642896185387,1146.7403072156258
          120.67568602101537,23.547637661630407,1146.8322217971886
          120.67575091107511,23.547631090471945,1146.9451661674407
          120.67579074583813,23.547628926285565,1146.7550611011916
          120.67585094601237,23.547619299430018,1146.461299310326
          120.67591030342514,23.547608238238798,1146.9349795851901
          120.67595989017373,23.547599773396115,1146.315533605997
          120.67600024602447,23.547581900086506,1146.215962269453
          120.67603796149307,23.54756209180759,1145.7996586451868
          120.67608474179029,23.54753857315302,1145.9029491153394
          120.67613099767645,23.547513123785837,1145.9036338561973
          120.67615575522385,23.54748737876283,1147.2800138511059
          120.67620605120979,23.547474658519032,1149.1208055436293
          120.67625625911482,23.547480925590904,1151.585673848308
          120.67632173768074,23.547513118782817,1153.568101314127
          120.67637430433655,23.54754369126545,1153.8675004982308
          120.67645948667749,23.547568635440797,1152.1487236596129
          120.67652988332851,23.54756540103767,1150.6019652723633
          120.67658648816393,23.547541826230006,1149.0937827626904
          120.67663871889772,23.547517714981414,1147.9191215856345
          120.67669747190594,23.54749479059083,1148.1080112389227
          120.67674247831329,23.547477974950798,1148.0507180266195
          120.67679260933555,23.547459401268657,1148.3312575226994
          120.67684719450297,23.547439121966953,1147.744962367423
          120.67690826832686,23.547416215989916,1147.7676407212127
          120.67697290599868,23.5473921823382,1148.5882934264773
          120.67702464771392,23.547375568397822,1148.6203419931555
          120.67707098966231,23.547368782593953,1147.5619103758156
          120.67711230148304,23.54735447189208,1145.7420245397786
          120.67716406944886,23.547338453383066,1145.0925279630935
          120.67721879885295,23.54731786052059,1145.1273912366694
          120.67725726007966,23.54730328934281,1143.290889518077
          120.67732746028737,23.54728451400885,1143.6573506257132
          120.67738816642714,23.547269172782805,1143.6945283908797
          120.6774444537052,23.547256225731303,1144.5700576241857
          120.67749770914978,23.54725114657196,1144.7235945187854
          120.67755467659872,23.547253530702346,1144.5146917955162
          120.67761621546512,23.54723607211932,1141.625893050149
          120.67767521294228,23.54721182476073,1140.9844769691895
          120.67773334443969,23.54718850799258,1141.2652890186278
          120.67778590766393,23.547180130634707,1142.1896806604168
          120.67783761268062,23.547165629542615,1140.7662255403866
          120.67789439861475,23.547159035297877,1141.8808948868536
          120.67796436135035,23.547149503208704,1142.265604660541
          120.67802663759973,23.54713720985858,1143.3419817972308
          120.67812193108038,23.547124594550056,1143.9999279858027
          120.67822780612376,23.54711269158764,1144.2258644178357
          120.67830085336195,23.547104617543695,1144.4167071820114
          120.6783763479485,23.54709373386696,1144.3126634472098
          120.67844527692422,23.547083088518907,1144.9193989408614
          120.67851758351937,23.54708540307745,1145.7770522881438
          120.67856664124245,23.547094526811833,1145.4604163610836
          120.67863235895618,23.54709449505739,1145.7735778754734
          120.67871098786303,23.547076444614998,1145.180867033372
          120.67877725426284,23.54707682600058,1144.7941656125427
          120.67885461681014,23.547088463581314,1144.203832928852
          120.67892193531546,23.54710371357935,1142.7634064609106
          120.67898456129566,23.5471263043581,1141.183498843342
          120.67902063334668,23.547111753391906,1137.8519184222368
          120.67904358577145,23.54708776044795,1135.640831127246
          120.67904172383633,23.54703454883772,1134.8535950359778
          120.67907684029704,23.546998523924543,1135.9780501962218
          120.67916429581936,23.54694665330569,1136.4357640474452
          120.67922540663636,23.546932018256093,1136.9813408129112
          120.67931349522189,23.546931502214534,1138.210404663099
          120.67937572329518,23.546931809278945,1139.32995477731
          120.67940098086368,23.546935541762736,1138.8824105412189
          120.67946143182225,23.546922404257362,1138.316317013912
          120.67953155349485,23.54691536825414,1136.9043599223307
          120.67960582755455,23.54690373748812,1134.5093154804208
          120.67965196060345,23.546888852927346,1133.830744794956
          120.67967295298281,23.546881889971942,1133.6648017172195
          120.6797259610912,23.54688862867872,1133.553237120755
          120.6797845672988,23.54691501576254,1134.2669704410507
          120.6798210449665,23.546940091685613,1128.4306342854588
          120.67986449315038,23.54696130090815,1122.5986282225083
          120.67993681869719,23.546951840057694,1118.6876337981
          120.67999194992983,23.546918715675613,1117.5489181438338
          120.68005328932017,23.546884985356485,1117.271742956681
          120.6800789064087,23.54684456890039,1115.511541565111
          120.68010618658656,23.546813763081026,1116.027992148174
          120.68015517216143,23.546776232607648,1118.3921092758515
          120.68018669534531,23.546756610448885,1119.1590300509279
          120.68023737994942,23.546722008181842,1119.1875084228022
          120.68030648791826,23.54666918840907,1120.8997533407282
          120.68039683722849,23.54664125867972,1122.8257224286028
          120.6804743520159,23.54659624202222,1124.5494545776178
          120.68049583817871,23.546592512468187,1124.3640425851138
          120.68050343965135,23.54659404093628,1122.8022124770928
          120.68047602775486,23.54659363262461,1121.7126948573064
          120.68051083868014,23.546525858280585,1122.6047256537502
          120.68055033951448,23.546457798290803,1123.2039109428838
          120.68056712536026,23.546413193337333,1123.2186008381072
          120.68046835262392,23.546579098350875,1116.8206214904785
          120.68046140479055,23.546582903904874,1116.2800550305017
          120.68044928966458,23.546589260741023,1116.3804726587787
          120.68042540199161,23.54661263605155,1116.4439815369342
          120.68040153131787,23.54660978622659,1119.1152462720192
          120.68041173666256,23.546532092309718,1125.3433024816395
          120.68040845609363,23.546526706072836,1127.1210695781108
          120.68039856490869,23.546542784051027,1126.7962204966248
          120.68037719566648,23.546581227932993,1127.901376541156
          120.6803563423114,23.546601639277284,1130.6763435600683
          120.68033807647365,23.546608311727763,1132.3434260279637
          120.68031329281483,23.546626485344184,1133.0936264725303
          120.68027795296022,23.5466386450373,1133.3609296721563
          120.68024045316115,23.54663134633119,1133.8413459870108
          120.68022008411505,23.54664326290384,1134.2188736858172
          120.6801922930384,23.546647489096983,1135.5391323180907
          120.68016311426705,23.546651964860125,1136.840133455041
          120.68014543585561,23.54666946764719,1138.1699591652007
          120.68010932978696,23.54666497909548,1139.8134679027562
          120.6800851896104,23.546636050961645,1141.2966867958964
          120.68005127401966,23.546641526261734,1142.7100132131459
          120.68003440084145,23.546641114645396,1143.6684175121757
          120.6800173812145,23.546646868859995,1145.7739275613292
          120.68000543474285,23.54664960785766,1147.4258676847364
          120.67998838622678,23.54664202178001,1148.7283430399877
          120.67996572057098,23.546639062589403,1150.2540316116133
          120.67993911782055,23.546634505373785,1152.0587476713265
          120.67990604283798,23.546646133319875,1151.9386733814056
          120.67988760039218,23.546635609550368,1150.4390799815594
          120.67987981952044,23.54663510746544,1151.498326899656
          120.67986791457433,23.54663359448784,1154.7373286128009
          120.67986313027104,23.546629546948697,1156.3304215189657
          120.6798537293064,23.546596482907074,1156.7613024943314
          120.67984921182438,23.546564409217346,1157.2593752070343
          120.67985949136256,23.546560345818968,1158.8048172026588
          120.67985738103211,23.546538950843214,1159.6865653505454
          120.67985082056727,23.546526667624708,1160.770844627841
          120.67984207403259,23.546511932295775,1162.1700874643627
          120.67982999183388,23.546488256732484,1163.5849302179424
          120.67981647056163,23.546454359848155,1164.8515750905506
          120.67980578951092,23.546421512145525,1166.5866742147398
          120.67980886780398,23.54640130394769,1168.0288032054505
          120.67982025954508,23.54638062320318,1168.7845344595903
          120.67983855727498,23.546363062055434,1167.4896990415648
          120.67984936094516,23.546346004832117,1166.8702804337036
          120.67984945231389,23.546326367425124,1167.1821209945883
          120.67986433448876,23.54633393288514,1168.103856837684
          120.67988014261884,23.546322387315623,1168.0341133153775
          120.67988865540423,23.546295255861246,1168.4630952855537
          120.67988382365485,23.546268782289864,1168.8006796369696
          120.67987916230013,23.546247699816316,1169.2046075076594
          120.67989146328594,23.54623167885562,1170.404650199537
          120.67992543559676,23.546220191331308,1171.5858001413446
          120.67995960189032,23.54621452858809,1171.7577895036147
          120.67998187494052,23.54620100855275,1171.7094662786521
          120.68000247203057,23.54618620650448,1171.2486562104993
          120.68003540110462,23.546173253087037,1170.9881916904699
          120.6800594350239,23.546146174847614,1172.3533187383105
          120.68007472398887,23.546126511861615,1174.053316036109
          120.68008530837169,23.546124145227743,1175.8108050529822
          120.68009140867817,23.54612864981856,1176.1133331117558
          120.68009701067486,23.5461274255816,1175.6678514754676
          120.6801019461622,23.546124843957628,1176.3349539501785
          120.68010320768045,23.54612802769065,1176.338726857593
          120.68010256107479,23.546131328208492,1176.4169856375686
          120.68010214353984,23.546129605287007,1176.1212622021624
          120.68010204099276,23.546126093267457,1175.328750253536
          120.68010204787939,23.546117124091317,1174.329517093063
          120.68010180762441,23.54610313658959,1174.8469295109542
          120.68009955558097,23.54607770496576,1174.7081333700933
          120.68009548796168,23.546050296885102,1174.864578481155
          120.68008968067866,23.546015851393445,1173.9082087675852
          120.6800857010581,23.545990355052982,1174.526189705735
          120.68008703131514,23.545964996249946,1175.19405071982
          120.68008969654328,23.545924457682187,1176.3753744204605
          120.68007726898728,23.545887601777853,1177.1756984989404
          120.6800684102865,23.545849134382408,1177.2942178963608
          120.6800681392879,23.545811627261237,1175.926791308187
          120.68006332119285,23.545766949663758,1175.5468834002327
          120.6800586154992,23.545710384115388,1174.498565566855
          120.6800702688014,23.545668403091316,1173.3778863805258
          120.68007423222284,23.54565144937104,1172.79499276421
          120.68008274962968,23.54564159912353,1171.3995128301058
          120.68010318293649,23.545611061103422,1170.397510151969
          120.680124095839,23.545582552702225,1170.1653497397454
          120.68014489890693,23.545546953517423,1170.0511138615432
          120.68019950435205,23.545498771890653,1168.2307801493332
          120.68023936876298,23.545470317611464,1168.516584550696
          120.68025911770188,23.545450242057004,1168.2737596557715
          120.68027644756732,23.545431237287662,1167.4884315204563
          120.6802941667878,23.545416554304754,1166.9857873937403
          120.68031209416155,23.545404024735543,1166.3812533850592
          120.68032740744145,23.545393907471915,1166.5331798197192
          120.68033950576773,23.545385910559073,1166.5048340362132
          120.6803541177211,23.545376184950893,1166.857897013698
          120.68037877077273,23.545359846084924,1166.987772840051
          120.68041305546637,23.545337776933742,1166.9311032156452
          120.68045332624335,23.545313697182173,1166.1241260160864
          120.68048982141873,23.545292996944774,1164.193488234924
          120.6805155507011,23.545278850846582,1162.6616452740084
          120.68054423489357,23.545264975125626,1162.0248598841679
          120.68057709284226,23.545250254832798,1161.720928223965
          120.68061567965238,23.5452338729816,1160.9353050110687
          120.68066097419634,23.545218407827033,1161.3068605120072
          120.68068135625525,23.545213046968254,1161.656819150342
          120.68070738421504,23.545204950288966,1162.481913476674
          120.68074629797792,23.5451936509669,1162.626443419081
          120.68080333399756,23.54518582050763,1162.6298461420172
          120.68083303576046,23.545181330005896,1160.4413758898359
          120.68086016124447,23.545175603886943,1158.9926341113417
          120.6809181166137,23.54516190764317,1159.172477697904
          120.68096386477264,23.54515057194836,1159.9630123138588
          120.68099477796453,23.545142747937966,1160.6967951097984
          120.68103398925423,23.5451336923228,1160.3955978236343
          120.68108001597004,23.545123816458922,1159.7801992948273
          120.68113385850671,23.545114064703228,1159.8500078071975
          120.68114275199365,23.545106524559383,1159.1646795312643
          120.6811691277916,23.54510005882329,1159.1833234047992
          120.68120014502799,23.545094916593396,1160.152060098848
          120.68125928639402,23.545085740514114,1160.1285114603472
          120.68128732954133,23.545080841658944,1160.3412554777312
          120.6813368369164,23.54507575997589,1159.2992154079213
          120.68138495643295,23.545063685974398,1158.1957241689431
          120.68141199346552,23.545056315267438,1157.458479855946
          120.68143402619289,23.54505757925453,1156.7568730805697
          120.68144893428995,23.545056568420254,1155.571437811227
          120.6814798753547,23.545046888590544,1154.4023820048556
          120.68152203721908,23.545028640974436,1154.0661804123354
          120.68154406406069,23.54501749063366,1152.6968438895128
          120.68155641214653,23.54500859085397,1152.4543421532815
          120.68156756129599,23.544999530853868,1152.1770895333643
          120.68156786692568,23.5449989111966,1151.9181612016207
          120.68156990352924,23.544997034322947,1150.7538926920627
          120.6815760238403,23.544990850994033,1149.8155050960013
          120.6815817478085,23.544984271910575,1149.256600296041
          120.68158276044275,23.54497868955804,1148.2098953025002
          120.68159027871667,23.544971925545298,1147.4528483015088
          120.6815962856526,23.54496509421803,1147.2109107333501
          120.68160472694565,23.54495578572669,1146.9575200575082
          120.68160784820783,23.544949627728432,1147.0128831618597
          120.68160812925832,23.544948227274233,1147.067898262016
          120.68161075961083,23.544938309868126,1146.8664159433972
          120.68160673235263,23.544913320008984,1145.8616311792255
          120.68161291568606,23.54488242329629,1144.6859768455995
          120.68161870357855,23.54485160713328,1143.969423810309
          120.68162573035723,23.54483466230419,1142.8468784433355
          120.68163304172514,23.544810409439734,1141.701037510301
          120.68163896049401,23.544793539080406,1141.5463250013563
          120.68164139022359,23.54478332723202,1141.8700838287416
          120.68164076395149,23.544785388340664,1140.9789302194772
          120.68164069846634,23.544784500122358,1140.5222796246642
          120.68164170296346,23.544778832942495,1140.3392490637634
          120.68164599214515,23.544756768094704,1138.734025636336
          120.68165089691199,23.544720076336684,1137.7640675491596
          120.68165425737779,23.54469149758312,1137.3576918899705
          120.6816568327519,23.544668179905177,1136.8969452103277
          120.68165891025609,23.544639590290288,1136.3439147782638
          120.68166158184933,23.54459893039648,1134.9536847050883
          120.68166334485804,23.54457171851358,1134.9613560433136
          120.68165877467067,23.544535921496994,1135.5128342503401
          120.68166142000281,23.544491081811625,1136.1434560857847
          120.68166262575308,23.544441559078003,1135.5805379643589
          120.68166458559081,23.54439170899244,1136.1817073129057
          120.68167007714355,23.544366192349894,1136.7740545087163
          120.6816725087148,23.54434352644677,1136.6749046736707
          120.68166137132593,23.54431050818136,1135.9351960969368
          120.68164681997735,23.54428180228575,1136.1046198497727
          120.68163111864736,23.544250963445315,1135.8265773341584
          120.68161494833355,23.544217385757126,1134.9488122602431
          120.68160234749703,23.544188673321255,1134.7580256841375
          120.68159108459264,23.54416165802398,1132.4010390128244
          120.68157859498807,23.5441312882379,1131.238226232129
          120.68156511521869,23.54409744646073,1130.4269665617842
          120.68155211297054,23.54406232089719,1129.4809155643613
          120.68153984236572,23.5440187504162,1129.7007735428826
          120.6815277357008,23.54398289115653,1129.990519630038
          120.68151709847304,23.543938756763907,1129.8635986475904
          120.68151034372188,23.543895370952242,1128.9610891193713
          120.68150828921021,23.54386245924474,1128.3657492581408
          120.68150855050801,23.543820558601215,1127.1695966577001
          120.6815059382132,23.543782982317165,1124.974664336469
          120.68150425319726,23.543767005435345,1123.2898996434233
          120.68150369296431,23.543764544631994,1122.9608914836158
          120.68150577914331,23.543764840877152,1123.6014926671448
          120.6815036323427,23.543758374082486,1125.1177916869829
          120.68150115278762,23.543737141059506,1124.9519058411015
          120.68149876640938,23.54370815877005,1122.9949965497885
          120.68149643251324,23.543676013119068,1120.5223540157438
          120.6814938358133,23.543637589338573,1117.8152108901354
          120.68149124880796,23.54359843984452,1117.170383242934
          120.68148392626769,23.543553890931566,1117.0711779965989
          120.68148256235051,23.543489423552977,1118.496402471115
          120.68146599067295,23.543447776036928,1120.8713582596167
          120.68144115887182,23.543412596584133,1121.6169849708713
          120.68141149310713,23.54337383966315,1121.1286898199298
          120.68138401224408,23.543334474899765,1120.8968913042636
          120.68135846068908,23.54329364409692,1119.3150130662837
          120.6813390515566,23.543255831318866,1118.1916358569226
          120.6813288472302,23.543228515091958,1118.7607721058064
          120.68132734014888,23.54322221799069,1118.9400175815704
          120.68132736776958,23.543222047165074,1119.125898024406
          120.68133005055842,23.543227092642223,1118.6979579030306
          120.68133168722608,23.543231446989797,1118.312557666037
          120.68133027415398,23.543228668516107,1118.4401731048958
          120.68133154425313,23.543227449049017,1118.5742686278927
          120.68131762034425,23.543207198239067,1118.196357506089
          120.68131218420545,23.543211296746534,1117.8890020554259
          120.68131228887877,23.543207508566784,1118.380907345661
          120.68131356694089,23.543200032078392,1119.0023876356825
          120.68130071837437,23.543200391419074,1118.4440919793026
          120.68130064103431,23.543203679543428,1118.096057377272
          120.6813020323927,23.543205264383968,1117.9921823114569
          120.68131088886858,23.54321388805382,1117.7477506979362
          120.68131585185029,23.543217768120282,1117.678298564535
          120.68131756154483,23.543214259267543,1117.4019890026434
          120.68132126671094,23.543213667037598,1117.2652037736161
          120.68132033251868,23.543215603468926,1117.0804829548717
          120.68129974343003,23.543201675889968,1116.074064071299
          120.68126283942301,23.543178364077374,1115.6742926365162
          120.68122989101536,23.543149986893393,1115.8611950342072
          120.68120042511529,23.543118904711253,1116.2226718707723
          120.68118662089671,23.543090214137965,1115.464794623066
          120.68118068917943,23.543063980215525,1114.342133129411
          120.68116666030113,23.54304442023535,1113.3313323917016
          120.68113589384467,23.543022976958746,1112.4273487929854
          120.68109717797337,23.543002248621583,1111.325399303972
          120.68104935639661,23.542984509671257,1109.376070865832
          120.68100026398467,23.542971952800947,1108.2122881066648
          120.68097009063477,23.542955426560503,1107.0849893582445
          120.68094890594975,23.542925741752033,1106.5055615137305
          120.68093125259358,23.542877741299787,1105.7797874903977
          120.6808941831036,23.54286148832022,1105.3849196748474
          120.68084492122703,23.542864188814384,1103.847814276435
          120.68078970926854,23.54286196709485,1104.2233648882884
          120.68072662094224,23.54286249722373,1104.0608602834302
          120.68065400702218,23.542856490258835,1105.3998227414431
          120.68060131755703,23.542840319469462,1104.327362060439
          120.68053623838752,23.542825547731297,1103.4005770207227
          120.68048234491815,23.542807853565122,1103.7670638228497
          120.68041969567543,23.542774943646073,1103.4299726216839
          120.68036141349394,23.54273164686535,1104.2351092334256
          120.68030480635086,23.542688444315587,1102.5549495437851
          120.68023973400517,23.542656902974873,1100.5838403237624
          120.6801820364919,23.542614298765695,1098.2834952985845
          120.68012180727054,23.542561285906782,1098.2200950776166
          120.68005860118353,23.542528998241398,1099.5713611503875
          120.68002307338432,23.542479565184838,1099.3707574466139
          120.67998204542346,23.542427804814142,1098.7173424223615
          120.679942136276,23.542396244503742,1097.2414470236472
          120.67987838235294,23.542381485071036,1096.3226520026421
          120.67982143922326,23.54238551862414,1095.8855230141214
          120.67977247580966,23.5424000944647,1095.3556102378188
          120.67973840263124,23.54243060792217,1095.0908215115771
          120.67968611676478,23.542464591452266,1094.873652993133
          120.67964214703595,23.542502880538976,1095.1021394744896
          120.679611065744,23.542537374038023,1095.1308843734341
          120.67957780009067,23.542594119281937,1095.8268913584375
          120.67953764136685,23.54265730146589,1096.412685828275
          120.67948029354821,23.542703492242854,1097.557847714053
          120.67942729997517,23.54270624075296,1096.251287370279
          120.67936912428813,23.54268305536403,1092.9748143874283
          120.67930602665163,23.542648267404658,1090.5614827997883
          120.67923772799242,23.5426223036776,1090.2091748940015
          120.67916530948382,23.542614283354553,1091.2761122079896
          120.67908234532639,23.542625504155307,1093.9093547454956
          120.67900107668132,23.542608781858352,1095.3546201232245
          120.67891629156948,23.542573706061876,1094.6168015250637
          120.67885530616871,23.54253687980713,1093.8421452611485
          120.67885869788958,23.542489982428886,1093.3588732567528
          120.67888009892279,23.542470034591933,1092.927993467638
          120.67886795454378,23.54249310840137,1093.2031137373315
          120.67886145763974,23.542504168037983,1093.3563604172577
          120.67886362976155,23.54250502327825,1093.7973951951255
          120.67887721444183,23.54248831511128,1094.4887448198324
          120.6788729318676,23.542482772711036,1092.8365536214924
          120.67887091433026,23.5424750374148,1092.8693153827446
          120.67887846315743,23.542474231204647,1092.9495013032247
          120.67887087244004,23.542465880262753,1092.9206183777076
          120.6788391277026,23.542435954139513,1092.7097109642934
          120.67879794634986,23.542414605615768,1091.5885522973185
          120.67876123235978,23.542378178607407,1090.645597068748
          120.6787308636911,23.542325334175324,1088.9625943793133
          120.67875598508574,23.54234029133944,1087.0621554065467
          120.67876680041668,23.54234307267661,1086.9845271002425
          120.6787678213805,23.542341203104424,1087.2419285935287
          120.67877727059178,23.542329734967495,1087.4486957048036
          120.67877719893505,23.54233247742555,1087.3340963947146
          120.67874058697524,23.54232933058318,1087.365669593419
          120.67869170051848,23.542306680660097,1087.698562362914
          120.67864354546201,23.542268002116273,1088.0282191571155
          120.67861017351967,23.542229021232256,1087.1493457237104
          120.67856763572692,23.542204968739966,1086.3914358868853
          120.67851593552963,23.542179646568634,1086.0301273519556
          120.67848628524723,23.542141629923,1085.3979965848705
          120.67845840377066,23.54210433899534,1084.63116394131
          120.67842629787667,23.54206937855483,1083.9513843975924
          120.67838937528012,23.542042715119393,1083.5907771069756
          120.6783407012924,23.54201060932858,1083.3623537409057
          120.67829908271734,23.541971964326997,1083.7661643867045
          120.67826443709696,23.54194425367384,1083.5661429200834
          120.67822328019163,23.54191559650183,1083.0994475124046
          120.67818154181005,23.541884955758878,1083.0391678149638
          120.6781468974671,23.541847629884476,1083.6559102907445
          120.67810550679269,23.54181590675605,1083.7799848030904
          120.67806588888088,23.541778079061697,1082.7354805359207
          120.67803977149853,23.541742963642015,1082.536976889081
          120.67802054530253,23.541723692133697,1082.7768980813598
          120.67801603901326,23.54171208255636,1082.7058795987566
          120.6779918109036,23.541698815016073,1081.7295450853962
          120.67794324627053,23.541679978656177,1081.9839808928919
          120.67787681964218,23.54169571031248,1083.2363068226157
          120.67781074095545,23.541719326172565,1083.6025282990065
          120.67776098382875,23.541732059756136,1084.2285139863661
          120.67769405133104,23.541743765624958,1084.0315645935693
          120.67763072381555,23.541753866443415,1083.9001515955324
          120.67757575943133,23.541770406349304,1083.3556369091714
          120.67750607817575,23.541771745055527,1082.8883956197483
          120.67743350232529,23.54175458415694,1082.9995639193194
          120.67736515428668,23.54171807238274,1082.0134258080896
          120.67732677973699,23.541681313050827,1081.294415570733
          120.67727642199488,23.541628838532137,1080.3780173271723
          120.67724052676631,23.54157745567674,1079.7810220505387
          120.67722129774258,23.54151329247862,1078.5906018181406
          120.67721449398952,23.541442984868123,1077.8539775601234
          120.67719976171206,23.541390987720433,1076.1666646919602
          120.67719064580734,23.54134777615679,1075.258938214094
          120.67716998286816,23.54130095226528,1074.006180420063
          120.67713944958726,23.541277587727507,1072.899216340314
          120.67710515153746,23.541248859733,1072.6782345593463
          120.67705794322154,23.541240181454334,1071.5933426481354
          120.67700843581638,23.54124427410079,1072.1096073161682
          120.67695110126503,23.5412502115316,1072.4132426876324
          120.67689094910173,23.541242946761937,1071.1527111350226
          120.67680948936953,23.54123057808563,1070.894528579553
          120.67673042966562,23.541198617159424,1070.1688024431091
          120.67667262605973,23.541145782441042,1068.1006761314597
          120.67663597524492,23.541072934950243,1066.0389668963605
          120.67660548006606,23.54101197059557,1064.2307104910276
          120.67657745787425,23.54095662527012,1063.0659347924204
          120.67655591938228,23.540905346962262,1061.986868033087
          120.67652708213416,23.54085935337735,1061.3921813100487
          120.67649855093707,23.540820396108394,1060.9102494269036
          120.67646000414942,23.540782705278602,1060.8149121531605
          120.67641253870838,23.540759516681682,1059.6378577278101
          120.6763547894799,23.540764348644494,1058.0998199654757
          120.67630217071347,23.54078642026262,1057.5442027400095
          120.67624194722075,23.540819844747958,1058.7710161292352
          120.6761814782239,23.54085213335362,1059.5218611439154
          120.67612618990711,23.54087912441745,1059.8356534849988
          120.67607502177833,23.540904700739024,1059.7147877332384
          120.6760260969941,23.54093072122422,1059.8381764346705
          120.67596778029157,23.540938368785337,1060.9408305804316
          120.67590614079182,23.540920819025782,1060.6816220009196
          120.67585876602286,23.540890901424067,1060.150303821535
          120.67581366725774,23.5408582590556,1060.3013114902162
          120.67575828515439,23.54082413615906,1060.177779618079
          120.67570504568795,23.540793303341935,1060.125822905397
          120.67563632821165,23.540768203344722,1060.3378511953003
          120.67556160383775,23.540751863708287,1060.624805395332
          120.6755132970784,23.540691786803777,1060.0038503481005
          120.67551990387048,23.54069039939715,1060.3369681038419
          120.6755307940196,23.540721894981168,1063.3990498886533
          120.67554709668917,23.540742662325957,1065.205063408018
          120.67555141257402,23.54074630331781,1065.466940573195
          120.67555082999795,23.540744632536402,1065.2952648426342
          120.67554982679259,23.54074321554198,1065.1684246088805
          120.67554944867423,23.5407428131965,1065.1358455659931
          120.67554939539811,23.540742807332215,1065.137130606899
          120.67554944280386,23.54074289307444,1065.1452956662479
          120.67554948683444,23.54074295260953,1065.150555565109
          120.67554950608233,23.54074297382958,1065.1522993969902
          120.6755495093088,23.540742974946454,1065.1523096281417
          120.67554950721518,23.54074297099067,1065.1519294823538
          120.6756069944098,23.54070068329322,1066.7605694316574
          120.67562447651964,23.540687192022023,1066.8310282297512
          120.67555649282184,23.540648669497585,1066.0268376499612
          120.67547737230544,23.540615412956303,1063.9967317738224
          120.67544029870989,23.540553981131417,1061.2862225031502
          120.67541725537308,23.54050142428431,1059.10212707417
          120.67536017507003,23.540441937599986,1057.8291661580047
          120.67532101046636,23.540408750336677,1056.834609335408
          120.67527253505745,23.54035694629622,1056.624625068892
          120.67524095509299,23.540286626337164,1056.4763270818885
          120.67523194618241,23.54021952320504,1056.2996238112667
          120.67521956550509,23.54016535089037,1054.5035887004926
          120.67520302318215,23.540105812213877,1053.666609600744
          120.67518625077011,23.540054536287165,1053.3054961838009
          120.67516671698021,23.540008196590993,1053.2497226508215
          120.67513102497207,23.539970721402042,1053.7336871474738
          120.67507375615257,23.539949124138136,1055.144004137008
          120.67502425883583,23.53993311039953,1055.9407087542515
          120.67496953345754,23.53991617505808,1056.48209060721
          120.67491913339335,23.539895464566943,1056.3007800997816
          120.67488132662477,23.539880648865378,1056.1006411338863
          120.67482515334697,23.53983305411856,1055.9897826525673
          120.67477558031044,23.539790293950414,1055.9033242546618
          120.67472363623077,23.539751804862725,1055.873836824237
          120.67466963505841,23.53972543165828,1055.158695080013
          120.67460994369513,23.53969506121937,1055.2588446636262
          120.67455772423544,23.53967184154704,1055.5861070685112
          120.67450386553669,23.539648557244693,1055.3191595925384
          120.67445410204158,23.53962680283815,1054.7213425298635
          120.67440735269128,23.539603055058205,1054.3018701345181
          120.67435360734211,23.539584552207394,1054.1354936519003
          120.67429698329163,23.53956077597032,1054.8846550439146
          120.67429096630046,23.539546502889987,1055.8616959302794
          120.67430911955873,23.539543186617482,1056.0230490702584
          120.67430944081637,23.539530947467597,1055.9617801454217
          120.674305533466,23.5395069496695,1056.4360468250834
          120.67424825176431,23.53951298152407,1057.4883474395144
          120.67415212188062,23.539534420185916,1057.1274406650753
          120.67408763228796,23.539551072397128,1056.6162017953516
          120.6740251994372,23.53957527365468,1057.0211701821197
          120.67396501980555,23.53959452097996,1056.4751855919155
          120.67390322633942,23.53963812058324,1055.257544380431
          120.67381467016158,23.539649830764507,1056.1055141143331
          120.67371708253923,23.53962998519705,1057.697876324804
          120.67363270394817,23.539627169108552,1059.1564689190811
          120.67354588187972,23.539595043789028,1058.192737424582
          120.67353052459869,23.53952136551569,1057.021527349487
          120.67354505933054,23.539451361580827,1053.2394326448143
          120.67355881311634,23.539371140825093,1051.1414157909974
          120.67358515153506,23.539319700242647,1048.6628057323176
        </coordinates>
      </LineString>
    </Placemark>
    <Placemark>
      <name>停車場</name>
      <description></description>
      <ExtendedData>
        <Data name="icon"><value>P</value></Data>
        <Data name="color"><value>#3b82f6</value></Data>
      </ExtendedData>
      <Point>
        <coordinates>120.67027756464176,23.544751918687183,0</coordinates>
      </Point>
    </Placemark>
    <Placemark>
      <name>源興宮站</name>
      <description>7315/7315A ꒰每日兩班꒱</description>
      <ExtendedData>
        <Data name="icon"><value>bus-front</value></Data>
        <Data name="color"><value>#3b82f6</value></Data>
      </ExtendedData>
      <Point>
        <coordinates>120.67349528413428,23.539226075632627,0</coordinates>
      </Point>
    </Placemark>
    <Placemark>
      <name>青葉山莊站</name>
      <description>7315/7315A ꒰每日兩班꒱</description>
      <ExtendedData>
        <Data name="icon"><value>bus-front</value></Data>
        <Data name="color"><value>#3b82f6</value></Data>
      </ExtendedData>
      <Point>
        <coordinates>120.67887023570813,23.542513684496285,0</coordinates>
      </Point>
    </Placemark>
    <Placemark>
      <name>未命名地標</name>
      <description></description>
      <ExtendedData>
        <Data name="icon"><value>start</value></Data>
        <Data name="color"><value>#10b981</value></Data>
      </ExtendedData>
      <Point>
        <coordinates>120.67326114537019,23.539134890264222,0</coordinates>
      </Point>
    </Placemark>
    <Placemark>
      <name>終點|End</name>
      <description></description>
      <ExtendedData>
        <Data name="icon"><value>end</value></Data>
        <Data name="color"><value>#e27653</value></Data>
      </ExtendedData>
      <Point>
        <coordinates>120.67357389646963,23.53935627675027,0</coordinates>
      </Point>
    </Placemark>
    <Placemark>
      <name>瑞太古道入口</name>
      <description></description>
      <ExtendedData>
        <Data name="icon"><value>star</value></Data>
        <Data name="color"><value>#10b981</value></Data>
      </ExtendedData>
      <Point>
        <coordinates>120.68348837695271,23.543501462672808,0</coordinates>
      </Point>
    </Placemark>
    <Placemark>
      <name>野薑花溪步道入口</name>
      <description></description>
      <ExtendedData>
        <Data name="icon"><value>star</value></Data>
        <Data name="color"><value>#10b981</value></Data>
      </ExtendedData>
      <Point>
        <coordinates>120.68650978191062,23.54485554601972,0</coordinates>
      </Point>
    </Placemark>
  </Document>
</kml>