<?xml version="1.0" encoding="UTF-8"?>
<kml xmlns="http://www.opengis.net/kml/2.2">
  <Document>
    <name>太平村-梨仔腳山</name>
    <Placemark>
      <name>路線軌跡</name>
      <LineString>
        <tessellate>1</tessellate>
        <coordinates>
          120.604505,23.5621805,984
          120.6045384,23.5621651,1004.5
          120.60454400591149,23.562176091797674,983.4754638671875
          120.60455813634978,23.56221899478472,982.54541015625
          120.60458586243134,23.562314387682008,982.7462158203125
          120.60461148431332,23.56235575616447,982.8070068359375
          120.60463781452731,23.562415544332136,982.9998779296875
          120.60468399103948,23.562460867668666,983.781982421875
          120.6047341958018,23.562493351502933,983.5230712890625
          120.60478785911744,23.562522540147697,983.7767333984375
          120.60481550564663,23.562583542877192,984.17041015625
          120.60479387118588,23.562632984053515,984.8389282226562
          120.60474722145769,23.562664151371457,985.3884887695312
          120.60478469383314,23.562676633074126,985.9671630859375
          120.60482040387403,23.562644054700126,985.0000610351562
          120.60485437344471,23.562607560317634,984.587890625
          120.60488451246117,23.562575776681992,984.3157348632812
          120.60487484812539,23.56254163337119,983.7106323242188
          120.6048446839555,23.562503653910326,983.3592529296875
          120.60476784894591,23.56246265384294,983.2694091796875
          120.6048083757575,23.562492528372605,983.9114379882812
          120.60480547574157,23.562540316803688,984.8309936523438
          120.60476053952634,23.562572515030677,985.5364379882812
          120.60472605025569,23.562614670956727,986.1204223632812
          120.60469101495603,23.562664627324597,986.344970703125
          120.60467067532593,23.562716002722375,986.5906982421875
          120.60463141031934,23.56275442961119,987.0399169921875
          120.6045772152786,23.56277882133023,987.4573974609375
          120.60451440773589,23.562777883757573,988.2633056640625
          120.6044728594996,23.562738735737142,988.9951782226562
          120.60445570431361,23.56268751662776,989.2144775390625
          120.60445362020589,23.562630279467207,989.626708984375
          120.60445717029991,23.562572361817686,990.3348388671875
          120.60445949387194,23.562517050366953,990.9187622070312
          120.60446713871556,23.56246454566247,991.3811645507812
          120.6044611813156,23.562409744923073,992.0126953125
          120.6044392509813,23.56235690016684,992.9189453125
          120.6043875938879,23.562338232712456,993.384033203125
          120.60433084448027,23.56233813602511,993.9468383789062
          120.60431898782801,23.562379792170027,994.75537109375
          120.60431521079026,23.56242851227741,995.3128662109375
          120.60431398644154,23.562478605990673,995.5823974609375
          120.60431142311896,23.56255232711093,996.0844116210938
          120.60430441309173,23.562591666139014,996.6974487304688
          120.60429863643347,23.562674702884767,997.244384765625
          120.60430658117407,23.56270125517128,997.7675170898438
          120.60433605457537,23.562752235014827,998.1929321289062
          120.60436847913977,23.562808609793912,998.4888916015625
          120.6043799369027,23.56287485670182,1000.0214233398438
          120.60438704162029,23.562940332832557,1000.3385009765625
          120.60444438575412,23.56306725061351,1001.3478393554688
          120.60447657516688,23.56312176921299,1002.1880493164062
          120.6044994106833,23.563170874750877,1002.716552734375
          120.60454442617383,23.56319756258244,1004.6718139648438
          120.60458664462449,23.563198913212098,1004.94921875
          120.60466354891209,23.563184156667997,1005.1421508789062
          120.60478154655864,23.563164686093934,1007.6972045898438
          120.60483537351276,23.563160786630043,1008.0565795898438
          120.60487615991056,23.56317047214853,1008.5955810546875
          120.60492618773608,23.563195155758986,1009.0923461914062
          120.60496531235346,23.56324834732553,1009.6895141601562
          120.60496664552043,23.563298321231876,1010.7410888671875
          120.60493851786401,23.563333738916466,1010.9287109375
          120.60489779802015,23.56337411061216,1011.689697265625
          120.6048464884554,23.56351575525558,1012.18115234375
          120.6048528839737,23.563578115550655,1012.8020629882812
          120.60488300405578,23.56366262853999,1013.6925048828125
          120.60492070121188,23.5636935016167,1015.087646484375
          120.60496716298255,23.563715214879544,1015.8856201171875
          120.60501985360523,23.563740468170742,1016.234375
          120.60507243455116,23.563777769614326,1016.59375
          120.60511711001368,23.563842223763103,1016.69677734375
          120.60511785409389,23.56388404044894,1017.0455932617188
          120.60511873360316,23.563944650370416,1017.39697265625
          120.60514671657742,23.56398762030274,1017.727294921875
          120.60519248925422,23.564003505485594,1018.1791381835938
          120.60523868547776,23.56399644258511,1018.5728149414062
          120.60530287366392,23.56398564635606,1019.20166015625
          120.60537801764335,23.563975265614076,1019.5504760742188
          120.60543982536184,23.56398950578974,1020.39599609375
          120.6054812289787,23.56402126004133,1008.09619140625
          120.60551510537519,23.564066777714253,1008.6378784179688
          120.60554897154104,23.56411586674004,1009.1213989257812
          120.60557498998378,23.564165080677846,1009.734375
          120.60560933659426,23.564210231816347,1010.1571655273438
          120.60564031058124,23.56425941210711,1010.6142578125
          120.60566728663784,23.564305312552527,1011.4994506835938
          120.60569767561965,23.564353826862657,1011.8614501953125
          120.60573430974462,23.56440486984553,1012.3211669921875
          120.60576829812275,23.564471646014216,1012.8284912109375
          120.60579533255552,23.56453041111615,1014.7124633789062
          120.60584136107967,23.564553891704392,1015.013671875
          120.60585859116777,23.564601557348944,1015.2171020507812
          120.60586909619782,23.564649032470506,1015.491943359375
          120.60591481796388,23.564631679565146,1015.6451416015625
          120.60590771838088,23.564686456468255,1015.608154296875
          120.60591282117367,23.56464572561159,1015.6663208007812
          120.60586384619947,23.564649225037428,1016.32421875
          120.60581855950896,23.564696144426346,1016.982177734375
          120.60590702173181,23.56479372093992,1019.3443603515625
          120.60595877485444,23.56483332117365,1020.0630493164062
          120.60605877870668,23.56490815006461,1021.3604125976562
          120.60606459442758,23.564966131895737,1022.6788940429688
          120.60601692042984,23.565004465052294,1023.6168823242188
          120.60595587624599,23.565045752526693,1024.46240234375
          120.60593366521486,23.56509342197337,1025.3660888671875
          120.60592099315136,23.565143581584007,1028.716552734375
          120.60588646714835,23.565199778709527,1030.28076171875
          120.6058629761597,23.56523219228217,1031.2108154296875
          120.60577725239034,23.565326425174607,1033.0445556640625
          120.60576031744438,23.565377929670312,1034.5955810546875
          120.60573501195958,23.56543012384992,1035.969482421875
          120.60568432304177,23.56548804839506,1037.594482421875
          120.6056490752242,23.56557680255815,1038.9605712890625
          120.60566669443169,23.565641650412648,1038.4241943359375
          120.60564992732331,23.565733344510807,1039.9910888671875
          120.60564106911326,23.56579515168661,1043.455078125
          120.60564605061536,23.565814765140253,1044.2716064453125
          120.60565413271758,23.565871860694276,1044.903076171875
          120.60565754883109,23.565971535823707,1046.554443359375
          120.60564014921931,23.56600997848395,1048.1240234375
          120.6056208009698,23.566049754580206,1048.789794921875
          120.60560446657404,23.56612930054271,1050.3408203125
          120.60559714725015,23.566192884084767,1052.13232421875
          120.60558751223483,23.566247647473347,1052.9725341796875
          120.60557249913742,23.56630079474091,1053.4085693359375
          120.60556458108063,23.566350835979605,1054.103515625
          120.60557045484111,23.566398566090573,1054.7005615234375
          120.605566621266,23.566459023576996,1055.244873046875
          120.60556525881475,23.566498516493517,1055.752197265625
          120.60559180675885,23.566573908307568,1056.785400390625
          120.60559837245427,23.566537229797017,1058.6243896484375
          120.60566539928708,23.566547393743914,1069.349365234375
          120.6057105699021,23.566547178347168,1070.5330810546875
          120.60576358494507,23.566554400996008,1070.755126953125
          120.60583574073625,23.566583345116868,1072.28759765625
          120.60588011804089,23.566629467625916,1072.8345947265625
          120.60593592822664,23.566651361855918,1078.2459716796875
          120.60599317773976,23.566675160504936,1080.653076171875
          120.60603936151342,23.566696154845488,1082.8170166015625
          120.60608365328906,23.566725417754988,1084.3099365234375
          120.60614221840254,23.56675550260047,1088.0487060546875
          120.60620223312421,23.566736452716864,1091.83251953125
          120.60625103755692,23.566716416374845,1093.15625
          120.6063023938067,23.566717407937453,1094.0123291015625
          120.60637015831007,23.566752985510373,1095.600341796875
          120.60642422645195,23.566756178664082,1096.1763916015625
          120.606481289748,23.566718392174096,1096.61767578125
          120.60652976098802,23.566683883114013,1096.852783203125
          120.6065391163094,23.566637373415002,1097.2200927734375
          120.60656053048001,23.56656521322482,1097.4156494140625
          120.60658306130762,23.566520027255766,1098.734130859375
          120.60660325968315,23.56646651914391,1100.1134033203125
          120.60661977564082,23.56640932923334,1100.7686767578125
          120.60662624630054,23.566348472160076,1102.26416015625
          120.60663959860742,23.566295256309235,1104.24853515625
          120.6066792298501,23.566324552267215,1112.698486328125
          120.60670859826806,23.566361360548,1114.3896484375
          120.60677568785255,23.566380203676765,1116.8389892578125
          120.60682404219236,23.56639821053732,1118.767822265625
          120.60685048576934,23.566437398955117,1121.005859375
          120.6068490614962,23.56650458219327,1124.779052734375
          120.60691822143559,23.56654372402045,1124.7261962890625
          120.60694194334194,23.566569400673345,1124.7525634765625
          120.60702594331497,23.56662840738346,1126.3485107421875
          120.60703738329009,23.56668956473592,1131.96337890625
          120.60706977793551,23.566725639425226,1128.9300537109375
          120.60710555299119,23.566780182359025,1133.001708984375
          120.60715934597646,23.56679514342743,1134.0296630859375
          120.60720662788356,23.56679276100031,1134.5025634765625
          120.60722438188122,23.566800892166295,1135.300537109375
          120.60730074697808,23.566860998353707,1136.2015380859375
          120.6073203692884,23.56681483433684,1138.83056640625
          120.60737255489992,23.566883151478173,1142.667236328125
          120.60739931658878,23.56689167028945,1143.399169921875
          120.60745764411058,23.5668950098996,1143.67919921875
          120.60755466374606,23.566870154589918,1145.243408203125
          120.60759735184116,23.566850338279536,1146.8472900390625
          120.60764622938296,23.566865589839495,1147.9359130859375
          120.60770364636163,23.566905469789045,1150.176513671875
          120.60766730111644,23.566936153316743,1153.3314208984375
          120.60777108580604,23.56700297075584,1154.51513671875
          120.60781359447573,23.56702598997213,1154.78466796875
          120.60785623399387,23.567052834753067,1155.1942138671875
          120.60803692569742,23.567187771213103,1160.5157470703125
          120.60806843480817,23.567208402336707,1162.225341796875
          120.60804861121925,23.567237450883564,1164.3021240234375
          120.60801910996233,23.56721397801639,1164.3048095703125
          120.60795238509124,23.567184261224927,1163.04443359375
          120.60791164243666,23.567135735005284,1162.5872802734375
          120.60786561134788,23.567083970721317,1161.953125
          120.60781086177597,23.567053264770664,1161.192138671875
          120.6077637176703,23.567051496897175,1159.86572265625
          120.60772420680503,23.567045996214677,1158.320068359375
          120.60767910268517,23.567019303836815,1158.0584716796875
          120.60761089009732,23.566981077803835,1156.5496826171875
          120.60755056039437,23.56693760294905,1155.265625
          120.60750815583455,23.566908294264255,1153.8916015625
          120.60746363449293,23.566857587173565,1152.282470703125
          120.60740854181567,23.566862733392217,1149.9466552734375
          120.6073467177497,23.566869557869254,1148.9716796875
          120.60728953220493,23.566862206567944,1147.9967041015625
          120.60723789447268,23.56682676878495,1146.406005859375
          120.60720817039821,23.566785257120863,1145.814208984375
          120.60715820777115,23.566747340390382,1143.8931884765625
          120.6071008149391,23.566735937514864,1143.0714111328125
          120.60715324850683,23.56676148019749,1137.4857177734375
          120.60708628343282,23.56674554281757,1131.350341796875
          120.60701802120973,23.56671188016623,1129.7200927734375
          120.60694489391808,23.566669655180707,1127.188720703125
          120.6068740508802,23.566627474496062,1124.1158447265625
          120.60684355981037,23.566580952076457,1116.905029296875
          120.6068265431066,23.566538979054233,1114.014404296875
          120.60679612395501,23.566497471467,1112.34716796875
          120.60676896312889,23.566426523316647,1111.118408203125
          120.60675831656322,23.56633569176605,1109.1314697265625
          120.60673515181142,23.566287753210897,1105.8497314453125
          120.60670164237632,23.566269727533246,1104.216796875
          120.60659467655711,23.56630154008154,1103.204833984375
          120.60656277755419,23.566334660930348,1102.1373291015625
          120.6065551176711,23.56638187479958,1101.01171875
          120.60655734509515,23.566451549663785,1100.4462890625
          120.60655340323378,23.566510921935077,1100.3326416015625
          120.60651550746269,23.566578908316924,1099.4237060546875
          120.60647646463056,23.56661659266402,1099.3206787109375
          120.60643015504706,23.566673446574786,1097.6983642578125
          120.60639924691988,23.566711972170115,1096.361328125
          120.60635687800941,23.566740275607184,1096.0284423828125
          120.60632452596883,23.566773403550414,1095.3599853515625
          120.60626938572537,23.566795698539547,1094.87109375
          120.60620137290134,23.566790532378977,1093.0743408203125
          120.60613586898175,23.566776434680072,1091.4493408203125
          120.60606972815245,23.566730896392965,1082.735107421875
          120.60601816459541,23.56670277156883,1077.7967529296875
          120.60597333571816,23.56668094747056,1075.96826171875
          120.6059221710654,23.566665145878265,1075.51904296875
          120.60585338563634,23.566627078600987,1071.5662841796875
          120.60574316056625,23.56660116519295,1070.2451171875
          120.60568006847393,23.56657377493294,1069.2515869140625
          120.60561568743456,23.56656827313396,1068.06787109375
          120.60556269936335,23.566575718126483,1067.8486328125
          120.60549884737249,23.56651510510397,1064.815185546875
          120.605475324485,23.566478114871344,1064.7227783203125
          120.6054999933717,23.566452898902,1064.2445068359375
          120.60554819842031,23.56640862553412,1063.5390625
          120.6055638576467,23.566358597526865,1061.359130859375
          120.60558837106764,23.566289759961528,1059.8795166015625
          120.6055985031867,23.566228145559386,1058.854248046875
          120.60559416867594,23.56617280951754,1057.9718017578125
          120.60562688726792,23.566129892307533,1055.218505859375
          120.60567626755761,23.56605430897368,1054.4232177734375
          120.6056707876213,23.566015041485077,1054.100830078125
          120.60564201942523,23.565947099148488,1053.656982421875
          120.60563131489334,23.565891324564742,1052.388671875
          120.60563041858981,23.56584366014045,1051.36865234375
          120.60564153893809,23.5657828087424,1050.478271484375
          120.60564658363965,23.565722046334233,1048.0711669921875
          120.60563540751437,23.565694876151067,1047.587646484375
          120.60562081593872,23.565632044951407,1046.7288818359375
          120.60562019354592,23.56556766447089,1045.83837890625
          120.60565575215777,23.56553777129917,1045.1302490234375
          120.60570353035044,23.56551363737326,1044.79736328125
          120.60575192860303,23.56548345974317,1044.2503662109375
          120.60578863626237,23.565438092383065,1042.8843994140625
          120.60581910233238,23.565378259024065,1042.577880859375
          120.60583587246312,23.565323485815814,1041.473388671875
          120.6058758796227,23.565282933304275,1040.1258544921875
          120.60591247303796,23.565254662233112,1039.071533203125
          120.60591219127465,23.565202800225226,1037.972412109375
          120.60591444038839,23.565152456513992,1036.508544921875
          120.6059470656456,23.565107403989916,1034.9654541015625
          120.6059776449298,23.565040668532493,1033.6575927734375
          120.60599484138326,23.564991184961247,1034.3260498046875
          120.60601691456125,23.564997566301837,1033.1475830078125
          120.60601194478119,23.56498551930663,1031.7894287109375
          120.60600677981209,23.56495109222068,1030.708740234375
          120.60597420322699,23.564921885639745,1029.78662109375
          120.6059414014988,23.56488736318863,1029.1683349609375
          120.60592966952018,23.564832923898226,1028.581787109375
          120.60587669083738,23.564686119744536,1028.09033203125
          120.60585503321524,23.564615479373185,1025.9051513671875
          120.605828674087,23.56457051875761,1025.614501953125
          120.6057900976326,23.56452815429418,1025.49560546875
          120.60574801590688,23.564482820777638,1025.2603759765625
          120.6057097151516,23.564439426761727,1025.088623046875
          120.60566621734226,23.564392593470266,1024.46240234375
          120.6056317266618,23.56434573176047,1024.6051025390625
          120.60559712497772,23.56429699957192,1023.8362426757812
          120.60555505010332,23.564256160633573,1022.7740478515625
          120.60553235536504,23.564203949373955,1022.390869140625
          120.60551692558384,23.56414922892463,1021.7858276367188
          120.6054987938462,23.56409682910179,1021.1781005859375
          120.60546452075954,23.564050985785993,1020.765869140625
          120.60542659009224,23.564017384562188,1019.8041381835938
          120.60537793137091,23.563991229681704,1019.3417358398438
          120.6053200286255,23.563980252147367,1018.6044921875
          120.60526018032495,23.563983680851845,1018.202880859375
          120.60520175572964,23.56398820688253,1018.0575561523438
          120.60515061155105,23.56397187282399,1018.234619140625
          120.60510105161782,23.56394107992686,1017.2041015625
          120.60505993893855,23.563895324365262,1017.264892578125
          120.60503821686275,23.563846175498234,1016.3903198242188
          120.60501213551751,23.563794504474277,1015.90673828125
          120.60498498247959,23.563739404267857,1015.5738525390625
          120.6049502562099,23.563684843583427,1015.2091674804688
          120.60489875637123,23.56367873768223,1014.4693603515625
          120.60484182577204,23.56367100035024,1013.5894775390625
          120.60480629987285,23.563635635500578,1012.8284912109375
          120.6047793584432,23.563587129596307,1012.165283203125
          120.60477444545737,23.563532809727963,1011.6976318359375
          120.60480106435402,23.56348996145823,1011.0845947265625
          120.60486609593137,23.563472824724624,1010.6116333007812
          120.60488765981513,23.563437739178468,1010.0831909179688
          120.60491591355675,23.56338163901017,1009.287841796875
          120.60493651597251,23.563328850901286,1008.693359375
          120.60495464687402,23.563274085769457,1008.2494506835938
          120.60495981035878,23.563219439988448,1007.5809326171875
          120.60494656109455,23.5631599033498,1007.4594116210938
          120.60490989500991,23.563117764493985,1006.949462890625
          120.6048553070423,23.563105494707166,1006.5636596679688
          120.60480174990023,23.56311966541476,1006.2201538085938
          120.60475487754829,23.56315351236554,1005.7313842773438
          120.60470747264483,23.563188218555247,1004.9994506835938
          120.60465053064017,23.563210697788225,1004.3732299804688
          120.60459221957305,23.563216093717816,1003.58056640625
          120.60453618061166,23.563205150807523,1002.9701538085938
          120.60449779333229,23.563167839460004,1002.3518676757812
          120.604469399573,23.563114892494827,1001.1787109375
          120.6044449693617,23.563057350815594,1001.046630859375
          120.60442737007992,23.563004138929003,1000.2908935546875
          120.60440413771492,23.56295014509428,999.9685668945312
          120.60438009898843,23.562901392741463,999.152099609375
          120.60435063506965,23.562859206559693,998.2933349609375
          120.60433687572808,23.562817977124425,997.4108276367188
          120.60432462275298,23.562785299615538,997.3447875976562
          120.60431154531679,23.562754317114532,996.9273071289062
          120.6043269014083,23.562732249425107,996.6419067382812
          120.60431952196421,23.56270481286959,996.4199829101562
          120.60429416066933,23.562663070177507,996.1742553710938
          120.60429403984104,23.562612188305273,995.7488403320312
          120.60433159966895,23.56256994276989,995.783203125
          120.6043665592437,23.562495678594228,995.6695556640625
          120.60437213409394,23.562447153895622,995.4581909179688
          120.60435482150959,23.562416770088095,994.7764892578125
          120.60432045645176,23.562396784115137,994.501708984375
          120.60428666241097,23.56233013045813,993.7803344726562
          120.60431261035886,23.562287420950238,992.7049560546875
          120.60436048290643,23.562287595370993,992.5120849609375
          120.60442148210203,23.562317822987108,992.086669921875
          120.60447282698739,23.562370746754173,991.7326049804688
          120.60448912160737,23.562426858757707,991.1195678710938
          120.60446803575319,23.5624740890483,990.8157348632812
          120.60445152565758,23.562521603520242,990.2026977539062
          120.60441588774202,23.56257177609233,988.7943725585938
          120.60441401166142,23.562618861054187,988.7626953125
          120.60443255792293,23.562661499814062,988.5750732421875
          120.60447146843136,23.56269125061305,988.1232299804688
          120.60452331366444,23.56269682060829,987.0372924804688
          120.60457059134959,23.562680330825696,986.5140991210938
          120.60464910521348,23.562661832047997,985.9459838867188
          120.60470189328312,23.562642297597016,985.5126953125
          120.60475995241957,23.56263004272219,984.9736328125
          120.60482583279577,23.562635446396218,984.78076171875
          120.60488233895435,23.56260203027564,984.648681640625
          120.60486063963467,23.5625699454845,984.1334228515625
          120.60481537882609,23.56251707510342,979.8053588867188
          120.60475637666093,23.562526543429907,979.7630615234375
          120.6047142528408,23.562516410176897,979.652099609375
          120.60466315529581,23.562483371129947,979.2188110351562
          120.6046546624969,23.562438651057796,979.6019287109375
          120.60465130445135,23.562394298894127,979.5279541015625
          120.6046120653819,23.562381032235724,979.3614501953125
          120.6045439206205,23.562353070141757,979.2716064453125
          120.60448917745717,23.562251347035712,980.2254638671875
          120.60446576220055,23.562216927569303,981.158203125
          120.60443794416229,23.562191775186243,981.30615234375
          120.60437369343467,23.562140895458004,981.3775024414062
          120.60433951678041,23.562081082821013,981.2850341796875
          120.60430763035534,23.562030091504706,981.3114624023438
          120.60428189798236,23.561971876698433,981.3616943359375
          120.60423821656448,23.561897843301068,982.1965942382812
          120.60418260755911,23.561871475701864,981.7897338867188
          120.60414321922559,23.56187473679067,982.0354614257812
          120.60408901638822,23.561879897129604,981.7764892578125
          120.6040112951019,23.561881942337216,981.4462280273438
          120.60394955375796,23.561854428393143,981.739501953125
          120.60392601626613,23.56181684664298,981.3748779296875
          120.60389800676283,23.561810674843088,981.353759765625
          120.60382449137511,23.561833965562908,981.6893310546875
          120.60385320748195,23.56177862328862,981.187255859375
          120.60385320748195,23.56177862328862,981.187255859375
        </coordinates>
      </LineString>
    </Placemark>
    <Placemark>
      <name>三元宮出發</name>
      <description>海拔高度：984 公尺</description>
      <Point>
        <coordinates>120.604505,23.5621805,0</coordinates>
      </Point>
    </Placemark>
    <Placemark>
      <name>停車處</name>
      <description>海拔高度：981 公尺</description>
      <Point>
        <coordinates>120.6044276676484,23.561910205506223,0</coordinates>
      </Point>
    </Placemark>
    <Placemark>
      <name>梨仔腳山</name>
      <description>海拔高度:1176m</description>
      <Point>
        <coordinates>120.6080828,23.5672598,0</coordinates>
      </Point>
    </Placemark>
    <Placemark>
      <name>洗手間</name>
      <description></description>
      <Point>
        <coordinates>120.6040893,23.5617972,0</coordinates>
      </Point>
    </Placemark>
    <Placemark>
      <name>四叉路口</name>
      <description></description>
      <Point>
        <coordinates>120.6058691,23.564649,0</coordinates>
      </Point>
    </Placemark>
  </Document>
</kml>