<?xml version="1.0" encoding="UTF-8"?>
<kml xmlns="http://www.opengis.net/kml/2.2">
  <Document>
    <name>太平村-太平雲梯o行路線</name>
    <Placemark>
      <name>路線軌跡</name>
      <LineString>
        <tessellate>1</tessellate>
        <coordinates>
          120.600051,23.559559,961.7
          120.600107,23.559562,961.9
          120.600054,23.559544,956.3
          120.600014,23.559446,956.1
          120.600077,23.559395,954.2
          120.600038,23.559425,953.1
          120.600081,23.559394,951.4
          120.600058,23.559309,951.4
          120.600036,23.559251,953.6
          120.600067,23.559304,953.1
          120.600094,23.559399,954
          120.600053,23.559469,953.7
          120.600034,23.55955,953.5
          120.600013,23.559638,952.6
          120.600011,23.559588,954.8
          120.600071,23.559563,953.5
          120.600184,23.559563,953.2
          120.600252,23.559594,954
          120.600185,23.55957,955.6
          120.600179,23.559643,955.5
          120.600255,23.559631,955.3
          120.600242,23.55955,955.5
          120.600133,23.559591,955.8
          120.600063,23.559623,954.6
          120.600009,23.559626,953.3
          120.599976,23.559666,953.2
          120.59996,23.559716,954.3
          120.599929,23.559757,954
          120.599879,23.55977,952.8
          120.599826,23.559758,953.7
          120.599771,23.559753,953.3
          120.599719,23.559755,952
          120.59967,23.55975,952
          120.599614,23.559749,952.1
          120.599561,23.559734,952.3
          120.599512,23.559737,952.8
          120.599461,23.559736,952.3
          120.599401,23.559765,953.3
          120.599347,23.559792,952.8
          120.599275,23.559813,953.5
          120.599214,23.559833,953.2
          120.59916,23.559831,952.9
          120.599106,23.559825,953.9
          120.599059,23.559814,953.4
          120.599004,23.559839,955.8
          120.599008,23.559893,954.7
          120.599003,23.559944,954.9
          120.598953,23.559984,955.7
          120.598903,23.560012,954.6
          120.598843,23.560036,955.2
          120.598795,23.560064,954.7
          120.598753,23.560092,954.4
          120.598702,23.560091,954.7
          120.598653,23.560099,956.7
          120.598605,23.560117,956.2
          120.598549,23.560137,957.8
          120.598505,23.560164,959.4
          120.598462,23.560189,961.3
          120.598416,23.560211,962.2
          120.598372,23.560235,964.3
          120.598332,23.560261,968.1
          120.598284,23.560275,969.4
          120.598241,23.560301,970.7
          120.598196,23.560263,972
          120.59815,23.560235,970.9
          120.598165,23.56028,971.4
          120.598119,23.560308,969
          120.598112,23.560359,969
          120.598106,23.560412,968.2
          120.598079,23.560451,966.8
          120.598054,23.560412,970.4
          120.598014,23.560439,971.5
          120.598016,23.560394,971.1
          120.597981,23.560359,970.2
          120.597977,23.560305,970
          120.597977,23.56025,969
          120.597968,23.560204,968.7
          120.597963,23.560158,968
          120.597945,23.560112,968.2
          120.597945,23.560066,967.7
          120.597931,23.560019,967.6
          120.59793,23.559968,968.9
          120.597917,23.559917,970.1
          120.597916,23.559865,967
          120.597902,23.559819,966.5
          120.597894,23.55977,966.1
          120.597894,23.559715,966.2
          120.597887,23.559666,965.9
          120.597877,23.559598,966.6
          120.597866,23.559533,966
          120.597858,23.559485,965.8
          120.597849,23.55944,965.6
          120.597853,23.559388,965.6
          120.59785,23.559341,965.3
          120.597835,23.559292,968
          120.597825,23.559246,970.3
          120.597815,23.559194,972.2
          120.597806,23.55915,973.9
          120.5978,23.559105,975.1
          120.597792,23.559052,974.7
          120.597802,23.559007,974.6
          120.597793,23.558955,974
          120.597786,23.558906,974
          120.597783,23.558854,973.9
          120.597761,23.558808,972.6
          120.597748,23.558755,974.3
          120.597739,23.558708,974
          120.597731,23.558662,971.8
          120.597724,23.558615,970.1
          120.597716,23.558568,970.6
          120.59771,23.558521,969.8
          120.597711,23.558474,974
          120.597702,23.558427,973.7
          120.597701,23.558375,976.1
          120.597687,23.55833,976.5
          120.597694,23.558279,978.2
          120.597681,23.558228,978.1
          120.597677,23.55818,978.4
          120.597669,23.558135,978.5
          120.597662,23.55809,979.4
          120.597648,23.558039,981.9
          120.597647,23.557992,986.8
          120.597648,23.557941,989.9
          120.597626,23.557899,989.1
          120.597573,23.557885,991.3
          120.597621,23.557872,993.1
          120.59761,23.557917,989.7
          120.59756,23.557933,990.9
          120.597535,23.55789,989.4
          120.597485,23.557912,989.1
          120.597456,23.557949,991.5
          120.597433,23.557989,990.6
          120.597384,23.55798,990.8
          120.597376,23.557935,991.5
          120.597352,23.557888,991.7
          120.597348,23.557837,993.3
          120.597364,23.557792,993.3
          120.597395,23.557754,996.6
          120.597396,23.557706,1000.9
          120.5974,23.557657,1002.5
          120.59739,23.557611,1008
          120.597412,23.557565,1008.5
          120.59741,23.557519,1011.5
          120.597418,23.557472,1013.7
          120.597441,23.557428,1014.5
          120.597452,23.557384,1016
          120.597484,23.557344,1020.8
          120.59751,23.557303,1023
          120.597559,23.5573,1024.1
          120.597609,23.55731,1024.5
          120.59766,23.557313,1025.1
          120.5977,23.557283,1023.7
          120.597716,23.557283,1022.3
          120.597688,23.557321,1025
          120.597711,23.557279,1026.3
          120.597752,23.557246,1023.9
          120.597793,23.557215,1026
          120.597822,23.557175,1027.2
          120.597851,23.557131,1027.2
          120.597865,23.557086,1026.5
          120.597904,23.557053,1025
          120.597934,23.557008,1023.7
          120.597975,23.556981,1026.3
          120.598009,23.556946,1024.8
          120.598007,23.556899,1021.6
          120.598021,23.556849,1020
          120.598016,23.55678,1018.6
          120.598024,23.556726,1017.9
          120.598033,23.556681,1016.7
          120.598049,23.556635,1017
          120.598094,23.556602,1016.5
          120.598151,23.556554,1017.1
          120.598223,23.556539,1016.1
          120.598294,23.556511,1014.6
          120.598346,23.556482,1013.9
          120.598399,23.556443,1015.5
          120.59845,23.556401,1015.5
          120.598494,23.55636,1014.8
          120.598554,23.556325,1015.5
          120.598609,23.556277,1016.2
          120.598677,23.556237,1015.8
          120.598741,23.556203,1015.3
          120.598805,23.55617,1015.3
          120.598861,23.556147,1015.9
          120.598913,23.556122,1019.5
          120.598962,23.556111,1021.2
          120.598983,23.556155,1023.8
          120.598977,23.556214,1024.9
          120.598994,23.556265,1025.6
          120.599035,23.556303,1027
          120.599069,23.556342,1027.2
          120.599089,23.556388,1027.9
          120.599111,23.556429,1030
          120.599101,23.556477,1030.5
          120.599084,23.556435,1028.5
          120.599031,23.556437,1029.4
          120.598983,23.556415,1030.1
          120.598933,23.556415,1033.9
          120.598881,23.556408,1035.1
          120.598829,23.556403,1035.4
          120.598801,23.556441,1035.6
          120.598784,23.556487,1035.6
          120.598765,23.556536,1036.6
          120.598739,23.556575,1038.7
          120.598712,23.556616,1040.3
          120.598724,23.556663,1042.6
          120.598726,23.556712,1043.2
          120.598745,23.55677,1044.4
          120.59876,23.556867,1047.5
          120.598764,23.556944,1050.1
          120.598787,23.556991,1052
          120.598825,23.557038,1051.9
          120.598829,23.55707,1051.2
          120.598889,23.557085,1052.6
          120.598836,23.557063,1048.9
          120.598883,23.557081,1048.6
          120.598937,23.557122,1049.5
          120.598984,23.557155,1049.4
          120.59901,23.557199,1049.1
          120.599055,23.557234,1048.2
          120.599097,23.55727,1046.5
          120.599139,23.557293,1046.2
          120.599174,23.55733,1044
          120.599246,23.557396,1042.6
          120.599293,23.55742,1042
          120.599334,23.557461,1042.9
          120.599344,23.557509,1045.4
          120.599363,23.557552,1044
          120.599399,23.55759,1042.2
          120.599444,23.557617,1038.6
          120.599494,23.55763,1038.6
          120.599543,23.557651,1035.8
          120.599591,23.557671,1035.2
          120.599631,23.557703,1033.2
          120.599679,23.557676,1034.3
          120.599744,23.557701,1032.1
          120.599789,23.557718,1030.4
          120.59984,23.557733,1030.1
          120.599892,23.557744,1028.2
          120.599943,23.557757,1026.8
          120.599999,23.557767,1025.4
          120.600051,23.557786,1022
          120.600094,23.557812,1023.1
          120.600143,23.557821,1022.3
          120.600189,23.557846,1020.5
          120.600222,23.557886,1023
          120.600267,23.557863,1019.2
          120.600307,23.557897,1019.1
          120.600366,23.557928,1019.1
          120.60042,23.558003,1016.4
          120.600494,23.558062,1014.8
          120.60051,23.558133,1013.6
          120.600432,23.558153,1011.8
          120.60036,23.558165,1011.7
          120.600323,23.558142,1015.5
          120.600345,23.558186,1013.7
          120.600339,23.558134,1013.6
          120.600371,23.558087,1006.5
          120.600341,23.558123,1011.1
          120.600406,23.558116,1008.3
          120.600465,23.558124,1007.8
          120.600506,23.558097,1010.2
          120.600564,23.558106,1011
          120.600587,23.558147,1009.4
          120.600629,23.558179,1009.4
          120.600697,23.558167,1009.8
          120.600746,23.558178,1009
          120.600796,23.558194,1006.7
          120.60084,23.558219,1005.1
          120.600893,23.55823,1004.6
          120.600945,23.55826,1005.4
          120.600994,23.558269,997.7
          120.60104,23.558288,993.9
          120.601083,23.558311,992.6
          120.601113,23.558354,991.1
          120.601154,23.558382,988.9
          120.601204,23.558403,986.7
          120.601242,23.558455,986.5
          120.601288,23.558498,986.3
          120.601329,23.558534,985.2
          120.601382,23.558555,984.3
          120.601417,23.558592,983.6
          120.601464,23.558611,983.3
          120.601506,23.558634,982.6
          120.601549,23.558671,982.5
          120.601599,23.558691,983.8
          120.601649,23.558704,982.7
          120.601707,23.558699,981.4
          120.601758,23.55869,982.2
          120.601806,23.558709,984.1
          120.601843,23.558746,982.2
          120.601856,23.55876,981.6
          120.601893,23.558803,979.5
          120.601941,23.55884,978.7
          120.601989,23.558828,977.2
          120.602017,23.55878,971.1
          120.60204,23.558739,969.7
          120.602066,23.558694,969.3
          120.602018,23.558649,970.6
          120.60207,23.558625,969.7
          120.60211,23.558664,972
          120.602147,23.558704,972
          120.602199,23.558703,973.2
          120.602255,23.558727,974.4
          120.602301,23.558747,976
          120.602359,23.558771,974.7
          120.602405,23.558786,975.9
          120.602456,23.558789,975
          120.602502,23.558762,972.3
          120.602522,23.558717,971.8
          120.602543,23.558676,972.6
          120.602556,23.558626,973
          120.602593,23.558596,972.3
          120.602637,23.558575,974.3
          120.602612,23.558615,980
          120.602576,23.558655,977.5
          120.602569,23.558664,977
          120.602528,23.558639,974.8
          120.602563,23.558671,981.8
          120.602606,23.558616,978.5
          120.602632,23.558577,978.5
          120.602589,23.558547,978.7
          120.602592,23.558499,982.9
          120.602659,23.55844,982.6
          120.602676,23.558487,979.8
          120.60263,23.558504,978.8
          120.602595,23.558536,980.2
          120.602627,23.55849,980.8
          120.60268,23.558493,979.9
          120.602643,23.558531,980.3
          120.602605,23.558577,983.8
          120.602632,23.558528,979
          120.602646,23.558477,978.7
          120.602705,23.558476,972
          120.602665,23.558509,976.4
          120.602717,23.558522,976.5
          120.602677,23.558485,976.6
          120.602683,23.558434,977
          120.60269,23.558384,978
          120.602654,23.558442,981
          120.602694,23.558388,975.3
          120.602673,23.558429,975.8
          120.602697,23.558488,974.1
          120.602744,23.558515,975
          120.602793,23.558531,975.6
          120.602833,23.558574,975.1
          120.602854,23.558615,975.6
          120.60287,23.558674,975
          120.602902,23.558716,976.3
          120.602939,23.558749,975.5
          120.602985,23.558797,973.3
          120.603023,23.558844,973
          120.603043,23.558889,972.6
          120.603098,23.558958,971
          120.603132,23.559017,969
          120.603162,23.559069,968.3
          120.603186,23.559126,968.6
          120.603201,23.559174,969
          120.603219,23.559219,967.8
          120.603238,23.559276,968.8
          120.603298,23.559266,968.7
          120.603353,23.559275,972.3
          120.603414,23.559299,972.7
          120.603427,23.559312,972.6
          120.603477,23.55932,974.4
          120.603526,23.559334,972.6
          120.603582,23.559344,973.3
          120.603629,23.559363,975.4
          120.603674,23.559382,977
          120.603737,23.55939,979.7
          120.603787,23.559416,981.6
          120.603839,23.559417,982.9
          120.603889,23.559415,989.1
          120.603947,23.559405,990.5
          120.603978,23.559359,992.1
          120.604002,23.559318,991.8
          120.604028,23.559275,990.5
          120.604047,23.559232,991.4
          120.604081,23.559194,995.2
          120.60412,23.559152,997.3
          120.604157,23.55912,1000.3
          120.604202,23.559092,1004.6
          120.604225,23.559052,1004.8
          120.604251,23.559008,1006.5
          120.60427,23.55896,1006
          120.604297,23.558899,1006.9
          120.604331,23.558852,1010.4
          120.604381,23.558802,1012.4
          120.604469,23.558805,1014.7
          120.604529,23.558791,1015.7
          120.604587,23.558773,1017
          120.604647,23.558747,1018.4
          120.604699,23.558728,1019.3
          120.604844,23.558592,1014.7
          120.604916,23.558636,1034.4
          120.60497,23.558636,1032.5
          120.605016,23.558616,1033.3
          120.605068,23.558606,1032.7
          120.605136,23.558556,1027.6
          120.605189,23.558531,1030.2
          120.605229,23.558501,1032
          120.605271,23.558471,1033.3
          120.60532,23.55845,1033.9
          120.605369,23.55844,1034.1
          120.605311,23.558449,1030.9
          120.605248,23.558454,1033.1
          120.60524,23.558459,1033.3
          120.605297,23.558443,1032.9
          120.60535,23.55844,1032.5
          120.605301,23.558447,1032.9
          120.605357,23.558452,1032.9
          120.60536,23.558406,1031.7
          120.605415,23.558406,1028.1
          120.605468,23.558428,1027.6
          120.605514,23.558448,1028.1
          120.605567,23.558474,1029.9
          120.605636,23.558497,1028.8
          120.605686,23.558511,1028
          120.60573,23.558544,1026.5
          120.605785,23.558581,1025.6
          120.60581,23.558632,1025.3
          120.605844,23.558668,1026.3
          120.605866,23.558711,1025.8
          120.60589,23.558755,1025
          120.605916,23.558821,1024.7
          120.605921,23.558883,1024.3
          120.605904,23.558929,1023.6
          120.605905,23.558978,1021.2
          120.605879,23.559022,1019.7
          120.605838,23.559052,1020.3
          120.605805,23.559092,1015.8
          120.605778,23.559136,1009.2
          120.605748,23.559179,1006.6
          120.605715,23.559221,1004.2
          120.60578,23.559285,1003.4
          120.605749,23.559325,1005.3
          120.605736,23.559372,1004.8
          120.605707,23.55941,1002
          120.605666,23.55945,998.2
          120.605653,23.559402,993.6
          120.605666,23.55934,991.5
          120.60567,23.55928,990.9
          120.60563,23.559244,990.8
          120.605568,23.559286,989.1
          120.60556,23.559351,988.3
          120.605533,23.559394,987.5
          120.605514,23.559446,985.7
          120.605503,23.559495,984.5
          120.605495,23.559543,983.6
          120.605529,23.559578,988.1
          120.605509,23.559633,984
          120.605479,23.559684,985.7
          120.605457,23.559731,988.5
          120.605439,23.559774,988.9
          120.605416,23.559837,989.8
          120.605398,23.559896,989.3
          120.605379,23.55995,988.5
          120.605369,23.560001,987.9
          120.605351,23.560047,987.8
          120.605333,23.560091,987.6
          120.605305,23.560134,986.2
          120.605332,23.560176,986.6
          120.605358,23.560219,988.3
          120.605405,23.56025,991
          120.605447,23.560289,989.8
          120.605495,23.560307,988.4
          120.605527,23.560343,989.4
          120.60557,23.560376,989.5
          120.605622,23.560397,992.5
          120.605673,23.56037,991.5
          120.605708,23.560327,989.1
          120.605757,23.560313,988.3
          120.605822,23.560316,992.1
          120.605876,23.560318,991.7
          120.605936,23.560325,990.3
          120.606008,23.560352,989.9
          120.606059,23.560405,987.4
          120.606085,23.56045,986.7
          120.606101,23.560496,985.5
          120.606101,23.560543,983.4
          120.606091,23.560594,981.1
          120.60608,23.560651,974.6
          120.606051,23.560688,970.1
          120.606011,23.560731,968.6
          120.60599,23.560776,966.8
          120.605983,23.560828,966.4
          120.605984,23.560837,967.9
          120.60601,23.560798,971.8
          120.605997,23.560844,969.6
          120.605978,23.560894,968.9
          120.605956,23.560939,968.1
          120.60604,23.560887,978
          120.60596,23.560866,967.1
          120.605931,23.560775,966.6
          120.605982,23.560752,967.1
          120.606038,23.560803,969.7
          120.606033,23.560849,971.1
          120.605983,23.560825,977.4
          120.606029,23.560842,974.7
          120.605979,23.560863,969.1
          120.605951,23.560937,967.3
          120.605868,23.560988,965.8
          120.605777,23.561009,967.5
          120.605735,23.561034,966.4
          120.605674,23.561028,966.4
          120.605613,23.561039,967.4
          120.605563,23.56104,967.5
          120.605514,23.561055,967.8
          120.605463,23.561065,969.2
          120.605412,23.561068,971.5
          120.605363,23.561071,971.1
          120.605297,23.561056,970.4
          120.60523,23.56105,971.4
          120.605169,23.561045,972.4
          120.60511,23.561042,972
          120.605051,23.561032,972.8
          120.604993,23.561029,972.6
          120.604943,23.56103,971.8
          120.604884,23.561021,977.4
          120.604828,23.561031,977.5
          120.604776,23.561037,978.4
          120.604722,23.561053,976.2
          120.60478,23.561052,977.3
          120.604832,23.561055,977.8
          120.60478,23.561048,979.2
          120.604729,23.561043,976.1
          120.60468,23.561025,976.1
          120.604628,23.561017,976.7
          120.604577,23.561027,977.9
          120.604529,23.561009,979.4
          120.604477,23.560994,978.8
          120.604428,23.560981,975.7
          120.604374,23.560978,977
          120.604315,23.560965,978
          120.604263,23.560951,977.5
          120.604218,23.560933,976.3
          120.604163,23.560926,975.2
          120.604142,23.560877,971.6
          120.604161,23.560921,972.3
          120.604117,23.560902,971
          120.604065,23.560891,972.3
          120.604018,23.560866,968.7
          120.603971,23.56084,967.6
          120.603918,23.560827,968.4
          120.603865,23.560842,971.5
          120.603835,23.560904,972.6
          120.603781,23.560887,975
          120.603832,23.560871,971.1
          120.603801,23.560916,974.4
          120.603824,23.5609,974.8
          120.603804,23.560855,970.1
          120.603763,23.560824,966.8
          120.603712,23.560812,965.9
          120.60366,23.560802,962.2
          120.603615,23.560783,961.7
          120.603557,23.560786,963.1
          120.603505,23.560782,962.5
          120.603448,23.560769,962.2
          120.603399,23.560787,960
          120.603347,23.560789,959.7
          120.6033,23.560766,957.3
          120.603256,23.560744,955.7
          120.603207,23.560724,955.9
          120.603195,23.56077,965.5
          120.603131,23.56072,963.1
          120.60311,23.560777,957.6
          120.603106,23.56084,959.2
          120.603151,23.560881,958.3
          120.603104,23.560857,958.1
          120.60314,23.560825,957.7
          120.603133,23.560875,958.2
          120.603094,23.560906,959.2
          120.603137,23.560876,960.1
          120.603082,23.560869,959.4
          120.603063,23.560938,959.7
          120.603074,23.560891,961.2
          120.603082,23.560806,962.5
          120.603128,23.560789,962
          120.60313,23.560834,962
          120.603019,23.560836,963.2
          120.602959,23.560801,962.6
          120.603007,23.560789,963.7
          120.60304,23.560828,964
          120.603087,23.560862,963.7
          120.60315,23.560848,962.9
          120.603197,23.560824,962.8
          120.603147,23.560847,960.5
          120.603097,23.560876,959.4
          120.603095,23.560872,959.5
          120.603037,23.56088,959.5
          120.603087,23.560854,960.9
          120.603127,23.560882,962.8
          120.603078,23.560886,959
          120.603095,23.560842,959.7
          120.603041,23.560881,960.3
          120.603091,23.560884,959.9
          120.603086,23.560936,961.7
          120.603052,23.560873,960.4
          120.603098,23.560908,961.3
          120.60312,23.560841,959.7
          120.603092,23.560884,961.3
          120.603049,23.560911,962.5
          120.602993,23.560849,963.2
          120.603075,23.560819,963.3
          120.60313,23.56084,962.7
          120.603113,23.560884,958
          120.603057,23.560919,957.7
          120.603084,23.560881,960.8
          120.603129,23.560863,961.8
          120.603108,23.560913,962
          120.603119,23.560868,959.3
          120.603167,23.560856,957.1
          120.6032,23.560771,959.4
          120.603247,23.56075,959.4
          120.603296,23.560785,956.9
          120.603343,23.560773,958
          120.603396,23.560766,960.6
          120.603448,23.560782,961
          120.603496,23.560765,966.2
          120.603513,23.560753,965.5
          120.603559,23.560774,965.5
          120.603599,23.560801,960.9
          120.603591,23.560755,960.1
          120.603635,23.560785,961.3
          120.603579,23.560763,963.6
          120.603626,23.560737,963.7
          120.603574,23.560727,961.5
          120.603584,23.560773,958.5
          120.603509,23.560771,964.1
          120.603357,23.560779,960.2
          120.603242,23.560767,958.1
          120.60316,23.560743,957.7
          120.603121,23.560782,956.9
          120.603102,23.560839,957.2
          120.603149,23.560827,957.4
          120.603156,23.560779,958.3
          120.60311,23.560805,959.1
          120.603153,23.560769,957.6
          120.603135,23.560822,954.5
          120.603152,23.560685,955.8
          120.603205,23.560765,957.5
          120.603157,23.560715,960.5
          120.603157,23.560763,958.7
          120.603004,23.560839,962.5
          120.603078,23.560853,962.3
          120.603156,23.560847,960.9
          120.603119,23.560807,959.8
          120.603141,23.560848,956.1
          120.603144,23.5609,958.1
          120.603109,23.560856,958.7
          120.603148,23.560889,955.9
          120.603161,23.560818,956.2
          120.603189,23.560777,956.7
          120.60313,23.560798,961.9
          120.603086,23.560839,960.1
          120.603117,23.560803,958.4
          120.603112,23.560757,956.8
          120.60313,23.560715,958.2
          120.603174,23.56069,959.7
          120.603191,23.560639,958.2
          120.603181,23.560593,957.2
          120.603142,23.560565,956.3
          120.6031,23.560527,955
          120.603048,23.560514,955.7
          120.603009,23.560558,954.3
          120.60298,23.560601,954.6
          120.602941,23.560635,955.1
          120.602918,23.560676,955.1
          120.602888,23.560736,956.3
          120.60287,23.560794,955.4
          120.602891,23.560838,954.8
          120.602871,23.560879,954.7
          120.602824,23.560865,959.7
          120.60288,23.560884,957.7
          120.602866,23.560816,957.6
          120.602814,23.56082,955.7
          120.602838,23.560869,952.6
          120.602775,23.560861,958.8
          120.602833,23.560876,955.8
          120.602831,23.560831,956.7
          120.602793,23.560867,951.9
          120.602738,23.560876,949.8
          120.60269,23.560886,950.5
          120.602639,23.560889,950
          120.602585,23.560894,949
          120.602534,23.560881,948.5
          120.602481,23.560878,947.5
          120.602427,23.560874,947.4
          120.602373,23.560853,946.6
          120.602322,23.560862,946.4
          120.6023,23.56086,947.4
          120.602279,23.560807,945.8
          120.602246,23.560763,946.6
          120.602211,23.560725,945.6
          120.602184,23.560678,943.6
          120.602151,23.560642,943.3
          120.602107,23.560612,941.9
          120.602068,23.56058,943.6
          120.602016,23.560564,941.5
          120.602012,23.560512,943.6
          120.60197,23.560476,944.2
          120.60192,23.560475,943.1
          120.601858,23.560483,941.9
          120.601827,23.560526,943.7
          120.601817,23.560542,943.4
          120.601766,23.56055,944.4
          120.601807,23.560516,946
          120.601852,23.560482,945.3
          120.601918,23.560476,945.5
          120.601861,23.560492,945
          120.601813,23.560512,945.6
          120.601824,23.560466,944.2
          120.601817,23.560414,945.9
          120.601763,23.560441,947.9
          120.601786,23.56049,946.8
          120.601739,23.56047,947.1
          120.601705,23.56051,949.3
          120.601756,23.560503,949.4
          120.60186,23.560439,950.4
          120.601822,23.560474,952.2
          120.601764,23.56048,954.9
          120.601675,23.560479,955.3
          120.601749,23.560481,956.1
          120.601735,23.560526,956.6
          120.601772,23.560591,956.3
          120.601763,23.56053,956.2
          120.601661,23.56064,960.5
          120.601719,23.560566,956.9
          120.601673,23.560593,956
          120.60173,23.560599,955.8
          120.601673,23.560603,954.4
          120.601655,23.560554,956.7
          120.601658,23.560495,956.5
          120.601665,23.560544,956.8
          120.601618,23.560571,957.3
          120.601651,23.560608,958.4
          120.601685,23.560572,958.6
          120.601723,23.560491,957.5
          120.601667,23.560562,957.6
          120.601584,23.560559,955.7
          120.601666,23.560521,955.4
          120.601667,23.560569,953.9
          120.601729,23.560543,952.6
          120.60174,23.560593,955.6
          120.601681,23.560574,956.9
          120.601596,23.560598,957.3
          120.601691,23.560558,957.4
          120.60165,23.560605,957.6
          120.601669,23.560557,958
          120.601661,23.56049,957.4
          120.601594,23.560521,956.2
          120.601579,23.560584,956.7
          120.601636,23.560589,954.9
          120.601709,23.560582,955.2
          120.601755,23.560551,955.7
          120.601805,23.560533,955.6
          120.601845,23.56044,954.9
          120.601876,23.560404,953.1
          120.601857,23.560451,952.6
          120.601851,23.5604,952.6
          120.601891,23.560371,950.8
          120.601837,23.560423,949.3
          120.601886,23.560416,952.1
          120.601855,23.560457,951.9
          120.601894,23.560425,956
          120.601872,23.560472,947.4
          120.601916,23.560449,948.2
          120.601942,23.560411,945.5
          120.601921,23.560368,944.5
          120.601888,23.560323,946
          120.60184,23.560329,946.9
          120.601816,23.560375,949.9
          120.601824,23.560361,949.5
          120.601746,23.560376,957.7
          120.60174,23.560325,959.3
          120.60176,23.560259,954.6
          120.601741,23.560215,952.3
          120.601699,23.560189,955.7
          120.601753,23.560214,952
          120.601757,23.560223,951.7
          120.601709,23.560193,953
          120.601684,23.560149,952.6
          120.601666,23.560104,951.1
          120.601644,23.560063,951.4
          120.601611,23.560027,951.2
          120.601568,23.560002,951.2
          120.60152,23.55998,951.3
          120.601475,23.559958,949.7
          120.601428,23.559922,950.2
          120.601367,23.559868,951.8
          120.601335,23.55983,947.4
          120.601278,23.559843,947.2
          120.60123,23.559855,945.9
          120.601176,23.559881,946.3
          120.601125,23.559897,944.2
          120.601071,23.5599,946.3
          120.601022,23.559904,945.5
          120.600973,23.559892,946.2
          120.600923,23.559876,945.8
          120.600907,23.559833,945.3
          120.600862,23.559813,945.1
          120.600811,23.559785,946.5
          120.600758,23.559755,947.8
          120.600706,23.559732,948.3
          120.600647,23.559713,948.4
          120.600603,23.559689,948.8
          120.600553,23.559668,948.2
          120.600516,23.559637,949.5
          120.600456,23.559643,950.3
          120.600343,23.559664,950.6
          120.600291,23.55967,951.2
          120.600315,23.559753,950.2
          120.600288,23.559693,949.7
          120.600275,23.55977,955.2
          120.600304,23.559885,955.7
          120.600342,23.559851,954
          120.600351,23.559801,948
          120.600375,23.559759,949.5
          120.60038,23.559714,955
          120.600359,23.559769,952.2
          120.600394,23.559804,952.1
          120.600447,23.559785,951.2
          120.60044,23.559777,950.3
          120.60045,23.559776,946
        </coordinates>
      </LineString>
    </Placemark>
    <Placemark>
      <name>太平雲梯入口|Entrance</name>
      <description></description>
      <ExtendedData>
        <Data name="icon"><value>google-pin</value></Data>
        <Data name="color"><value>#e27653</value></Data>
      </ExtendedData>
      <Point>
        <coordinates>120.5980153614878,23.56048745479346,0</coordinates>
      </Point>
    </Placemark>
    <Placemark>
      <name>268階步道</name>
      <description></description>
      <ExtendedData>
        <Data name="icon"><value>google-pin</value></Data>
        <Data name="color"><value>#e27653</value></Data>
      </ExtendedData>
      <Point>
        <coordinates>120.59746227634503,23.55763649925329,0</coordinates>
      </Point>
    </Placemark>
    <Placemark>
      <name>洗手間</name>
      <description></description>
      <ExtendedData>
        <Data name="icon"><value>wc</value></Data>
        <Data name="color"><value>#10b981</value></Data>
      </ExtendedData>
      <Point>
        <coordinates>120.60031518654307,23.559518678372015,0</coordinates>
      </Point>
    </Placemark>
    <Placemark>
      <name>步道第一涼亭</name>
      <description></description>
      <ExtendedData>
        <Data name="icon"><value>star</value></Data>
        <Data name="color"><value>#10b981</value></Data>
      </ExtendedData>
      <Point>
        <coordinates>120.597716,23.557283,0</coordinates>
      </Point>
    </Placemark>
    <Placemark>
      <name>龜山</name>
      <description></description>
      <ExtendedData>
        <Data name="icon"><value>mountain</value></Data>
        <Data name="color"><value>#8b5cf6</value></Data>
      </ExtendedData>
      <Point>
        <coordinates>120.598829,23.55707,0</coordinates>
      </Point>
    </Placemark>
    <Placemark>
      <name>步道第二涼亭</name>
      <description></description>
      <ExtendedData>
        <Data name="icon"><value>star</value></Data>
        <Data name="color"><value>#10b981</value></Data>
      </ExtendedData>
      <Point>
        <coordinates>120.600323,23.558142,0</coordinates>
      </Point>
    </Placemark>
    <Placemark>
      <name>步道第三涼亭</name>
      <description></description>
      <ExtendedData>
        <Data name="icon"><value>star</value></Data>
        <Data name="color"><value>#10b981</value></Data>
      </ExtendedData>
      <Point>
        <coordinates>120.601856,23.55876,0</coordinates>
      </Point>
    </Placemark>
    <Placemark>
      <name>茶園步道出口</name>
      <description></description>
      <ExtendedData>
        <Data name="icon"><value>google-pin</value></Data>
        <Data name="color"><value>#e27653</value></Data>
      </ExtendedData>
      <Point>
        <coordinates>120.602569,23.558664,0</coordinates>
      </Point>
    </Placemark>
    <Placemark>
      <name>雲朵茶坊｜太平野生愛玉·茶飲</name>
      <description></description>
      <ExtendedData>
        <Data name="icon"><value>star</value></Data>
        <Data name="color"><value>#10b981</value></Data>
      </ExtendedData>
      <Point>
        <coordinates>120.60263,23.558504,0</coordinates>
      </Point>
    </Placemark>
    <Placemark>
      <name>孝子路步道口</name>
      <description></description>
      <ExtendedData>
        <Data name="icon"><value>google-pin</value></Data>
        <Data name="color"><value>#e27653</value></Data>
      </ExtendedData>
      <Point>
        <coordinates>120.603427,23.559312,0</coordinates>
      </Point>
    </Placemark>
    <Placemark>
      <name>涼亭</name>
      <description>前往大巃頂步道</description>
      <ExtendedData>
        <Data name="icon"><value>star</value></Data>
        <Data name="color"><value>#10b981</value></Data>
      </ExtendedData>
      <Point>
        <coordinates>120.60524,23.558459,0</coordinates>
      </Point>
    </Placemark>
    <Placemark>
      <name>竹林茶坊</name>
      <description></description>
      <ExtendedData>
        <Data name="icon"><value>star</value></Data>
        <Data name="color"><value>#10b981</value></Data>
      </ExtendedData>
      <Point>
        <coordinates>120.605984,23.560837,0</coordinates>
      </Point>
    </Placemark>
    <Placemark>
      <name>太平老街</name>
      <description></description>
      <ExtendedData>
        <Data name="icon"><value>google-pin</value></Data>
        <Data name="color"><value>#e27653</value></Data>
      </ExtendedData>
      <Point>
        <coordinates>120.60426136442305,23.560972780633833,0</coordinates>
      </Point>
    </Placemark>
    <Placemark>
      <name>空氣圖書館</name>
      <description>餐廳</description>
      <ExtendedData>
        <Data name="icon"><value>star</value></Data>
        <Data name="color"><value>#10b981</value></Data>
      </ExtendedData>
      <Point>
        <coordinates>120.601817,23.560542,0</coordinates>
      </Point>
    </Placemark>
    <Placemark>
      <name>7-11</name>
      <description></description>
      <ExtendedData>
        <Data name="icon"><value>star</value></Data>
        <Data name="color"><value>#10b981</value></Data>
      </ExtendedData>
      <Point>
        <coordinates>120.601674,23.56012,0</coordinates>
      </Point>
    </Placemark>
    <Placemark>
      <name>雲之南茶園步道入口</name>
      <description></description>
      <ExtendedData>
        <Data name="icon"><value>google-pin</value></Data>
        <Data name="color"><value>#e27653</value></Data>
      </ExtendedData>
      <Point>
        <coordinates>120.59759344932263,23.557935797282397,0</coordinates>
      </Point>
    </Placemark>
    <Placemark>
      <name>一抹紅趣藝術裝置</name>
      <description></description>
      <ExtendedData>
        <Data name="icon"><value>star</value></Data>
        <Data name="color"><value>#10b981</value></Data>
      </ExtendedData>
      <Point>
        <coordinates>120.60330132207366,23.559302394489876,0</coordinates>
      </Point>
    </Placemark>
    <Placemark>
      <name>無二窯藝術空間</name>
      <description></description>
      <ExtendedData>
        <Data name="icon"><value>star</value></Data>
        <Data name="color"><value>#10b981</value></Data>
      </ExtendedData>
      <Point>
        <coordinates>120.60247603248348,23.55818842372473,0</coordinates>
      </Point>
    </Placemark>
    <Placemark>
      <name>洗手間</name>
      <description></description>
      <ExtendedData>
        <Data name="icon"><value>wc</value></Data>
        <Data name="color"><value>#10b981</value></Data>
      </ExtendedData>
      <Point>
        <coordinates>120.605838501027,23.560894496059916,0</coordinates>
      </Point>
    </Placemark>
    <Placemark>
      <name>雲梯停車場</name>
      <description>平日 $30/時
假日 $50/時</description>
      <ExtendedData>
        <Data name="icon"><value>P</value></Data>
        <Data name="color"><value>#3b82f6</value></Data>
      </ExtendedData>
      <Point>
        <coordinates>120.6008776454097,23.559622449307213,0</coordinates>
      </Point>
    </Placemark>
    <Placemark>
      <name>服務中心</name>
      <description></description>
      <ExtendedData>
        <Data name="icon"><value>star</value></Data>
        <Data name="color"><value>#10b981</value></Data>
      </ExtendedData>
      <Point>
        <coordinates>120.6001508326915,23.559505287303224,0</coordinates>
      </Point>
    </Placemark>
    <Placemark>
      <name>公車站|太平雲梯</name>
      <description></description>
      <ExtendedData>
        <Data name="icon"><value>bus-front</value></Data>
        <Data name="color"><value>#3b82f6</value></Data>
      </ExtendedData>
      <Point>
        <coordinates>120.59963168391562,23.55981854370117,0</coordinates>
      </Point>
    </Placemark>
    <Placemark>
      <name>回程步道</name>
      <description>約8-10分鐘回服務中心</description>
      <ExtendedData>
        <Data name="icon"><value>google-pin</value></Data>
        <Data name="color"><value>#e27653</value></Data>
      </ExtendedData>
      <Point>
        <coordinates>120.59829131274631,23.558400761503947,0</coordinates>
      </Point>
    </Placemark>
    <Placemark>
      <name>36彎</name>
      <description></description>
      <ExtendedData>
        <Data name="icon"><value>google-pin</value></Data>
        <Data name="color"><value>#e27653</value></Data>
      </ExtendedData>
      <Point>
        <coordinates>120.59586482797499,23.56292409484034,0</coordinates>
      </Point>
    </Placemark>
    <Placemark>
      <name>雲海飯店</name>
      <description></description>
      <ExtendedData>
        <Data name="icon"><value>star</value></Data>
        <Data name="color"><value>#10b981</value></Data>
      </ExtendedData>
      <Point>
        <coordinates>120.59668027243282,23.56268351502861,0</coordinates>
      </Point>
    </Placemark>
    <Placemark>
      <name>太平國小</name>
      <description></description>
      <ExtendedData>
        <Data name="icon"><value>star</value></Data>
        <Data name="color"><value>#10b981</value></Data>
      </ExtendedData>
      <Point>
        <coordinates>120.60615747078202,23.56128801397368,0</coordinates>
      </Point>
    </Placemark>
    <Placemark>
      <name>三元宮</name>
      <description></description>
      <ExtendedData>
        <Data name="icon"><value>star</value></Data>
        <Data name="color"><value>#10b981</value></Data>
      </ExtendedData>
      <Point>
        <coordinates>120.60405973723726,23.561854037554497,0</coordinates>
      </Point>
    </Placemark>
  </Document>
</kml>