<?xml version="1.0" encoding="UTF-8"?>
<kml xmlns="http://www.opengis.net/kml/2.2">
  <Document>
    <name>太興村-太興岩步道</name>
    <Placemark>
      <name>路線軌跡</name>
      <LineString>
        <tessellate>1</tessellate>
        <coordinates>
          120.635347,23.536442,920.3
          120.63532,23.536481,919.7
          120.635299,23.536528,916.9
          120.635271,23.536568,916.2
          120.635251,23.53661,915
          120.635214,23.536656,915.4
          120.635187,23.536694,914.6
          120.635153,23.536736,913.4
          120.635127,23.536778,912.8
          120.635105,23.536818,910.6
          120.635072,23.536856,909.6
          120.635046,23.5369,906.4
          120.635022,23.536947,906.3
          120.635008,23.536995,905
          120.634974,23.537037,905.2
          120.634952,23.537079,902.7
          120.634946,23.537124,901.3
          120.634994,23.537116,900.7
          120.63505,23.537116,901.3
          120.635104,23.537105,901
          120.635155,23.53706,902.3
          120.635191,23.537022,900.6
          120.635191,23.537027,900.3
          120.635213,23.537068,903.4
          120.63525,23.537115,900.6
          120.635282,23.537152,897.3
          120.635319,23.537191,897.1
          120.635361,23.537215,898
          120.635406,23.537234,895.6
          120.635456,23.537258,893.1
          120.635489,23.537298,889.4
          120.635502,23.537342,888.7
          120.635509,23.53739,886.4
          120.63551,23.537438,886
          120.635505,23.537486,884.6
          120.635487,23.537533,878
          120.635458,23.537571,877
          120.635412,23.537588,876.7
          120.635358,23.537594,876.3
          120.635302,23.537593,876.3
          120.635249,23.53759,876.3
          120.635195,23.537585,875.5
          120.635145,23.537581,875.4
          120.635088,23.537574,872.3
          120.635039,23.537547,872
          120.635001,23.537506,872.1
          120.634947,23.53752,870.1
          120.634896,23.537535,869.3
          120.634859,23.537566,870.5
          120.634831,23.537604,867.8
          120.63479,23.537639,864.9
          120.634773,23.537683,862.5
          120.634755,23.537725,861.4
          120.634734,23.537769,858.8
          120.634704,23.537805,857.6
          120.634673,23.537847,858.4
          120.634635,23.537883,855.5
          120.634598,23.537917,853.8
          120.634561,23.537951,853.4
          120.634525,23.537984,853.1
          120.63449,23.538016,852.2
          120.634455,23.538051,849.7
          120.634421,23.538093,848.4
          120.634386,23.538129,846.1
          120.634364,23.538176,845.6
          120.634344,23.538222,846.2
          120.634326,23.538272,845.1
          120.634304,23.538312,844.7
          120.634295,23.538363,845
          120.634288,23.538414,844
          120.634267,23.538456,842.5
          120.63426,23.538502,842.7
          120.634249,23.538546,842
          120.634251,23.538592,841.5
          120.634216,23.538623,839.9
          120.634189,23.538665,838.4
          120.634166,23.538712,837.4
          120.634139,23.53876,837.6
          120.634097,23.538785,835.4
          120.634059,23.538825,835.8
          120.634017,23.538856,833.5
          120.633968,23.538879,832.8
          120.633921,23.538897,830.8
          120.633873,23.538922,830.5
          120.633836,23.538967,830.4
          120.633832,23.538972,829.8
          120.633804,23.539009,829.7
          120.633773,23.539046,828
          120.633741,23.539097,826.7
          120.633722,23.539146,825.3
          120.633713,23.539191,824.2
          120.63372,23.539248,823.5
          120.633695,23.539288,822.9
          120.633654,23.539313,824.4
          120.633653,23.539363,826.4
          120.633637,23.539406,827
          120.633626,23.539451,827.7
          120.633616,23.5395,827.9
          120.633609,23.539546,828.5
          120.633604,23.539591,826.3
          120.6336,23.53964,827.3
          120.633597,23.539696,829.5
          120.633591,23.539746,829
          120.633594,23.539794,832.8
          120.633594,23.539841,834.7
          120.633595,23.539887,836
          120.633597,23.539934,837.5
          120.633609,23.539981,837
          120.633607,23.540027,836.8
          120.633624,23.540071,836.1
          120.633636,23.540124,835.5
          120.633684,23.540157,835.6
          120.633727,23.540181,834.5
          120.633764,23.540212,832.6
          120.633802,23.540244,831.1
          120.633881,23.540263,831.6
          120.633885,23.540311,830.1
          120.633895,23.540361,829.3
          120.633899,23.540406,829.3
          120.633899,23.540454,828.8
          120.6339,23.540504,826.8
          120.633906,23.54055,825.2
          120.633932,23.540595,822.7
          120.633944,23.540641,817.7
          120.633957,23.540687,817
          120.633974,23.540736,816.3
          120.634,23.540786,816
          120.634029,23.540826,816.6
          120.634054,23.540874,815.4
          120.634069,23.540923,814.2
          120.6341,23.54097,811.8
          120.634136,23.541007,812.5
          120.634104,23.54105,810.8
          120.634132,23.541088,809.4
          120.634159,23.54113,809
          120.634184,23.541169,808.6
          120.63421,23.541213,808.7
          120.634239,23.541254,808.3
          120.634278,23.541287,807.8
          120.634269,23.541333,808.2
          120.634272,23.541383,809
          120.634322,23.541399,804.2
          120.634364,23.54143,802.9
          120.634402,23.54149,804.4
          120.634461,23.541471,805.2
          120.634519,23.541479,805.3
          120.634467,23.5415,807.2
          120.634468,23.541512,805.5
          120.634467,23.5415,807.2
          120.634519,23.541479,805.3
          120.634461,23.541471,805.2
          120.634402,23.54149,804.4
          120.634364,23.54143,802.9
          120.634322,23.541399,804.2
          120.634272,23.541383,809
          120.634269,23.541333,808.2
          120.634278,23.541287,807.8
          120.634239,23.541254,808.3
          120.63421,23.541213,808.7
          120.634184,23.541169,808.6
          120.634159,23.54113,809
          120.634132,23.541088,809.4
          120.634104,23.54105,810.8
          120.634136,23.541007,812.5
          120.6341,23.54097,811.8
          120.634069,23.540923,814.2
          120.634054,23.540874,815.4
          120.634029,23.540826,816.6
          120.634,23.540786,816
          120.633974,23.540736,816.3
          120.633957,23.540687,817
          120.633944,23.540641,817.7
          120.633932,23.540595,822.7
          120.633906,23.54055,825.2
          120.6339,23.540504,826.8
          120.633899,23.540454,828.8
          120.633899,23.540406,829.3
          120.633895,23.540361,829.3
          120.633885,23.540311,830.1
          120.633881,23.540263,831.6
          120.633802,23.540244,831.1
          120.633764,23.540212,832.6
          120.633727,23.540181,834.5
          120.633684,23.540157,835.6
          120.633636,23.540124,835.5
          120.633624,23.540071,836.1
          120.633607,23.540027,836.8
          120.633609,23.539981,837
          120.633597,23.539934,837.5
          120.633595,23.539887,836
          120.633594,23.539841,834.7
          120.633594,23.539794,832.8
          120.633591,23.539746,829
          120.633597,23.539696,829.5
          120.6336,23.53964,827.3
          120.633604,23.539591,826.3
          120.633609,23.539546,828.5
          120.633616,23.5395,827.9
          120.633626,23.539451,827.7
          120.633637,23.539406,827
          120.633653,23.539363,826.4
          120.633654,23.539313,824.4
          120.633695,23.539288,822.9
          120.63372,23.539248,823.5
          120.633713,23.539191,824.2
          120.633722,23.539146,825.3
          120.633741,23.539097,826.7
          120.633773,23.539046,828
          120.633804,23.539009,829.7
          120.633832,23.538972,829.8
          120.633836,23.538967,830.4
          120.633873,23.538922,830.5
          120.633921,23.538897,830.8
          120.633968,23.538879,832.8
          120.634017,23.538856,833.5
          120.634059,23.538825,835.8
          120.634097,23.538785,835.4
          120.634139,23.53876,837.6
          120.634166,23.538712,837.4
          120.634189,23.538665,838.4
          120.634216,23.538623,839.9
          120.634251,23.538592,841.5
          120.634249,23.538546,842
          120.63426,23.538502,842.7
          120.634267,23.538456,842.5
          120.634288,23.538414,844
          120.634295,23.538363,845
          120.634304,23.538312,844.7
          120.634326,23.538272,845.1
          120.634344,23.538222,846.2
          120.634364,23.538176,845.6
          120.634386,23.538129,846.1
          120.634421,23.538093,848.4
          120.634455,23.538051,849.7
          120.63449,23.538016,852.2
          120.634525,23.537984,853.1
          120.634561,23.537951,853.4
          120.634598,23.537917,853.8
          120.634635,23.537883,855.5
          120.634673,23.537847,858.4
          120.634704,23.537805,857.6
          120.634734,23.537769,858.8
          120.634755,23.537725,861.4
          120.634773,23.537683,862.5
          120.63479,23.537639,864.9
          120.634831,23.537604,867.8
          120.634859,23.537566,870.5
          120.634896,23.537535,869.3
          120.634947,23.53752,870.1
          120.635001,23.537506,872.1
          120.635039,23.537547,872
          120.635088,23.537574,872.3
          120.635145,23.537581,875.4
          120.635195,23.537585,875.5
          120.635249,23.53759,876.3
          120.635302,23.537593,876.3
          120.635358,23.537594,876.3
          120.635412,23.537588,876.7
          120.635458,23.537571,877
          120.635487,23.537533,878
          120.635505,23.537486,884.6
          120.63551,23.537438,886
          120.635509,23.53739,886.4
          120.635502,23.537342,888.7
          120.635489,23.537298,889.4
          120.635456,23.537258,893.1
          120.635406,23.537234,895.6
          120.635361,23.537215,898
          120.635319,23.537191,897.1
          120.635282,23.537152,897.3
          120.63525,23.537115,900.6
          120.635213,23.537068,903.4
          120.635191,23.537027,900.3
          120.635191,23.537022,900.6
          120.635155,23.53706,902.3
          120.635104,23.537105,901
          120.63505,23.537116,901.3
          120.634994,23.537116,900.7
          120.634946,23.537124,901.3
          120.634952,23.537079,902.7
          120.634974,23.537037,905.2
          120.635008,23.536995,905
          120.635022,23.536947,906.3
          120.635046,23.5369,906.4
          120.635072,23.536856,909.6
          120.635105,23.536818,910.6
          120.635127,23.536778,912.8
          120.635153,23.536736,913.4
          120.635187,23.536694,914.6
          120.635214,23.536656,915.4
          120.635251,23.53661,915
          120.635271,23.536568,916.2
          120.635299,23.536528,916.9
          120.63532,23.536481,919.7
          120.635347,23.536442,920.3
        </coordinates>
      </LineString>
    </Placemark>
    <Placemark>
      <name>泰興巖</name>
      <description>꒰主祀觀音佛祖꒱ 可追溯至清乾隆年間，被列為「嘉義縣定古蹟」</description>
      <ExtendedData>
        <Data name="icon"><value>star</value></Data>
        <Data name="color"><value>#10b981</value></Data>
      </ExtendedData>
      <Point>
        <coordinates>120.6345429215117,23.541512174363604,0</coordinates>
      </Point>
    </Placemark>
    <Placemark>
      <name>岔路</name>
      <description></description>
      <ExtendedData>
        <Data name="icon"><value>google-pin</value></Data>
        <Data name="color"><value>#e27653</value></Data>
      </ExtendedData>
      <Point>
        <coordinates>120.633836,23.538967,0</coordinates>
      </Point>
    </Placemark>
    <Placemark>
      <name>涼亭</name>
      <description></description>
      <ExtendedData>
        <Data name="icon"><value>google-pin</value></Data>
        <Data name="color"><value>#e27653</value></Data>
      </ExtendedData>
      <Point>
        <coordinates>120.635191,23.537022,0</coordinates>
      </Point>
    </Placemark>
    <Placemark>
      <name>路邊停車點</name>
      <description></description>
      <ExtendedData>
        <Data name="icon"><value>P</value></Data>
        <Data name="color"><value>#3b82f6</value></Data>
      </ExtendedData>
      <Point>
        <coordinates>120.63441336407976,23.542000467226472,0</coordinates>
      </Point>
    </Placemark>
    <Placemark>
      <name>停車處</name>
      <description></description>
      <ExtendedData>
        <Data name="icon"><value>P</value></Data>
        <Data name="color"><value>#3b82f6</value></Data>
      </ExtendedData>
      <Point>
        <coordinates>120.63437738200929,23.541782706809784,0</coordinates>
      </Point>
    </Placemark>
    <Placemark>
      <name>河津櫻花</name>
      <description></description>
      <ExtendedData>
        <Data name="icon"><value>star</value></Data>
        <Data name="color"><value>#10b981</value></Data>
      </ExtendedData>
      <Point>
        <coordinates>120.63414401034788,23.539926870501617,0</coordinates>
      </Point>
    </Placemark>
    <Placemark>
      <name>停車處</name>
      <description></description>
      <ExtendedData>
        <Data name="icon"><value>P</value></Data>
        <Data name="color"><value>#3b82f6</value></Data>
      </ExtendedData>
      <Point>
        <coordinates>120.63540885951375,23.53628980699723,0</coordinates>
      </Point>
    </Placemark>
    <Placemark>
      <name>台灣好行110</name>
      <description>假日行駛</description>
      <ExtendedData>
        <Data name="icon"><value>bus-front</value></Data>
        <Data name="color"><value>#3b82f6</value></Data>
      </ExtendedData>
      <Point>
        <coordinates>120.63519147051773,23.536381961250854,0</coordinates>
      </Point>
    </Placemark>
    <Placemark>
      <name>嘉義縣公車-石鼓坪站</name>
      <description>꒰7315꒱— 每日兩班
步行約10分鐘抵達步道入口</description>
      <ExtendedData>
        <Data name="icon"><value>bus-front</value></Data>
        <Data name="color"><value>#3b82f6</value></Data>
      </ExtendedData>
      <Point>
        <coordinates>120.63698838521242,23.535229610258227,0</coordinates>
      </Point>
    </Placemark>
    <Placemark>
      <name>嘉義縣公車-太興國小站</name>
      <description>꒰7315 / 7315A꒱— 每日兩班</description>
      <ExtendedData>
        <Data name="icon"><value>bus-front</value></Data>
        <Data name="color"><value>#3b82f6</value></Data>
      </ExtendedData>
      <Point>
        <coordinates>120.63457658945106,23.542208586488428,0</coordinates>
      </Point>
    </Placemark>
    <Placemark>
      <name>起點|Start</name>
      <description></description>
      <ExtendedData>
        <Data name="icon"><value>start</value></Data>
        <Data name="color"><value>#10b981</value></Data>
      </ExtendedData>
      <Point>
        <coordinates>120.6352932086458,23.536447574709257,0</coordinates>
      </Point>
    </Placemark>
    <Placemark>
      <name>終點|End</name>
      <description></description>
      <ExtendedData>
        <Data name="icon"><value>end</value></Data>
        <Data name="color"><value>#e27653</value></Data>
      </ExtendedData>
      <Point>
        <coordinates>120.63537186529595,23.536461997287745,0</coordinates>
      </Point>
    </Placemark>
  </Document>
</kml>