<?xml version="1.0" encoding="UTF-8"?>
<kml xmlns="http://www.opengis.net/kml/2.2">
  <Document>
    <name>太興村-飛瀑步道</name>
    <Placemark>
      <name>路線軌跡</name>
      <LineString>
        <tessellate>1</tessellate>
        <coordinates>
          120.6329041,23.5498627,596
          120.632904,23.5498628,622.5999755859375
          120.63290286139583,23.549814642158662,596
          120.63288078604975,23.549770123536693,596
          120.63286871339854,23.54972285271916,596
          120.63286758693937,23.5496761863847,596
          120.63287683484126,23.549602216654666,597
          120.63288213604851,23.549540592507007,597
          120.63289469928921,23.54949082970636,597
          120.63287760195051,23.54943488434164,597
          120.63287389560679,23.549380508974355,597
          120.63288889901632,23.549328706300987,597
          120.63292597706896,23.54928508176301,594
          120.63295980322057,23.54924453936101,594
          120.6330181914243,23.54921144517873,594
          120.6330708592378,23.54921736354686,594
          120.63310460247936,23.549245659015504,594
          120.63315942810682,23.54929561200142,588
          120.63321300846174,23.54933316088927,584
          120.63325756583984,23.549381270278563,584
          120.63330243389832,23.549386732679224,584
          120.63337849207664,23.549387395544073,584
          120.6335059321076,23.549349341050632,581
          120.63350805249678,23.54934574233217,586
          120.63359319173732,23.549312322967804,586
          120.63360750414569,23.54931202480816,581
          120.63372517038266,23.54932512901424,574
          120.6337806031328,23.549348301953177,574
          120.6338490046239,23.549394911273268,574
          120.63390028228054,23.54941245912226,574
          120.63397151427007,23.54943870041305,574
          120.63399079957382,23.549454712825057,571
          120.63407481079432,23.549472803024543,571
          120.63416851117324,23.54953662656541,571
          120.63421222185427,23.549584521862023,566
          120.63426042795955,23.54962218422186,566
          120.6342943555608,23.549665080663015,566
          120.63432911635122,23.54970274835939,561
          120.6343726368189,23.54974224051243,561
          120.6344204896346,23.54977845192555,561
          120.63446514321092,23.549803926798713,561
          120.63452414296191,23.54982381531975,561
          120.63452638292802,23.549877771210003,557
          120.6345297134056,23.54992611930792,557
          120.63453494585244,23.5499889411912,557
          120.63453284241349,23.550040845204368,557
          120.63455144560922,23.550102107154213,557
          120.6345756094635,23.550152731405905,547
          120.63460596526495,23.55020252925643,547
          120.63463839171756,23.550266953592804,547
          120.6346657564564,23.55022744935358,547
          120.63469321081735,23.550189037457987,547
          120.6347163786413,23.550141577549017,549
          120.63475804501876,23.550163334797443,547
          120.63481161632275,23.550181084324013,547
          120.6348475849749,23.550202831336346,538
          120.63490762039605,23.55022317134706,538
          120.63498166675144,23.55022658250774,538
          120.63503714953976,23.5502496543107,538
          120.63508601252316,23.550270922521182,538
          120.63513244002371,23.550317662275653,532
          120.63519356197011,23.550328203126718,532
          120.6352501762333,23.55032031593338,532
          120.63524740644756,23.550273473774,532
          120.63530296837318,23.550268347288434,532
          120.63538068518999,23.55027283698485,532
          120.63543646000815,23.550288117792554,528
          120.63549054351407,23.550299018174833,528
          120.63557417115949,23.550291330047042,528
          120.63561605969099,23.550274129219158,528
          120.63567317466493,23.55028125304561,523
          120.63573109695794,23.550300273267656,523
          120.63582733258922,23.550356894810857,523
          120.63585936018025,23.550391120242715,523
          120.63589515727348,23.550452264884886,513
          120.63607831397046,23.55055597250986,507
          120.63610686346635,23.550568167498373,507
          120.63617578819238,23.550605169376684,507
          120.63625007687071,23.550620455637173,507
          120.63631091304094,23.550631772522415,507
          120.63636063925284,23.55059580120552,507
          120.63638354472825,23.550541945538583,507
          120.63644054866855,23.55055828340802,507
          120.63654356472543,23.550661673178798,506
          120.63659384965604,23.550695405877246,497
          120.63665970438876,23.550744006643257,497
          120.63667323068275,23.550772265390158,497
          120.63671081109683,23.550871746604688,497
          120.6367504854601,23.550919377606604,497
          120.63683084500495,23.550960410453587,495
          120.6368633857329,23.551010397408263,485
          120.63690018258738,23.551057634765222,485
          120.63697061792111,23.551090722179183,485
          120.63707283757141,23.55112087792276,483
          120.63710612155856,23.551130521052684,483
          120.63719666180572,23.55123347881318,483
          120.63725555173568,23.55128734584825,475
          120.63729040802106,23.55131765826168,475
          120.63733192099207,23.551361619995106,475
          120.63737868975753,23.55140719867644,476
          120.63741303300125,23.551452346716328,476
          120.63743307044096,23.55149549424956,476
          120.63743271826681,23.551564995083638,467
          120.63742528656579,23.551606268779466,467
          120.63740472279136,23.551654912422887,467
          120.63740631287133,23.5517016474955,467
          120.63741746006195,23.551758444455423,467
          120.63744048602707,23.551821187691186,461
          120.63745386134926,23.551880185679885,461
          120.63745712664004,23.551935149225162,461
          120.63744381796687,23.55199563806327,461
          120.63743236218568,23.552045001437683,461
          120.63740314983974,23.55210026589175,458
          120.63738967386749,23.552149645739046,458
          120.63738442518492,23.552202537765407,458
          120.63738872032044,23.55225003666635,458
          120.63740832209399,23.55229245833496,458
          120.63746576220774,23.552317123777858,458
          120.63752035940203,23.552298968090646,458
          120.63757461883615,23.552271500167574,458
          120.63763189825632,23.55226157308256,451
          120.63768810474042,23.552267736963337,451
          120.63776801291263,23.55225646979074,451
          120.63781806738587,23.552230197103246,451
          120.63787579325513,23.55221502048219,451
          120.63794057221551,23.5521953240348,446
          120.63800264813187,23.55219213721914,446
          120.63803807006371,23.55222793113085,446
          120.63808408704728,23.55226454195686,446
          120.63811113874574,23.552321906972093,446
          120.63810488942364,23.552363486981744,444
          120.63805815196204,23.552376976641984,444
          120.6380198553557,23.552419766501217,444
          120.63803060223475,23.55247679289444,444
          120.63808916098358,23.552531667421924,444
          120.63818730041775,23.552613420340364,442
          120.63823094964958,23.552639803189066,441
          120.63833794086149,23.552707529740744,441
          120.63837378151385,23.552734065338576,441
          120.63842027075958,23.552768474546394,441
          120.63845581284936,23.552795897408068,439
          120.63848906709435,23.552823830081064,439
          120.6387049100732,23.55296679345752,440
          120.63879475719324,23.55302126773148,453
          120.63885459295722,23.553058492198303,453
          120.63888510630395,23.553077804265556,453
          120.63897535665402,23.553125152164288,453
          120.6389628311682,23.553180008047928,453
          120.63897205145439,23.553245961826722,455
          120.63892427368188,23.553279313178976,455
          120.63892849771442,23.55331066388797,455
          120.63898618569313,23.553334634694153,455
          120.63902874175035,23.55337580339291,456
          120.63904656802629,23.553329352520443,456
          120.63898574436814,23.553344424365644,455
          120.6388946561261,23.55330354033056,455
          120.6389035835082,23.553189488245252,453
          120.63892534099341,23.55316354481271,453
          120.63890217312039,23.55309984461714,453
          120.63873684135847,23.552921906148043,439
          120.63869820598781,23.552900451192645,439
          120.63865453728738,23.552874731996123,439
          120.63857750519144,23.552819912052108,439
          120.63850823092089,23.552766106588514,439
          120.63844122410705,23.55271864243939,441
          120.63839794086785,23.55268911325382,441
          120.63832620430611,23.552636719540537,442
          120.63825928486489,23.552579678571032,442
          120.6381723304115,23.552552306933876,444
          120.63806058639472,23.552487871562256,444
          120.6380272062959,23.552459702960522,444
          120.6380156881166,23.552364020798247,446
          120.63803531180245,23.55228135543681,446
          120.63796779837159,23.552222829858806,446
          120.63790810184845,23.552203347128803,451
          120.6377386860356,23.552210243430117,451
          120.6376891547725,23.552220614090356,458
          120.63760621711708,23.552230806069872,458
          120.63750527288,23.552245081538544,458
          120.63743919412501,23.552215322844177,458
          120.63742891138804,23.552135304923592,458
          120.63745362132134,23.552064957612377,461
          120.63745688970383,23.552054095577923,461
          120.63747930307142,23.55196707327553,461
          120.63749161276213,23.551900533987112,461
          120.63746594247712,23.551739604486674,467
          120.63744597949041,23.551664475329357,467
          120.6374393636354,23.551644599001662,467
          120.63745481140904,23.551577589470387,467
          120.63741723697918,23.551515355165765,476
          120.63738135702634,23.55148092921312,476
          120.6373660800918,23.551428896620102,476
          120.63734626771496,23.551373333904372,475
          120.63731059050973,23.551324107358788,475
          120.6372821338828,23.55126708101486,475
          120.63725398376222,23.551248438058945,483
          120.63718300077804,23.55121876090032,483
          120.63713120111332,23.55118492025707,483
          120.63707866401055,23.551154574382377,485
          120.63702453274179,23.55113481201031,485
          120.63697721008933,23.55113136484173,485
          120.63692111968558,23.551090844098724,485
          120.63687806872078,23.55104984190453,485
          120.63682806490984,23.551010007730298,485
          120.63678530798158,23.550991943212523,484
          120.63674068084988,23.550941931695874,497
          120.63669722019173,23.550907702362146,497
          120.63665491018473,23.55085492222489,497
          120.6366426446848,23.55079941990697,497
          120.6366453683831,23.550744123142454,497
          120.63663081496749,23.550688895156764,506
          120.63662328533847,23.550637045783358,506
          120.63660441645918,23.550578115060517,506
          120.63653192411307,23.550532609263605,507
          120.63648270959494,23.550497734748703,507
          120.63645044404316,23.55050585241493,507
          120.63638580568984,23.55053918147087,507
          120.63631912953821,23.550576910589857,507
          120.63625015832928,23.55060623802756,507
          120.63618164402071,23.55060004733131,507
          120.63613722696869,23.550588643286737,507
          120.63607839579323,23.550578923583565,507
          120.6360165852337,23.550567786532426,507
          120.635958197571,23.550552633984953,513
          120.63591632143522,23.550511133363766,513
          120.63589815988954,23.55043948278143,513
          120.6358481348854,23.550334347539966,523
          120.63579844261182,23.550293316917333,523
          120.63573887710005,23.550285933386803,523
          120.63571600391471,23.550269322601586,528
          120.63565324341121,23.550215202716295,528
          120.63553461262116,23.550259912828924,528
          120.63542930283371,23.55025721079745,532
          120.63536999657913,23.550275057828518,532
          120.63520718923958,23.55028687109433,532
          120.63513039961465,23.550257445016655,538
          120.63504699523835,23.550245569062177,538
          120.63492684703876,23.550257895073063,538
          120.63482498328635,23.550217043738932,547
          120.63475737138481,23.550200718711253,547
          120.63469387090777,23.55020947660879,547
          120.63465076890785,23.55024977538132,547
          120.63459769019794,23.55023195108322,547
          120.63454930582492,23.550203092533568,557
          120.63454300360587,23.550159947370318,557
          120.63453436136824,23.550112176967374,557
          120.63454362164165,23.550072265462344,557
          120.63454508191485,23.549996010332546,557
          120.63451946593764,23.549942543623523,557
          120.63451941511634,23.54988871180153,557
          120.6344725082555,23.549856779408707,561
          120.63446887012282,23.54980978844609,561
          120.63446421786446,23.549752887732133,561
          120.63449324535726,23.549774928705176,561
          120.63442570769652,23.54975013579818,561
          120.63436764952333,23.54971334981464,561
          120.63429359752637,23.54973663381399,566
          120.6342615971096,23.549724688874072,566
          120.63423988891869,23.549642085098515,566
          120.63420324857653,23.549618016574765,566
          120.63419985753012,23.549563056801006,571
          120.63419766312241,23.54951954387074,571
          120.63415554315178,23.54946615651535,571
          120.63407257584909,23.549457921435394,571
          120.63402406005507,23.549449528193275,574
          120.63394885267496,23.54942779256116,574
          120.63388614792524,23.549408827760402,574
          120.63385650423763,23.54940020443203,574
          120.63372673460007,23.5493375611512,581
          120.63367620170881,23.54932216644447,581
          120.63357054267347,23.54931571270991,581
          120.63347857622306,23.54932359622853,584
          120.63338717335012,23.54933438210927,584
          120.63333343393212,23.54932918092018,584
          120.63321710666415,23.549355849033656,584
          120.63317593919427,23.549351168247377,588
          120.63309904873127,23.549327571680006,588
          120.6330549430975,23.549296929143594,594
          120.63299823773951,23.549276491861622,594
          120.632960837733,23.549243583471107,594
          120.6328928328116,23.54921159582376,597
          120.63285096073837,23.549171926171184,597
          120.63280282900298,23.54914128508969,597
          120.63275339745738,23.549122056504473,597
          120.63268688476319,23.54911446970595,597
          120.63263720129655,23.549084406505635,608
          120.63258801666046,23.549063343689767,608
          120.63252968229789,23.54904288768911,608
          120.63247277534714,23.549008873880858,612
          120.63252474975751,23.549020955860463,612
          120.6325691087119,23.549047919035676,608
          120.63261965119545,23.549073823504532,608
          120.6326687040883,23.54909933336302,597
          120.6327221016266,23.549117548612262,597
          120.63277608068115,23.54913427808847,597
          120.63282355056639,23.549151989774707,597
          120.63290057785143,23.549185857013807,594
          120.63295342544879,23.549211124027007,594
          120.63296779056209,23.54922560173165,594
          120.63302438902379,23.549285268307603,588
          120.63303604910921,23.549367966222412,588
          120.63295235220767,23.549504520403303,588
          120.6329479086945,23.549528625123934,588
          120.63293017888293,23.54959993508204,593
          120.63292194603736,23.549659732963775,596
          120.63290397418693,23.54972334819237,596
          120.63288977664963,23.5497915530221,596
          120.6328885722927,23.549847848985777,596
          120.6328885722927,23.549847848985777,596
        </coordinates>
      </LineString>
    </Placemark>
    <Placemark>
      <name>起點|Start</name>
      <description></description>
      <ExtendedData>
        <Data name="icon"><value>start</value></Data>
        <Data name="color"><value>#10b981</value></Data>
      </ExtendedData>
      <Point>
        <coordinates>120.63277922666856,23.54986025491708,0</coordinates>
      </Point>
    </Placemark>
    <Placemark>
      <name>步道停車場</name>
      <description></description>
      <ExtendedData>
        <Data name="icon"><value>P</value></Data>
        <Data name="color"><value>#3b82f6</value></Data>
      </ExtendedData>
      <Point>
        <coordinates>120.63294778968543,23.549685575691825,0</coordinates>
      </Point>
    </Placemark>
    <Placemark>
      <name>秘境-打石平台</name>
      <description></description>
      <ExtendedData>
        <Data name="icon"><value>star</value></Data>
        <Data name="color"><value>#3b82f6</value></Data>
      </ExtendedData>
      <Point>
        <coordinates>120.6324708,23.5490198,0</coordinates>
      </Point>
    </Placemark>
    <Placemark>
      <name>百年石磨天下穀</name>
      <description>大石刻有「石磨天下穀」，後方有古石磨，為清代所遺留的百年石臼，已列二級古蹟</description>
      <ExtendedData>
        <Data name="icon"><value>star</value></Data>
        <Data name="color"><value>#3b82f6</value></Data>
      </ExtendedData>
      <Point>
        <coordinates>120.6389741,23.5531301,0</coordinates>
      </Point>
    </Placemark>
    <Placemark>
      <name>農興宮</name>
      <description>供奉神農大帝</description>
      <ExtendedData>
        <Data name="icon"><value>star</value></Data>
        <Data name="color"><value>#3b82f6</value></Data>
      </ExtendedData>
      <Point>
        <coordinates>120.63895832287966,23.553263863528045,0</coordinates>
      </Point>
    </Placemark>
    <Placemark>
      <name>行鷺吊橋</name>
      <description>舊名瑞興吊橋，以西是太興村，以東是瑞里村位於生毛樹溪上方，秋節過後可見群鷺過冬，而改名為「行鷺吊橋」，</description>
      <ExtendedData>
        <Data name="icon"><value>star</value></Data>
        <Data name="color"><value>#3b82f6</value></Data>
      </ExtendedData>
      <Point>
        <coordinates>120.6385115,23.5527736,0</coordinates>
      </Point>
    </Placemark>
    <Placemark>
      <name>終點|End</name>
      <description></description>
      <ExtendedData>
        <Data name="icon"><value>end</value></Data>
        <Data name="color"><value>#e27653</value></Data>
      </ExtendedData>
      <Point>
        <coordinates>120.63296977633456,23.549887128678506,0</coordinates>
      </Point>
    </Placemark>
  </Document>
</kml>