<?xml version="1.0" encoding="UTF-8"?>
<kml xmlns="http://www.opengis.net/kml/2.2">
  <Document>
    <name>太平村-孝子路步道</name>
    <Placemark>
      <name>路線軌跡</name>
      <LineString>
        <tessellate>1</tessellate>
        <coordinates>
          120.607098,23.561102,964.865357
          120.607075,23.561092,963.275589
          120.607044,23.561075,962.526954
          120.60701,23.561032,963.116092
          120.606991,23.561002,965.127119
          120.606969,23.560975,966.252486
          120.606926,23.560959,966.269395
          120.606887,23.560974,968.128594
          120.606825,23.560994,965.203835
          120.60677,23.56101,963.564929
          120.606726,23.561028,963.095591
          120.606693,23.561041,962.9072
          120.606656,23.561049,963.11265
          120.606602,23.561078,963.139556
          120.606555,23.561069,963.861847
          120.606517,23.561056,965.503182
          120.60648,23.561054,964.153096
          120.60645,23.561051,965.261564
          120.606423,23.56104,965.206887
          120.606355,23.561027,965.573211
          120.606317,23.561026,965.611782
          120.606261,23.561006,964.658065
          120.606192,23.561,964.72416
          120.606142,23.560984,964.763509
          120.606075,23.560956,964.989008
          120.606039,23.560929,966.51403
          120.605995,23.560908,964.52874
          120.605988,23.560887,964.505085
          120.605986,23.560874,967.100838
          120.605984,23.560842,965.640984
          120.605986,23.560814,966.627466
          120.605993,23.560784,965.913319
          120.605959,23.560776,966.312416
          120.605955,23.560761,966.577844
          120.605966,23.560756,966.682914
          120.605965,23.560758,966.447011
          120.605975,23.560752,965.652511
          120.605978,23.56074,966.98357
          120.605989,23.56076,968.892855
          120.605999,23.560773,969.608421
          120.606021,23.560768,970.34112
          120.606025,23.560751,969.929214
          120.606042,23.560735,969.39271
          120.60606,23.560725,969.061308
          120.606074,23.560716,969.28842
          120.606077,23.5607,968.249938
          120.606086,23.560682,966.404324
          120.606097,23.560675,968.342005
          120.606103,23.560635,969.532355
          120.606099,23.560628,970.349596
          120.606079,23.560612,971.311794
          120.606081,23.56061,970.956386
          120.606077,23.560598,971.240117
          120.606095,23.560612,972.831372
          120.606084,23.560594,972.603556
          120.606077,23.560598,974.460346
          120.6061,23.560584,971.239304
          120.606113,23.560575,973.154909
          120.606116,23.560566,974.4202
          120.60612,23.560559,975.462134
          120.6061,23.56052,974.777854
          120.606101,23.560501,974.257839
          120.606105,23.560486,974.64695
          120.606101,23.560478,975.104584
          120.606113,23.560468,975.407391
          120.606109,23.560461,975.089962
          120.606098,23.56044,975.73118
          120.606075,23.560414,976.286153
          120.606067,23.560393,976.35346
          120.606052,23.560368,977.580464
          120.606013,23.560338,976.251902
          120.605965,23.560324,975.033962
          120.60594,23.560314,973.702417
          120.605889,23.56031,976.219521
          120.605844,23.560306,975.892737
          120.605816,23.560306,974.750661
          120.605779,23.560296,976.474605
          120.605764,23.560298,976.534734
          120.605744,23.560294,979.089919
          120.60571,23.560304,980.219868
          120.605658,23.560319,980.649049
          120.605615,23.560324,980.036541
          120.60559,23.560316,980.058349
          120.605559,23.5603,981.731503
          120.605542,23.560285,983.918433
          120.605526,23.560272,984.68562
          120.605483,23.560252,986.495158
          120.605461,23.560221,985.414683
          120.605437,23.560195,984.199365
          120.605405,23.56019,984.339274
          120.605409,23.560182,982.995747
          120.605409,23.560179,982.558565
          120.605398,23.560169,981.06368
          120.60539,23.560169,980.019209
          120.605374,23.560161,977.680046
          120.605388,23.560153,980.009524
          120.605382,23.560119,979.212701
          120.605373,23.560116,978.726205
          120.605372,23.560105,979.347629
          120.605365,23.560109,978.831928
          120.605365,23.560103,979.194465
          120.605352,23.5601,980.524915
          120.605353,23.560097,980.235772
          120.605365,23.560094,980.43061
          120.605369,23.560075,980.986575
          120.605375,23.560059,981.13351
          120.605381,23.560049,980.779282
          120.605384,23.560051,981.140062
          120.605384,23.560043,979.183636
          120.605373,23.560035,981.066634
          120.605363,23.560043,980.456753
          120.605353,23.560042,981.680696
          120.605351,23.560027,981.135509
          120.605356,23.560022,979.972411
          120.605354,23.560016,979.666266
          120.605363,23.560013,979.332946
          120.605375,23.559981,979.634628
          120.605389,23.559955,979.896435
          120.605389,23.559925,980.184486
          120.605409,23.559865,978.370189
          120.605414,23.559816,977.984748
          120.605431,23.559758,976.523218
          120.605442,23.559701,977.157746
          120.605455,23.559644,977.164045
          120.605469,23.5596,976.504837
          120.605474,23.559567,977.640346
          120.605476,23.559559,978.554809
          120.605524,23.559542,979.22641
          120.605528,23.559527,981.525009
          120.605523,23.559482,982.251292
          120.605532,23.559467,982.221189
          120.605508,23.559431,982.773758
          120.605513,23.559401,983.547448
          120.605512,23.559352,983.776487
          120.605532,23.559331,983.936982
          120.605533,23.559337,984.773206
          120.605549,23.559342,985.399443
          120.605566,23.559338,985.552107
          120.60557,23.559335,986.115352
          120.605567,23.559346,986.035968
          120.605569,23.55933,986.90234
          120.605583,23.559338,986.956014
          120.605544,23.559311,987.512024
          120.60556,23.559319,986.770683
          120.605552,23.559313,987.270215
          120.605568,23.559327,987.71895
          120.605556,23.559334,987.502756
          120.605561,23.559327,986.829261
          120.605571,23.55932,987.236691
          120.605572,23.55931,987.149233
          120.605547,23.559324,987.422117
          120.605561,23.559322,987.529655
          120.605553,23.559315,988.02127
          120.605549,23.559306,988.271016
          120.605552,23.559288,988.876453
          120.605549,23.559248,989.80726
          120.60555,23.559234,991.122733
          120.605549,23.559236,991.459809
          120.605565,23.559229,991.992499
          120.605581,23.559244,992.795114
          120.605615,23.559287,991.424366
          120.605595,23.559268,990.862307
          120.605591,23.559289,990.9905
          120.6056,23.559293,991.541662
          120.605602,23.559329,990.673702
          120.60561,23.559352,991.59832
          120.605612,23.559374,992.232005
          120.605612,23.559395,991.420548
          120.605632,23.559394,989.110589
          120.605669,23.559388,990.314356
          120.605649,23.559374,990.196678
          120.605643,23.559375,990.60699
          120.605681,23.559377,990.397858
          120.605705,23.559384,990.421185
          120.605714,23.559374,990.05591
          120.605713,23.559359,990.393358
          120.605696,23.559354,991.066383
          120.605715,23.559341,991.941439
          120.605737,23.559305,992.901095
          120.605733,23.559289,993.708835
          120.605763,23.559259,994.400134
          120.605769,23.559258,995.784374
          120.605779,23.55925,995.597417
          120.605777,23.559256,996.329009
          120.605788,23.559243,996.357239
          120.605793,23.559238,996.67414
          120.605806,23.559238,996.616766
          120.605811,23.559222,996.233533
          120.605802,23.559217,995.444532
          120.605794,23.55921,995.863205
          120.605788,23.559214,995.453545
          120.605796,23.559221,995.009995
          120.605782,23.559231,997.115659
          120.605793,23.55922,997.857133
          120.605789,23.559202,998.148437
          120.605793,23.559202,997.543538
          120.605798,23.559216,997.31367
          120.60578,23.559211,996.934312
          120.605772,23.559215,996.719358
          120.605775,23.55921,996.126276
          120.605778,23.559213,995.844945
          120.605773,23.559232,996.071817
          120.605761,23.559237,996.141607
          120.605755,23.559243,996.110763
          120.605764,23.559245,995.862429
          120.605772,23.559245,996.34119
          120.605776,23.559233,997.264387
          120.605782,23.559226,997.867333
          120.605791,23.559225,998.364321
          120.605783,23.559226,998.043779
          120.605788,23.559227,998.320811
          120.605781,23.559208,998.480238
          120.605794,23.559195,999.471022
          120.605794,23.55919,998.525167
          120.605789,23.559172,1000.630336
          120.605797,23.559164,1000.897632
          120.605806,23.559144,1000.636338
          120.605808,23.559147,1002.04684
          120.605802,23.559132,1005.16421
          120.605803,23.559117,1005.17594
          120.605806,23.55914,1005.628165
          120.605813,23.559118,1005.343749
          120.605815,23.559128,1005.481253
          120.605821,23.559136,1006.784323
          120.605823,23.55911,1006.451148
          120.605842,23.559099,1006.84953
          120.605854,23.559082,1006.769675
          120.605862,23.55905,1007.951801
          120.605859,23.559036,1008.536906
          120.605856,23.559028,1008.19019
          120.605857,23.559014,1009.085155
          120.605879,23.558999,1010.482962
          120.605893,23.55902,1011.291363
          120.605891,23.559031,1013.438356
          120.605903,23.559019,1011.894351
          120.605908,23.558999,1013.185716
          120.60591,23.55899,1013.897445
          120.605911,23.558977,1015.040169
          120.605907,23.558933,1014.055208
          120.605916,23.558876,1014.916516
          120.605911,23.55884,1015.242421
          120.605901,23.558839,1016.180154
          120.605899,23.558842,1015.913497
          120.60593,23.558825,1015.676567
          120.605939,23.558801,1016.409097
          120.605918,23.558783,1017.016955
          120.605934,23.558784,1017.246546
          120.605925,23.558744,1017.069249
          120.605914,23.558716,1018.665941
          120.605911,23.558672,1019.20111
          120.605878,23.55863,1019.117317
          120.605865,23.558624,1021.187454
          120.605856,23.558621,1020.994234
          120.605856,23.558628,1020.811016
          120.605859,23.558615,1019.735178
          120.605855,23.55862,1019.280306
          120.605852,23.558618,1019.211005
          120.60585,23.558623,1018.848935
          120.605849,23.558632,1019.752983
          120.60585,23.558643,1019.653446
          120.605848,23.558626,1019.2362
          120.605848,23.558633,1021.312429
          120.605851,23.55862,1020.345982
          120.605851,23.558632,1020.533792
          120.605844,23.558623,1020.285356
          120.605847,23.558637,1020.5067
          120.60583,23.558628,1020.025382
          120.605859,23.55865,1018.184645
          120.605846,23.558634,1016.99949
          120.605843,23.55864,1016.280172
          120.60585,23.558634,1017.886275
          120.60584,23.558619,1020.035872
          120.605849,23.558628,1022.12465
          120.605854,23.55864,1022.8886
          120.605847,23.558634,1022.111808
          120.605846,23.558633,1022.308393
          120.605836,23.558633,1021.9608
          120.605827,23.558623,1021.165775
          120.605823,23.558635,1020.817311
          120.605822,23.558619,1019.724361
          120.605827,23.558602,1020.115604
          120.605828,23.558582,1020.228238
          120.605799,23.558554,1019.433586
          120.605804,23.558542,1020.627152
          120.60581,23.55853,1021.470754
          120.605798,23.558541,1022.653643
          120.605813,23.558554,1022.812683
          120.605806,23.558564,1023.001287
          120.605798,23.558561,1022.323227
          120.605795,23.558546,1021.603537
          120.605788,23.55855,1021.745042
          120.60578,23.558546,1020.586221
          120.605802,23.55854,1021.314846
          120.605804,23.558545,1022.577376
          120.605807,23.55855,1023.353286
          120.6058,23.558556,1022.345238
          120.605786,23.558561,1019.363385
          120.605777,23.558561,1019.118225
          120.605781,23.558568,1018.646782
          120.605781,23.558578,1019.324011
          120.605793,23.558568,1020.151765
          120.605783,23.558565,1020.375308
          120.605792,23.558562,1021.924001
          120.605794,23.558554,1022.320518
          120.605793,23.558554,1022.720892
          120.605771,23.558545,1021.5531
          120.605771,23.558528,1019.972972
          120.605774,23.558472,1018.373413
          120.605776,23.558506,1019.206968
          120.605779,23.558518,1019.039501
          120.605759,23.558515,1019.685182
          120.605754,23.558526,1019.246271
          120.605766,23.558514,1019.832
          120.605759,23.558499,1020.278983
          120.605752,23.558483,1020.836733
          120.605723,23.558467,1020.18438
          120.605682,23.558451,1021.778814
          120.605646,23.558446,1022.06827
          120.605591,23.558448,1022.040753
          120.605589,23.558462,1023.027883
          120.60556,23.558451,1021.840726
          120.605556,23.558438,1021.304865
          120.605543,23.558417,1023.676131
          120.605518,23.558397,1023.67394
          120.605479,23.558391,1023.15277
          120.605445,23.558389,1022.200367
          120.605439,23.558392,1022.901332
          120.605406,23.558388,1021.935786
          120.605354,23.558385,1022.253576
          120.60532,23.558382,1023.167354
          120.605286,23.558403,1024.921398
          120.60524,23.558423,1025.152658
          120.60523,23.55841,1025.679567
          120.605218,23.558416,1024.367119
          120.605217,23.55842,1023.560513
          120.60523,23.558425,1023.041372
          120.605237,23.558432,1022.482425
          120.605244,23.558426,1023.35903
          120.60523,23.55842,1022.152283
          120.605224,23.558419,1021.895823
          120.605242,23.558417,1021.36232
          120.60525,23.558413,1024.726729
          120.605253,23.558412,1025.249915
          120.605248,23.558417,1025.00474
          120.605232,23.558437,1023.963777
          120.60521,23.558427,1022.964984
          120.605202,23.558426,1021.677533
          120.605198,23.558428,1021.544357
          120.605197,23.55841,1021.05452
          120.605199,23.558416,1021.51349
          120.605214,23.558433,1020.639506
          120.605227,23.558419,1021.269753
          120.605236,23.558421,1022.097853
          120.605237,23.558436,1022.372146
          120.605234,23.558442,1021.196815
          120.605206,23.558466,1020.528835
          120.605214,23.558456,1020.545693
          120.605213,23.55848,1019.613225
          120.605212,23.558486,1020.26252
          120.605227,23.558471,1020.993365
          120.605225,23.558448,1021.24246
          120.605199,23.558446,1021.942833
          120.6052,23.558447,1020.71875
          120.605199,23.558456,1020.548263
          120.605199,23.558446,1020.38497
          120.605211,23.558431,1020.734874
          120.605211,23.558427,1020.577469
          120.60523,23.558408,1020.720958
          120.605234,23.558433,1021.940723
          120.605236,23.558426,1022.127674
          120.605247,23.558426,1022.547781
          120.605245,23.558427,1023.665373
          120.605257,23.558422,1023.687937
          120.605273,23.55842,1024.543014
          120.605275,23.55842,1025.34413
          120.60528,23.558424,1025.775002
          120.605285,23.558411,1024.032927
          120.605279,23.558427,1024.477252
          120.60527,23.55843,1022.654504
          120.605268,23.558422,1021.651702
          120.605293,23.558427,1023.521669
          120.605311,23.558427,1022.698558
          120.605316,23.558437,1023.519268
          120.605329,23.558425,1023.281958
          120.605332,23.558434,1023.625004
          120.605334,23.558428,1023.109836
          120.605335,23.558418,1023.053877
          120.605315,23.5584,1024.170939
          120.60531,23.558388,1024.843408
          120.605313,23.558393,1025.677212
          120.605307,23.558399,1025.841295
          120.605311,23.5584,1025.662845
          120.605316,23.558404,1025.091336
          120.605309,23.558405,1025.394493
          120.605314,23.558402,1023.927301
          120.605307,23.558402,1024.074595
          120.60531,23.55841,1025.036222
          120.605305,23.558405,1024.939117
          120.605312,23.558403,1025.633067
          120.605321,23.558401,1025.458199
          120.605317,23.558392,1026.101929
          120.605322,23.558397,1025.681858
          120.605322,23.558394,1025.432583
          120.605317,23.558398,1025.305564
          120.605299,23.558409,1023.788016
          120.605273,23.558427,1023.520964
          120.605243,23.558449,1023.852645
          120.605225,23.558475,1021.488099
          120.605205,23.558492,1019.767232
          120.60517,23.558487,1019.394858
          120.605137,23.558497,1018.221943
          120.605085,23.558513,1020.231275
          120.605049,23.558525,1019.975292
          120.605031,23.558544,1019.075335
          120.604996,23.558579,1019.907059
          120.604982,23.55857,1019.606847
          120.604966,23.5586,1019.3412
          120.604944,23.558604,1018.753826
          120.604915,23.558613,1019.961251
          120.604897,23.558615,1017.763142
          120.60489,23.558634,1016.911607
          120.604855,23.558636,1016.556734
          120.604859,23.558643,1016.348163
          120.604865,23.558649,1016.973648
          120.604885,23.55865,1017.887583
          120.604893,23.55865,1019.2446
          120.6049,23.558652,1018.827438
          120.604929,23.55864,1019.062438
          120.604934,23.55863,1018.575004
          120.604944,23.558643,1018.320011
          120.604937,23.558639,1017.893618
          120.604951,23.558628,1018.84666
          120.604921,23.558593,1020.076551
          120.604918,23.558602,1021.064628
          120.604912,23.558608,1021.824224
          120.604907,23.558604,1022.157444
          120.604902,23.558589,1023.177936
          120.604892,23.558583,1023.364698
          120.604893,23.55859,1021.850689
          120.604895,23.5586,1021.379666
          120.604896,23.558617,1019.412668
          120.604894,23.558634,1018.356344
          120.604873,23.558633,1016.435983
          120.604852,23.558639,1015.123112
          120.604834,23.558663,1014.782925
          120.604791,23.558662,1014.953312
          120.604754,23.558675,1015.059127
          120.604729,23.558683,1013.768606
          120.604712,23.558673,1013.928036
          120.604671,23.558689,1014.928932
          120.60465,23.558697,1014.398372
          120.604618,23.558698,1013.331195
          120.604594,23.558699,1013.985823
          120.604575,23.558705,1012.51417
          120.604569,23.558708,1012.221075
          120.604556,23.558712,1012.682069
          120.604557,23.558717,1012.069298
          120.60456,23.558711,1011.2797
          120.604544,23.558732,1010.348329
          120.604528,23.558748,1010.621325
          120.604515,23.558721,1010.2436
          120.604502,23.558724,1010.312528
          120.604493,23.558738,1011.26913
          120.604501,23.55875,1011.223868
          120.604467,23.558753,1010.545272
          120.604472,23.558766,1009.217264
          120.60447,23.558749,1008.812591
          120.604461,23.558748,1008.35577
          120.604447,23.558759,1007.651013
          120.604437,23.558751,1006.449222
          120.604448,23.558728,1006.871169
          120.604427,23.558749,1006.797817
          120.604416,23.558761,1006.99624
          120.604419,23.558757,1006.818223
          120.60442,23.55877,1006.651287
          120.604406,23.558758,1006.699725
          120.604389,23.558774,1006.458108
          120.604367,23.558796,1005.911615
          120.604349,23.558812,1004.957851
          120.60433,23.558817,1005.3924
          120.604327,23.558836,1005.614199
          120.604312,23.558854,1003.783953
          120.604298,23.558878,1004.06503
          120.604285,23.558886,1002.892048
          120.604287,23.558911,1001.935266
          120.604267,23.558935,1001.835065
          120.60425,23.558956,1001.007372
          120.604235,23.558992,999.852042
          120.604234,23.559013,999.285102
          120.604216,23.559029,998.033119
          120.60419,23.559047,998.077072
          120.60416,23.559069,997.123031
          120.604145,23.559088,996.786911
          120.604132,23.559093,995.860341
          120.604123,23.55911,995.737125
          120.604108,23.559118,996.030968
          120.604094,23.559147,995.664053
          120.604073,23.55916,994.661788
          120.604065,23.559168,993.885998
          120.604062,23.559179,993.373131
          120.604064,23.559189,993.294142
          120.604044,23.559202,993.56567
          120.604035,23.559211,993.840273
          120.604029,23.55922,992.593642
          120.604013,23.559236,991.968818
          120.604007,23.559248,991.099432
          120.604,23.559249,990.223125
          120.603992,23.559266,989.722724
          120.603981,23.559282,989.18725
          120.60398,23.559297,989.659359
          120.603976,23.559307,989.300358
          120.603984,23.559307,990.239029
          120.603985,23.559302,990.626742
          120.603994,23.559295,991.024616
          120.603996,23.559304,990.869356
          120.603976,23.559314,989.733544
          120.60396,23.559324,988.952267
          120.603945,23.559342,987.791634
          120.603934,23.559351,987.150642
          120.603927,23.559355,987.800874
          120.603909,23.55936,986.721889
          120.603916,23.559391,986.438015
          120.603901,23.559404,985.829
          120.603868,23.559404,985.212421
          120.603848,23.559414,984.622755
          120.603835,23.559413,985.875901
          120.603836,23.559427,987.663108
          120.603834,23.559435,988.684894
          120.603837,23.55944,988.324136
          120.603825,23.559442,987.666582
          120.603798,23.55943,986.148388
          120.603778,23.559418,984.619554
          120.603777,23.559408,984.01843
          120.603758,23.5594,983.419055
          120.603744,23.559396,983.005257
          120.603723,23.559386,983.088968
          120.603703,23.559377,982.528252
          120.603685,23.55938,982.122276
          120.603677,23.559372,980.919357
          120.603662,23.559354,980.088486
          120.603641,23.559346,980.433054
          120.603618,23.559348,981.467274
          120.603611,23.55934,980.699631
          120.603593,23.559321,980.869444
          120.603573,23.559307,980.602379
          120.603567,23.559316,981.195612
          120.603562,23.559333,980.894293
          120.603564,23.559316,979.329963
          120.603537,23.559303,977.973688
          120.603516,23.55929,977.567866
          120.603476,23.559254,976.724955
          120.603472,23.559271,976.859188
          120.603472,23.559274,977.942401
          120.603434,23.559256,978.346207
          120.603392,23.559227,978.577824
          120.603333,23.559245,976.935598
          120.603343,23.559261,980.911851
          120.603334,23.559265,981.464703
          120.603321,23.559289,980.222081
          120.603296,23.559333,978.898892
          120.603328,23.559354,976.710719
          120.603325,23.559351,975.753398
          120.603314,23.559353,976.046486
          120.603315,23.559364,975.839294
          120.603328,23.55938,975.443241
          120.603338,23.559379,974.875369
          120.603347,23.559375,975.251742
          120.603361,23.55936,975.803644
          120.603352,23.559328,976.341317
          120.603336,23.559313,976.886873
          120.603322,23.559298,977.31052
          120.603279,23.559357,978.493824
          120.603275,23.559357,976.949092
          120.603303,23.559368,975.026112
          120.603315,23.559356,974.31548
          120.603316,23.55936,974.362103
        </coordinates>
      </LineString>
    </Placemark>
    <Placemark>
      <name>步道出入口</name>
      <description>一抹紅趣藝術裝置海拔高度：974 公尺</description>
      <ExtendedData>
        <Data name="icon"><value>map-pin</value></Data>
        <Data name="color"><value>#3b82f6</value></Data>
      </ExtendedData>
      <Point>
        <coordinates>120.60332,23.55936,0</coordinates>
      </Point>
    </Placemark>
    <Placemark>
      <name>步道出入口</name>
      <description>竹林茶坊</description>
      <ExtendedData>
        <Data name="icon"><value>map-pin</value></Data>
        <Data name="color"><value>#3b82f6</value></Data>
      </ExtendedData>
      <Point>
        <coordinates>120.60599,23.56081,0</coordinates>
      </Point>
    </Placemark>
    <Placemark>
      <name>洗手間</name>
      <description></description>
      <ExtendedData>
        <Data name="icon"><value>wc</value></Data>
        <Data name="color"><value>#10b981</value></Data>
      </ExtendedData>
      <Point>
        <coordinates>120.60597363904026,23.56084187867306,0</coordinates>
      </Point>
    </Placemark>
    <Placemark>
      <name>太平吊橋</name>
      <description></description>
      <ExtendedData>
        <Data name="icon"><value>map-pin</value></Data>
        <Data name="color"><value>#3b82f6</value></Data>
      </ExtendedData>
      <Point>
        <coordinates>120.60540170025251,23.559857696101147,0</coordinates>
      </Point>
    </Placemark>
    <Placemark>
      <name>步道出入口</name>
      <description>一抹紅趣藝術裝置海拔高度：974 公尺</description>
      <ExtendedData>
        <Data name="icon"><value>map-pin</value></Data>
        <Data name="color"><value>#eab308</value></Data>
      </ExtendedData>
      <Point>
        <coordinates>120.603316,23.55936,0</coordinates>
      </Point>
    </Placemark>
    <Placemark>
      <name>涼亭</name>
      <description>往大巃頂</description>
      <ExtendedData>
        <Data name="icon"><value>star</value></Data>
        <Data name="color"><value>#3b82f6</value></Data>
      </ExtendedData>
      <Point>
        <coordinates>120.60531833571832,23.558425485817097,0</coordinates>
      </Point>
    </Placemark>
    <Placemark>
      <name>太平國小</name>
      <description></description>
      <ExtendedData>
        <Data name="icon"><value>star</value></Data>
        <Data name="color"><value>#3b82f6</value></Data>
      </ExtendedData>
      <Point>
        <coordinates>120.60633608069037,23.561312245293337,0</coordinates>
      </Point>
    </Placemark>
  </Document>
</kml>