<?xml version="1.0" encoding="UTF-8"?>
<kml xmlns="http://www.opengis.net/kml/2.2">
  <Document>
    <name>瑞里-青年嶺步道</name>
    <Placemark>
      <name>路線軌跡</name>
      <LineString>
        <tessellate>1</tessellate>
        <coordinates>
          120.6559058,23.5317338,875
          120.6559349,23.5317336,894.334716796875
          120.65595194146879,23.53172994882229,875
          120.65603388651691,23.531742382541278,876
          120.65609452708267,23.531747297717658,876
          120.65614658105729,23.531756589199055,876
          120.6562039500923,23.531765505269984,876
          120.6562675492554,23.53176879254531,870
          120.65634108108111,23.531769244224893,870
          120.6564186107918,23.531754617584806,870
          120.65642700318965,23.531776100510726,870
          120.65645851909679,23.53180233329763,853
          120.65651270918579,23.531824293572683,847
          120.65656051124488,23.53183338130519,847
          120.65661279239495,23.531808008029394,856
          120.65666967059647,23.531752406834205,856
          120.65669844674801,23.531697643825893,856
          120.65670846116636,23.531654618806822,856
          120.65666275094685,23.53158831185686,856
          120.65667514893573,23.53160852135505,856
          120.65667676146434,23.531641097505258,856
          120.65665835477655,23.531680488706805,856
          120.65662715669558,23.531721883398646,847
          120.65655769930828,23.53180918218296,853
          120.65658434929225,23.531864205566453,847
          120.65663354782923,23.53193742864677,847
          120.6566862882068,23.531982032745443,847
          120.65675452305553,23.53201428997431,840
          120.65681897150105,23.532049370025938,822
          120.65684768941294,23.532104794405054,822
          120.65701660933857,23.53206813589942,831
          120.65712352830279,23.532026972339363,831
          120.65715057679567,23.53198333469523,831
          120.65721388262641,23.531865100512356,831
          120.65724863430445,23.531822021391935,830
          120.65728247894715,23.53179622791313,830
          120.65733020133374,23.53179928759772,819
          120.65739620737642,23.53181902994989,816
          120.65748559858508,23.531833556020413,816
          120.65737005290147,23.531857866359445,831
          120.65733208933091,23.53184608369951,831
          120.65733981985568,23.53185067990106,831
          120.65734468243024,23.53190388379977,831
          120.65735545053847,23.531944682192066,816
          120.65736474698872,23.531992238650513,816
          120.65737150397185,23.532052436211764,812
          120.65738108923419,23.532119975104095,812
          120.65739867547778,23.53217168518424,812
          120.65741930701155,23.532228268720086,812
          120.65744552162694,23.532271625796295,812
          120.65748570955925,23.53230326498084,812
          120.65753752640107,23.532347613226907,806
          120.65756593913036,23.532419294859732,806
          120.65754495520989,23.532473027690173,806
          120.65749829276531,23.532507765348424,806
          120.65745281217764,23.532530366243055,806
          120.65741732786088,23.532569035692607,806
          120.65738145373693,23.532621564762543,813
          120.657387857139,23.532612684208832,806
          120.65739351117661,23.532567421339696,806
          120.65738191705752,23.53259899968169,806
          120.65736296181817,23.532628857415183,813
          120.65734959077828,23.53267669286915,813
          120.6573261480554,23.532698882866047,813
          120.65731220649796,23.53273365019658,813
          120.6572814752508,23.532748086828423,813
          120.65724440968435,23.532768578370217,813
          120.65723278362626,23.532813379187232,813
          120.65719814038444,23.532868537388953,813
          120.65714080146621,23.532892739465396,813
          120.65711599577578,23.532928949933318,834
          120.65708941905521,23.532981860034624,819
          120.65706027347161,23.533038508181555,819
          120.65704269533771,23.533085999005436,819
          120.6570530424033,23.533134495260196,819
          120.65702969081532,23.533202485853693,847
          120.65698357976828,23.533226484430514,847
          120.65692497594115,23.533278113775758,847
          120.65688490176083,23.533299552858015,847
          120.6568339858964,23.533335205074522,847
          120.65680706535733,23.533379935501998,835
          120.6567876819057,23.533436336898806,835
          120.65678159938497,23.533494768443074,838
          120.65679352450445,23.533547817784036,838
          120.65679619537119,23.53360404162013,838
          120.65678561750188,23.533662466925183,838
          120.65678797995135,23.533607930554332,838
          120.65678689021348,23.533606506740703,838
          120.65678220213633,23.53359518803006,838
          120.65682146055744,23.533610108233958,854
          120.65687740733831,23.533641569855927,854
          120.65693974124065,23.533639419610097,854
          120.65699830442894,23.533655999351762,854
          120.65705292102881,23.53366218060022,854
          120.65711417421906,23.5336395036439,861
          120.6571765156654,23.533615356670765,861
          120.65721675385383,23.533638431785533,861
          120.65726908680567,23.533676689495564,861
          120.65727455045051,23.533725442338273,861
          120.65731058085609,23.533769469038766,854
          120.65729820977212,23.533821338476855,854
          120.65725633802032,23.533824496329302,854
          120.65718791330605,23.533835883387894,854
          120.65714550235475,23.533832209290843,854
          120.65709829573426,23.533826531111753,846
          120.65711284074098,23.533842068471575,854
          120.6571305155265,23.533858328249313,854
          120.65707169400694,23.533827579800306,846
          120.65706138932264,23.53382625920494,846
          120.65707924149555,23.53387822126492,854
          120.65712157422114,23.533939640967155,854
          120.6571729516567,23.533978454662037,854
          120.65722415516935,23.534021676968194,842
          120.6572714557014,23.534040210405376,842
          120.65733092249639,23.53403864991361,842
          120.65739013057478,23.534027532549356,858
          120.65744148375312,23.534008036349448,858
          120.6575080326904,23.53400248934788,858
          120.65757244845852,23.534000842457804,858
          120.65761917043156,23.534031355611813,841
          120.65769437641887,23.534020323808342,855
          120.65773955642683,23.534019200845243,855
          120.65773955642683,23.534019200845243,855
          120.65773955642683,23.534019200845243,855
          120.6577769901921,23.533968282224198,855
          120.65782787255081,23.533936766831292,855
          120.65787674849612,23.533901067423706,855
          120.65790552990308,23.53386826801014,845
          120.65793333360588,23.533815145167736,845
          120.65800335744926,23.533780661462252,845
          120.65806106002937,23.533725252771113,857
          120.65808922341996,23.533758931364943,845
          120.65810681631983,23.533793385266243,845
          120.658121526253,23.53383206977688,845
          120.65812899288748,23.533890585516808,845
          120.65813166035471,23.533984775793414,845
          120.65813692284183,23.53404778907915,833
          120.65815677701656,23.53409700985455,833
          120.65822416811483,23.5340949344603,821
          120.65828298669986,23.534085005201494,821
          120.65832857322953,23.534050510140066,833
          120.65837506543008,23.534019650314136,833
          120.65840649443545,23.533969845498472,833
          120.65845336129489,23.53391760868248,820
          120.65841897727607,23.533952415295186,833
          120.65835178857019,23.534008475975483,821
          120.65827277198,23.534072487584563,821
          120.65820386862251,23.534135273126914,833
          120.65815824588354,23.534195923973265,833
          120.65811886182449,23.534254130851334,833
          120.65819921802719,23.534243748871894,821
          120.65827989600075,23.53423558685893,821
          120.65832375395543,23.53424104062724,821
          120.65846791025794,23.534239140717624,807
          120.65849281627412,23.534276434346108,807
          120.65853159607975,23.534278498467305,807
          120.65856208316022,23.534266680507095,807
          120.65862984785686,23.534220204533028,807
          120.6587283780668,23.534171580576505,789
          120.65878171883719,23.53416334790553,789
          120.6587927374817,23.534138870877022,789
          120.65881561970056,23.534077888429703,789
          120.65885391119252,23.534030154793427,804
          120.65890819344833,23.533987199232467,804
          120.65895663139923,23.533947207193798,804
          120.65901126254738,23.533923203479674,791
          120.65907847384362,23.533909683325376,791
          120.6591561772511,23.53390166597755,791
          120.65922266353869,23.533892286089152,791
          120.65927822506747,23.533887330350275,787
          120.65933105137465,23.53388049117013,787
          120.65938810750426,23.533902292138183,787
          120.65944482095767,23.533935777587036,787
          120.65949485716531,23.53397403478646,787
          120.65950889425103,23.534022891477363,766
          120.659544119725,23.534056956116828,766
          120.65960211692696,23.534082808370016,763
          120.65964288568276,23.53411935512386,763
          120.65967848098846,23.5341516376047,763
          120.65972641695923,23.534165341041913,763
          120.65978337046093,23.53417290230261,763
          120.65982840881354,23.53414591260318,763
          120.65985588596827,23.534107597296725,753
          120.65987356323738,23.534040057263393,773
          120.65987599751226,23.533991479098052,773
          120.65987732669724,23.533929293067427,773
          120.65989267780367,23.53389604955199,773
          120.65995604892119,23.533827876522597,773
          120.66000608401033,23.53380599513509,773
          120.66005738780466,23.533800154866867,773
          120.66010127514532,23.533818954559354,773
          120.66016214312263,23.533845513992365,773
          120.66022289638853,23.533880198883324,773
          120.66024068664188,23.533894305364797,773
          120.66033844778762,23.53398843960871,773
          120.66038131132868,23.53401679823412,750
          120.66043991293586,23.534062303546566,752
          120.66047313661711,23.53408399235995,752
          120.66053625031545,23.534110087827763,752
          120.66061312055527,23.534131236631534,752
          120.6606637822631,23.5341329645661,756
          120.6607077100931,23.534122033723097,756
          120.66078959798254,23.5341312109312,756
          120.66086991823902,23.534151668311278,756
          120.66091977277033,23.534168430727586,756
          120.6609783470477,23.534182911615783,762
          120.66105055468898,23.534202618878712,762
          120.66111628731554,23.534205614520463,762
          120.661176814671,23.53420230870641,762
          120.66123807135064,23.534198639013898,767
          120.66130091102396,23.5342184107217,767
          120.66131060769087,23.534231654296853,767
          120.66135126818286,23.534295940001368,746
          120.66141627959165,23.534343903355072,746
          120.66147761509592,23.534350953447383,746
          120.66153219544293,23.534347371988055,741
          120.66157299780039,23.534316127440047,768
          120.66159828598067,23.534213736582274,768
          120.6616707807127,23.534201828613707,768
          120.66172062352358,23.53421004911257,768
          120.66182633862833,23.53422868398691,772
          120.66189204129796,23.53423807441193,772
          120.6619580397543,23.534280880769536,772
          120.66201137417286,23.53430455658923,744
          120.66205256994795,23.534339098820798,744
          120.66208503834069,23.534396756575113,752
          120.66211813912457,23.53443938662706,752
          120.66215820851049,23.534470134311288,752
          120.66218789850063,23.534515576383647,752
          120.66224308389418,23.534539586238616,752
          120.6622906069221,23.53457062249124,722
          120.66232897942358,23.534604383158207,722
          120.66237835362809,23.5346406758509,726
          120.662423473616,23.53466347369774,726
          120.66248637980333,23.534696097478943,726
          120.66255439100905,23.53473260388838,726
          120.66260496038733,23.534732471717607,726
          120.66266129422468,23.53471813454889,725
          120.66272527380485,23.534701914858235,725
          120.66279130652356,23.534685681483868,725
          120.6628355843589,23.534662658648465,725
          120.66289208544937,23.534627492793632,723
          120.66294791898282,23.534612216993953,723
          120.66301062143151,23.534629353493006,723
          120.66305405094107,23.534652999278826,723
          120.66312280996831,23.534673569202383,723
          120.66318309578743,23.53467459813934,723
          120.6632395600924,23.53469675786295,723
          120.66328861478725,23.53472207366249,723
          120.66330813055944,23.534732549679738,723
          120.663365061562,23.53477912577391,723
          120.6634305440416,23.534805933273386,723
          120.66349922786357,23.534825562186228,725
          120.66355930925711,23.53485204802255,693
          120.66360061747704,23.534881183073427,693
          120.66363735162369,23.534897328601794,693
          120.66370102301563,23.53491151797147,691
          120.6637690753694,23.534907501601765,691
          120.6638478975838,23.53490048979398,691
          120.66391719981519,23.534888557886095,691
          120.6639687428724,23.5348475469619,721
          120.66401821412728,23.534824772335778,705
          120.66407451834452,23.534811554744426,705
          120.6640786502268,23.534831867333764,687
          120.66409154800253,23.53487349812264,687
          120.66412493460496,23.534920109990306,687
          120.66419459045329,23.534966075896406,687
          120.66422402377876,23.534948217839393,687
          120.66426327550838,23.534917446388693,687
          120.66432577060411,23.534865837251402,692
          120.66437308528509,23.53483588879991,692
          120.66441613646283,23.534807457672628,692
          120.66445843233241,23.53476757042991,692
          120.66450078718171,23.534750687324124,692
          120.6645716794946,23.53474908995248,687
          120.66462626776949,23.534745804649095,687
          120.66467887456301,23.53474328744854,687
          120.66473752133524,23.534763082388064,687
          120.66478524802665,23.53472561169833,687
          120.6648054538235,23.5346845877372,687
          120.66482305608346,23.53465215976791,687
          120.66486968386165,23.53459007073026,716
          120.66492710840443,23.53461398882552,684
          120.66497268402122,23.534649030223356,684
          120.66500914320724,23.53466059865439,684
          120.66509856115384,23.534689172145878,684
          120.6651552515078,23.534684196760214,685
          120.66520611655062,23.534711844335465,685
          120.66524940357446,23.534760788143863,685
          120.66527024209044,23.53479384430613,685
          120.66529087243374,23.53483307401646,694
          120.66533091327935,23.534889605429004,694
          120.66537234479341,23.53491580317145,694
          120.66536377637725,23.534944457100988,694
          120.66533494871858,23.534959786057073,694
          120.66527366065681,23.53498420272881,694
          120.66519479538614,23.53501804941095,694
          120.66524077238361,23.535041318315844,694
          120.66520681967629,23.535067544726815,694
          120.66518565581926,23.535083123881684,694
          120.66515698263663,23.535071176474084,688
          120.66510427131173,23.535039364936292,688
          120.66504652346931,23.53501606350601,688
          120.6649932227455,23.535000538874325,688
          120.6649451091229,23.534987243968484,690
          120.66489152895743,23.53496732503856,690
          120.66484511649195,23.534923482204487,687
          120.66481798052403,23.53487908030528,687
          120.6647955571135,23.534834309900436,687
          120.66476246547869,23.534808208313645,687
          120.6647297420066,23.534802318442548,687
          120.66469825370669,23.534808665331116,687
          120.66466315159431,23.534823590260878,689
          120.66460739251079,23.53486805646752,689
          120.66452651195559,23.534899644558802,689
          120.66446441725476,23.5349115036969,689
          120.66453973160552,23.53499547021253,723
          120.66460502275064,23.535075515640727,723
          120.66463429157344,23.5351563394238,723
          120.66464979615724,23.53523617521458,723
          120.66465014246594,23.53530564125817,723
          120.66462986294657,23.535342220553563,723
          120.66462391477411,23.535340212104355,722
          120.66459594575349,23.535310665296574,687
          120.66455978568783,23.535241711732127,692
          120.66452697562949,23.535165301620225,692
          120.66448887955809,23.535111955289022,705
          120.66440353912398,23.535031228231944,687
          120.66435370822637,23.53500534825941,687
          120.66432713248544,23.53501754654651,687
          120.66430817628103,23.53505810521667,687
          120.6642830568244,23.535054845132187,687
          120.6642113352855,23.53506859028983,687
          120.66416925378778,23.535088558166986,687
          120.66410675424729,23.535075690588727,687
          120.66409521535492,23.535086346871974,687
          120.66400394087772,23.53514839971689,702
          120.66399484093195,23.53513126329109,691
          120.66396560308968,23.535072267216126,691
          120.66395306258538,23.53507908195022,691
          120.6638952622146,23.535122677504116,702
          120.66379928036542,23.53518359031274,696
          120.66376496675724,23.535221161384815,696
          120.66370985248038,23.5352813685629,696
          120.66363960761012,23.535302910772437,696
          120.66359258636203,23.53529620289786,696
          120.66354112788514,23.535295535614242,696
          120.66348725237759,23.535310400271968,692
          120.66344287598417,23.535335809510254,692
          120.66340798148352,23.53537290525607,712
          120.66336640800743,23.535414532189805,712
          120.66332107532904,23.53545292275984,712
          120.66327010884747,23.535481430758736,712
          120.66317376407139,23.5355224836357,709
          120.66316727897609,23.535560394033666,709
          120.66316811452096,23.53560931813506,709
          120.66314859650191,23.53565626744515,709
          120.66312017773693,23.535701016397798,746
          120.66307657265088,23.53577306548113,746
          120.66304668005614,23.535755393199555,746
          120.66301421021932,23.535701136518636,709
          120.66301231175989,23.53569817635531,709
          120.66300457652878,23.53564069921714,709
          120.66302713200581,23.535642190505843,709
          120.66301306006334,23.53563274527309,709
          120.66303635052768,23.535658835370608,709
          120.66303217217144,23.535710817296664,746
          120.66305049161848,23.53573723275545,746
          120.66305644143004,23.535723809842164,746
          120.66305644143004,23.535723809842164,746
          120.66305644143004,23.535723809842164,746
          120.66300581423849,23.53570291995424,746
          120.66297154391408,23.535706840275836,746
          120.66298013759925,23.535683700982787,709
          120.66293530845766,23.535665439875192,709
          120.66290568056591,23.535672366888328,696
          120.66285539493339,23.535694150479884,736
          120.66276168017654,23.535737117310628,736
          120.66269445935548,23.535772617216963,736
          120.66263426140449,23.53580956167412,725
          120.66258544672151,23.535840821523703,725
          120.66253750343594,23.535888539178266,725
          120.66248953409453,23.535921794085446,725
          120.66245045563225,23.535959646942505,757
          120.6624116229941,23.536002997554185,757
          120.66235684699414,23.53602528184434,748
          120.66228525611437,23.53604335124472,748
          120.66222853319545,23.53606787391008,748
          120.6621739979473,23.536089650518203,748
          120.66211195318522,23.536098785258194,739
          120.6620530226561,23.536096750836602,739
          120.66200580368067,23.53607488495112,739
          120.66192462815776,23.53603722320337,739
          120.66188108615232,23.536018259791284,739
          120.66183400538198,23.536000759308088,731
          120.66178629136023,23.535984548300895,694
          120.66173019486335,23.53598377513546,731
          120.66166482057689,23.53598061451344,731
          120.66158997624868,23.53596980473547,694
          120.6615131324103,23.53596584386965,693
          120.66145270533418,23.535975797453517,720
          120.66139729605135,23.5360034691534,720
          120.66135569364805,23.53604303761866,720
          120.6613159697824,23.5360892414538,720
          120.6613076413555,23.536152020092725,720
          120.66132693591942,23.53620560592776,720
          120.66133248056789,23.536220314000612,731
          120.66139345836275,23.536277524971506,731
          120.66145006828823,23.536303078524192,731
          120.66149311416608,23.536347740338076,731
          120.6615603237593,23.536371556998613,758
          120.66161310086855,23.536390464030223,758
          120.6616397488265,23.53643470520402,758
          120.66166777791983,23.53647982536391,758
          120.66172669113969,23.536478765646805,758
          120.66176636450393,23.53645947727211,758
          120.66180826913187,23.53642762327093,771
          120.66185092350234,23.536384489692455,771
          120.66189639742745,23.53634669130785,771
          120.66191825562895,23.5362980166837,771
          120.66188187160559,23.536302447709648,771
          120.66187402416101,23.536340097006125,771
          120.66185369251012,23.536403212252434,771
          120.66185659121889,23.53646831121142,771
          120.66188654719939,23.536506864005332,771
          120.66192221151677,23.53654211907961,787
          120.66196378372176,23.536566269141318,787
          120.66201801340944,23.53659086913575,787
          120.66208044102149,23.53662126433126,799
          120.66215381771069,23.536667271929613,799
          120.66213116074546,23.53664781087884,799
          120.66216112481095,23.53660308613771,799
          120.66216173099326,23.536633991557824,799
          120.66212127276381,23.536770992586327,809
          120.66211063511592,23.536800831322807,809
          120.6621301333072,23.536804452835682,809
          120.66213531990402,23.5368305729441,809
          120.6621696421578,23.536831962465147,809
          120.66221256131081,23.536821548311075,809
          120.66227391183445,23.536803703841944,799
          120.66234447564005,23.536799784369215,805
          120.66239840575889,23.53683223937933,823
          120.66244594259489,23.536826529562777,823
          120.66246317767575,23.536779135805336,805
          120.66248886873288,23.53680514376312,823
          120.66250627903396,23.536852197704253,823
          120.66246665523421,23.536941531704528,823
          120.66242390825663,23.537015351974834,823
          120.66237296255323,23.53703727517665,809
          120.6623961959908,23.537012337169223,823
          120.6624315478096,23.536985156209422,823
          120.66248465238951,23.536968012727588,823
          120.66251399268214,23.537001978543294,823
          120.66255882981885,23.537058448389722,823
          120.6625848401511,23.537094311348174,834
          120.6625980391871,23.537138459042417,834
          120.66264404168521,23.537160689975714,859
          120.66268996466613,23.53720673442032,859
          120.66275663137854,23.53721421099895,859
          120.66280397361449,23.53724217682692,859
          120.66283384510378,23.537268165152582,859
          120.66289184724911,23.53724794801872,889
          120.66302385117321,23.537210325643635,889
          120.66304638715067,23.537222850551604,889
          120.66312008310746,23.537288945824614,889
          120.66318471437204,23.53729443146784,889
          120.66321350244733,23.537278680621867,894
          120.66326151567267,23.53724906558128,894
          120.6633139254017,23.537259175908755,894
          120.66334733001436,23.537301504221904,894
          120.66335113788077,23.537346999212726,910
          120.66331118257867,23.53737440518392,910
          120.66327875627445,23.537405048756806,910
          120.66326202710569,23.537446404592043,910
          120.66326147608929,23.537502624696323,910
          120.66327776618508,23.537585029716155,910
          120.66323191628001,23.53761631283386,910
          120.66317191605029,23.537623082711303,900
          120.66321832755365,23.537635633894098,910
          120.66322157832691,23.537672287522007,922
          120.66325666467068,23.537701131622725,922
          120.66330266505385,23.537725069975227,922
          120.66335531894279,23.53773008351629,922
          120.66341266630383,23.53775658312172,922
          120.6634718744749,23.537781825479918,936
          120.66348595600047,23.53784011164997,936
          120.66349170828313,23.53789286991853,936
          120.663498895173,23.537935977792117,950
          120.66354385081455,23.537977458503757,950
          120.66358916018235,23.538008595360008,950
          120.66366828907728,23.53801994000924,950
          120.66372191327119,23.53801512373644,966
          120.66380560223438,23.537997456174445,966
          120.66386943772909,23.537970896083326,966
          120.66390491347491,23.537968960136073,966
          120.66390215969531,23.537999386562095,966
          120.66389543125504,23.53805965044787,966
          120.66392480732682,23.538096606351438,966
          120.66393671751554,23.538153714668464,966
          120.66390995589391,23.538195780337723,985
          120.6639387655496,23.5382425334329,985
          120.66388734588296,23.538221239887395,985
          120.66382771073741,23.538244015471214,985
          120.66381403715995,23.538285464804495,985
          120.66380903397247,23.538326963624893,985
          120.66380485768894,23.538378930500873,985
          120.66381854381923,23.538449333625547,1005
          120.66385743053507,23.538483287046585,1005
          120.66391621624982,23.538503607222903,1005
          120.66395317708462,23.538544628811504,1005
          120.66398944779084,23.53855196296682,1016
          120.6640601239612,23.538557104682717,1016
          120.66409728300255,23.538587408743762,1016
          120.66408050320689,23.538626009701275,1016
          120.6640392276322,23.538663008673286,1005
          120.6640065891701,23.538697844132564,1005
          120.66403797387157,23.538718512076894,1016
          120.6640562906156,23.53867974798766,1016
          120.66409709629193,23.538697022166645,1016
          120.66415472996363,23.538695508669548,1016
          120.66417064706168,23.538706369130878,1016
          120.66417596363824,23.53869418266734,1016
          120.66417596363824,23.53869418266734,1016
          120.66417596363824,23.53869418266734,1016
          120.66428512766505,23.538731320449685,1022
          120.66432234475488,23.53875214761325,1024
          120.66437867406465,23.538784068290497,1024
          120.66440440813807,23.538821349998138,1024
          120.66445286713231,23.538871079146517,1024
          120.66451991674369,23.538879665900097,1024
          120.66454767100083,23.53884876750156,1024
          120.66459494847102,23.538843771981064,1025
          120.66465182480064,23.538855299488638,1025
          120.66470430245138,23.538882135040282,1025
          120.66475562511181,23.538903327889145,1025
          120.6648048215596,23.538930582094313,1025
          120.66486750500728,23.538979049676815,1025
          120.66488459897089,23.539029289483118,1028
          120.66489292461243,23.539078433329877,1028
          120.66493236361525,23.539110679735817,1028
          120.66498100751873,23.539163267630435,1028
          120.66514706506385,23.53912613298249,1027
          120.66523204538943,23.53909593846955,1027
          120.66528785107604,23.53908588349711,1027
          120.665336718058,23.539075598307182,1027
          120.66534858339418,23.539095114337307,1027
          120.66532695857319,23.539152963132725,1027
        </coordinates>
      </LineString>
    </Placemark>
    <Placemark>
      <name>千年蝙蝠洞</name>
      <description></description>
      <ExtendedData>
        <Data name="icon"><value>star</value></Data>
        <Data name="color"><value>#10b981</value></Data>
      </ExtendedData>
      <Point>
        <coordinates>120.66396402769777,23.53536128418925,0</coordinates>
      </Point>
    </Placemark>
    <Placemark>
      <name>燕子崖</name>
      <description></description>
      <ExtendedData>
        <Data name="icon"><value>star</value></Data>
        <Data name="color"><value>#10b981</value></Data>
      </ExtendedData>
      <Point>
        <coordinates>120.66536786906079,23.53502205612031,0</coordinates>
      </Point>
    </Placemark>
    <Placemark>
      <name>梅花山莊</name>
      <description></description>
      <ExtendedData>
        <Data name="icon"><value>bus-front</value></Data>
        <Data name="color"><value>#3b82f6</value></Data>
      </ExtendedData>
      <Point>
        <coordinates>120.66531898403116,23.539192321708327,0</coordinates>
      </Point>
    </Placemark>
    <Placemark>
      <name>瑞里山莊站</name>
      <description></description>
      <ExtendedData>
        <Data name="icon"><value>bus-front</value></Data>
        <Data name="color"><value>#3b82f6</value></Data>
      </ExtendedData>
      <Point>
        <coordinates>120.6586866989806,23.533109735765137,0</coordinates>
      </Point>
    </Placemark>
    <Placemark>
      <name>雲潭瀑布站</name>
      <description></description>
      <ExtendedData>
        <Data name="icon"><value>bus-front</value></Data>
        <Data name="color"><value>#3b82f6</value></Data>
      </ExtendedData>
      <Point>
        <coordinates>120.6562556944906,23.531730142185438,0</coordinates>
      </Point>
    </Placemark>
    <Placemark>
      <name>停車場</name>
      <description></description>
      <ExtendedData>
        <Data name="icon"><value>P</value></Data>
        <Data name="color"><value>#3b82f6</value></Data>
      </ExtendedData>
      <Point>
        <coordinates>120.65630740997085,23.534720003025313,0</coordinates>
      </Point>
    </Placemark>
    <Placemark>
      <name>雲潭瀑布停車場</name>
      <description></description>
      <ExtendedData>
        <Data name="icon"><value>P</value></Data>
        <Data name="color"><value>#3b82f6</value></Data>
      </ExtendedData>
      <Point>
        <coordinates>120.65567562143849,23.531749280879268,0</coordinates>
      </Point>
    </Placemark>
  </Document>
</kml>