<?xml version="1.0" encoding="UTF-8"?>
<kml xmlns="http://www.opengis.net/kml/2.2">
  <Document>
    <name>仁壽村-圓潭生態園區</name>
    <Placemark>
      <name>路線軌跡</name>
      <LineString>
        <tessellate>1</tessellate>
        <coordinates>
          120.65961,23.529367,844
          120.659615,23.529224,851
          120.659607,23.529081,852
          120.659575,23.528974,849
          120.659476,23.528929,848
          120.659351,23.528955,848
          120.659261,23.529,848
          120.659204,23.529003,849
          120.65919,23.528877,848
          120.659175,23.528744,848
          120.659196,23.528629,850
          120.659212,23.528525,850
          120.659336,23.528454,852
          120.659216,23.528451,856
          120.659332,23.528489,858
          120.659304,23.528507,863
          120.659306,23.52837,861
          120.659275,23.528276,860
          120.659201,23.528204,866
          120.659121,23.528134,855
          120.659076,23.528036,857
          120.659052,23.527902,857
          120.65904,23.52781,861
          120.659026,23.527714,861
          120.65903,23.527619,863
          120.659003,23.527531,862
          120.659022,23.527438,865
          120.659044,23.52734,869
          120.658999,23.527245,869
          120.658998,23.52711,872
          120.658993,23.527018,876
          120.65896,23.526931,873
          120.658954,23.52682,869
          120.65897,23.526725,867
          120.658992,23.526635,866
          120.65891,23.526707,869
          120.658838,23.526612,871
          120.658791,23.526532,872
          120.658833,23.526448,877
          120.658918,23.526382,879
          120.659019,23.526368,881
          120.659121,23.526365,886
          120.659167,23.526266,888
          120.659273,23.526244,890
          120.659289,23.526151,891
          120.659327,23.526045,892
          120.659423,23.52597,889
          120.659496,23.526059,887
          120.659605,23.525948,888
          120.659696,23.525847,887
          120.659748,23.525743,886
          120.659726,23.525626,887
          120.659672,23.525498,884
          120.659656,23.525396,880
          120.659625,23.525301,880
          120.659571,23.52522,880
          120.659599,23.525167,881
          120.659644,23.524782,870
          120.659414,23.525179,881
          120.659309,23.525097,880
          120.659398,23.525046,884
          120.659534,23.525006,883
          120.659633,23.52504,886
          120.659688,23.524956,894
          120.659766,23.525019,898
          120.659858,23.525058,902
          120.659963,23.525061,903
          120.660067,23.525093,905
          120.660156,23.52515,905
          120.660222,23.525218,908
          120.660323,23.525278,909
          120.660415,23.52532,915
          120.66053,23.525338,920
          120.66064,23.525297,921
          120.660742,23.52527,927
          120.66079,23.525187,932
          120.660869,23.525078,938
          120.660984,23.525023,949
          120.661015,23.52517,953
          120.661041,23.525074,954
          120.660988,23.525164,957
          120.660939,23.525079,954
          120.660989,23.525176,954
          120.661117,23.525238,930
          120.660991,23.525194,951
          120.660961,23.525085,952
          120.660894,23.524982,953
          120.660977,23.525065,953
          120.660966,23.525206,952
          120.660834,23.525006,949
          120.660745,23.524934,949
          120.660661,23.524885,945
          120.660551,23.52486,940
          120.660454,23.524884,938
          120.66043,23.524868,937
          120.66032,23.524836,934
          120.660214,23.52481,929
          120.660112,23.524793,926
          120.660011,23.524754,924
          120.659897,23.524729,922
          120.659805,23.524686,917
          120.659707,23.524641,913
          120.659616,23.524603,912
          120.659523,23.524569,904
          120.659419,23.524533,902
          120.659409,23.524411,901
          120.659307,23.524418,899
          120.659275,23.52455,897
          120.659252,23.52476,895
          120.659217,23.524851,889
          120.659224,23.524951,889
          120.659328,23.524952,887
          120.659437,23.525058,885
          120.659551,23.525152,882
          120.659626,23.525312,884
          120.659647,23.525435,880
          120.659664,23.525527,885
          120.659671,23.525619,883
          120.659672,23.525715,881
          120.659668,23.525813,883
          120.659603,23.525901,887
          120.659509,23.525973,891
          120.659419,23.526047,891
          120.659336,23.526104,892
          120.659253,23.526181,891
          120.659169,23.526256,886
          120.659088,23.526323,885
          120.659008,23.526402,885
          120.658925,23.52649,888
          120.658842,23.526561,879
          120.658816,23.526656,869
          120.658788,23.526756,869
          120.658817,23.526848,868
          120.658783,23.52698,869
          120.658767,23.527099,872
          120.658733,23.527222,874
          120.658748,23.527333,872
          120.658707,23.527471,875
          120.658668,23.527622,876
          120.658657,23.527766,876
          120.658651,23.527914,875
          120.658643,23.528149,875
          120.658653,23.528246,874
          120.658918,23.528574,862
          120.658974,23.528443,857
          120.659003,23.52828,854
          120.659026,23.528176,855
          120.658992,23.528327,861
          120.659041,23.528201,859
          120.659187,23.528195,861
          120.659261,23.528266,861
          120.659291,23.528364,861
          120.659277,23.528473,861
          120.659206,23.528548,859
          120.659197,23.528587,858
          120.659194,23.528682,849
          120.659196,23.528782,851
          120.659183,23.528883,853
          120.659177,23.528992,855
          120.659331,23.528998,862
          120.659405,23.528926,860
          120.659537,23.528938,854
          120.659529,23.52903,855
          120.65961,23.529075,853
        </coordinates>
      </LineString>
    </Placemark>
    <Placemark>
      <name>停車場</name>
      <description>半小時/$25
當日最高上限/</description>
      <ExtendedData>
        <Data name="icon"><value>P</value></Data>
        <Data name="color"><value>#3b82f6</value></Data>
      </ExtendedData>
      <Point>
        <coordinates>120.659607,23.529353,0</coordinates>
      </Point>
    </Placemark>
    <Placemark>
      <name>圓潭自然生態園區入口</name>
      <description></description>
      <ExtendedData>
        <Data name="icon"><value>google-pin</value></Data>
        <Data name="color"><value>#e27653</value></Data>
      </ExtendedData>
      <Point>
        <coordinates>120.659204,23.529003,0</coordinates>
      </Point>
    </Placemark>
    <Placemark>
      <name>圓潭步道</name>
      <description></description>
      <ExtendedData>
        <Data name="icon"><value>google-pin</value></Data>
        <Data name="color"><value>#e27653</value></Data>
      </ExtendedData>
      <Point>
        <coordinates>120.659304,23.528507,0</coordinates>
      </Point>
    </Placemark>
    <Placemark>
      <name>園潭瀑布觀景台</name>
      <description></description>
      <ExtendedData>
        <Data name="icon"><value>google-pin</value></Data>
        <Data name="color"><value>#e27653</value></Data>
      </ExtendedData>
      <Point>
        <coordinates>120.65898675082002,23.526642689197942,0</coordinates>
      </Point>
    </Placemark>
    <Placemark>
      <name>涼亭</name>
      <description></description>
      <ExtendedData>
        <Data name="icon"><value>google-pin</value></Data>
        <Data name="color"><value>#e27653</value></Data>
      </ExtendedData>
      <Point>
        <coordinates>120.661066,23.525187,0</coordinates>
      </Point>
    </Placemark>
    <Placemark>
      <name>涼亭</name>
      <description></description>
      <ExtendedData>
        <Data name="icon"><value>google-pin</value></Data>
        <Data name="color"><value>#e27653</value></Data>
      </ExtendedData>
      <Point>
        <coordinates>120.66043,23.524868,0</coordinates>
      </Point>
    </Placemark>
    <Placemark>
      <name>植物園</name>
      <description></description>
      <ExtendedData>
        <Data name="icon"><value>google-pin</value></Data>
        <Data name="color"><value>#e27653</value></Data>
      </ExtendedData>
      <Point>
        <coordinates>120.65934411923234,23.52496627561011,0</coordinates>
      </Point>
    </Placemark>
    <Placemark>
      <name>心湖瀑布</name>
      <description></description>
      <ExtendedData>
        <Data name="icon"><value>google-pin</value></Data>
        <Data name="color"><value>#e27653</value></Data>
      </ExtendedData>
      <Point>
        <coordinates>120.659003,23.52828,0</coordinates>
      </Point>
    </Placemark>
    <Placemark>
      <name>洗手間</name>
      <description></description>
      <ExtendedData>
        <Data name="icon"><value>wc</value></Data>
        <Data name="color"><value>#10b981</value></Data>
      </ExtendedData>
      <Point>
        <coordinates>120.659216,23.528486,0</coordinates>
      </Point>
    </Placemark>
    <Placemark>
      <name>園潭餐廳</name>
      <description></description>
      <ExtendedData>
        <Data name="icon"><value>star</value></Data>
        <Data name="color"><value>#10b981</value></Data>
      </ExtendedData>
      <Point>
        <coordinates>120.659197,23.528587,0</coordinates>
      </Point>
    </Placemark>
    <Placemark>
      <name>向山瀑布</name>
      <description></description>
      <ExtendedData>
        <Data name="icon"><value>star</value></Data>
        <Data name="color"><value>#10b981</value></Data>
      </ExtendedData>
      <Point>
        <coordinates>120.65978304407861,23.52626214468569,0</coordinates>
      </Point>
    </Placemark>
  </Document>
</kml>