<?xml version="1.0" encoding="UTF-8"?>
<kml xmlns="http://www.opengis.net/kml/2.2">
  <Document>
    <name>仁壽村-雲潭步道</name>
    <Placemark>
      <name>路線軌跡</name>
      <LineString>
        <tessellate>1</tessellate>
        <coordinates>
          120.65549364036016,23.531791115946145,880.1912452127447
          120.65547752090285,23.531803101556505,879.8379897028739
          120.65546935559908,23.53179057943281,880.4619904168281
          120.65543930267128,23.53178108291006,881.1004634805012
          120.65540976838635,23.531793527613104,880.8978586128685
          120.65541606472644,23.531807418801137,880.4333731856307
          120.65539792196063,23.531804958530675,880.7632080015343
          120.65538585082943,23.531801219191735,880.8976914231858
          120.65538225485899,23.53179891736787,881.2007940771692
          120.65539388109438,23.53180087443215,880.8208066823603
          120.65542012830794,23.53180233507115,880.7844507787084
          120.65542967521289,23.531799609313286,880.5002989828422
          120.65543235840603,23.5318166302699,879.8928559004942
          120.65544550374804,23.531833018447394,879.2779194439479
          120.65546814892136,23.531832498533422,879.0067765309334
          120.65546874890255,23.531865095973167,877.8510341756784
          120.65545437081032,23.531911548278806,876.8441463591556
          120.65543403198033,23.5319041658329,877.2060487791774
          120.65541623800414,23.53190167381212,877.1983561264666
          120.65540995045846,23.53190691803178,876.9705606302215
          120.65539496701497,23.531919605952126,876.7087779118475
          120.65536957404996,23.53191614946348,876.9902852500669
          120.65530577995897,23.53192817661387,876.2322248543402
          120.65526463419505,23.531941203232343,875.6375374436559
          120.65524482152216,23.53192438494125,876.230636500227
          120.65519195897755,23.5319273087222,874.5762350109735
          120.65517128468244,23.531943143671484,872.9112806661162
          120.65516629402636,23.53196191793785,871.8885758845494
          120.65515074160564,23.53195980689073,871.2443425415001
          120.65514679926342,23.53196014907254,863.0896734408161
          120.65514642059989,23.531961838065214,861.7901442844473
          120.65514062710452,23.53196657682385,860.9393723226124
          120.65514317241515,23.531967457249962,864.4432395355908
          120.65514636208168,23.531981927361617,869.3201440547549
          120.65514988049557,23.531990064710083,868.9083479604542
          120.65513445323673,23.53198087145002,869.291105385748
          120.65512613676884,23.53197786103424,869.3124433613575
          120.65511055838385,23.531981899010255,868.2027777582782
          120.65510144835748,23.531987006122478,867.4544815362916
          120.6550938087724,23.531992760366528,866.9661329776324
          120.65508674580528,23.53200629195365,865.8427499508649
          120.65505653776523,23.532008527158023,852.9986303527752
          120.65502379267677,23.53201470967845,852.1400793499831
          120.65504053803225,23.532027195465613,853.0748663278723
          120.6550534992847,23.532052142464185,858.6498372602488
          120.65505900111648,23.53205430889876,851.0648168632774
          120.65506116645639,23.53205541662845,851.4217842054478
          120.65505921681309,23.532054394640355,852.4192860584986
          120.6550717152436,23.53205043546708,856.9247702782859
          120.6550833401766,23.532056760877502,845.5655301362465
          120.65509211206165,23.532070277672293,844.1325627289166
          120.65509206700463,23.532076686864077,844.3612472070679
          120.65510963704251,23.532105661368863,847.710954209743
          120.65512225113397,23.532119928712273,856.0915139447436
          120.65512683527838,23.532136528972483,855.0193561086779
          120.65514416130608,23.53213352345181,855.8083813729274
          120.65516967426738,23.532156693377406,853.6846598389973
          120.6551877090542,23.532172488439972,852.7278610603006
          120.6552126626642,23.532194875509624,851.105646529918
          120.65522323121938,23.532214209598408,850.0564990237518
          120.65524672402167,23.532226290205973,849.5352525309622
          120.65528655268122,23.532241662210833,846.5688349000799
          120.65529509529338,23.532256276839206,828.9345873437316
          120.65529918887735,23.532274024447418,838.3573857433812
          120.6552962407605,23.532257294542294,847.9323096692087
          120.6553151113305,23.532263033944737,847.4918270286043
          120.65532527572255,23.53227551151758,846.8938432531392
          120.65532850657026,23.53227635474954,846.607544290095
          120.65530808775685,23.532274301729377,846.9202852873209
          120.6553406084313,23.532254577438795,850.0904424425567
          120.65537627207898,23.532221633863923,853.644039756181
          120.65541776175166,23.53219471228219,856.7381951536595
          120.65542222330033,23.532180432386305,857.030079225709
          120.65546425513563,23.532183542273497,857.8000771485675
          120.65550928996804,23.532171844085543,859.7260300017371
          120.65555792251524,23.53216024628879,860.5616399246051
          120.65561682527935,23.532170226800083,824.0374749116761
          120.65564715047044,23.53218895476667,858.6397276426896
          120.6556564043091,23.53223248170365,812.7122666307685
          120.65564258633461,23.53230286111492,821.0309256469437
          120.65563501323447,23.532336886316806,845.1985016863576
          120.65567322208003,23.532339915817523,818.1784052050539
          120.65569710391358,23.532346962589056,831.4489277944685
          120.6556730258845,23.53235659562128,843.6173214358334
          120.65564963620712,23.532352040755434,810.9099498466576
          120.6556478126986,23.532356649057995,821.1163400515655
          120.6556554932198,23.53236331108453,842.877350280007
          120.65564330211865,23.53236684404652,842.3782774828546
          120.65558214770807,23.532392986994836,840.6397187620829
          120.65554937738457,23.532408711622303,835.6400773764565
          120.65554016632515,23.532416451749476,799.69615618974
          120.65550489580424,23.532429785920076,799.0436254009772
          120.65547330399157,23.53244484954234,799.5215173914864
          120.65548092380027,23.532430409418698,800.3800188273117
          120.65547654961492,23.532450927950823,802.7006568008281
          120.65545951461272,23.53246231379524,812.0194799304184
          120.65546699573376,23.53249718287276,829.7827305954892
          120.65550855414969,23.532515787857378,796.3154475960899
          120.65551609156073,23.532525944792358,795.8097898353204
          120.65551932078574,23.532541327083376,795.0128570990262
          120.65551172600047,23.532546220801116,794.4580574598265
          120.65547537613901,23.532602920373982,793.7221853476655
          120.65543892561973,23.532648896253942,791.6772119552611
          120.65539092745053,23.532705054544902,791.7596412025099
          120.65535622016783,23.53275023142899,794.9155487551491
          120.65536392971958,23.53281982931419,799.4653838390395
          120.65543308298861,23.532787379337318,803.3395315890153
          120.65545705439646,23.532805264354305,801.7607580482803
          120.6554649973339,23.532825693562962,800.8062015660824
          120.65546835452325,23.532824719486758,801.3565251172972
          120.65547012246876,23.53282510974047,800.481014638086
          120.6554707597496,23.532827639846367,799.8034707372029
          120.6554714594672,23.532830437196893,799.4588025818701
          120.65547363864161,23.53283155368413,798.864170724475
          120.65548131010559,23.532850316860607,794.4202218713359
          120.65544357755967,23.53288666905258,793.7039818340952
          120.65544106830721,23.532911514077146,794.7176477161487
          120.65546137530299,23.532915495330972,790.2771779140999
          120.65546234659446,23.532916837523928,792.6124331123148
          120.65546307211768,23.532916478544575,794.9952868738987
          120.6554748181357,23.532919718459627,794.9397594961623
          120.65549611254316,23.532913414050885,792.9038047735171
          120.65552145942664,23.53291181393204,787.4271948871165
          120.65549258580609,23.53295878808939,787.0258642155452
          120.65548441572246,23.53296651544805,787.0272229443035
          120.65547649741886,23.53296842622138,790.19275962723
          120.65548951138419,23.532978664856408,791.22270310103
          120.65553599452447,23.533003383490907,788.396510093258
          120.65554313242842,23.533020367311966,789.4704508043139
          120.65557426218844,23.533032153265204,789.4073430052262
          120.65561169988142,23.53305261642524,788.9205742635976
          120.65564986287592,23.53305949932727,788.9055080690667
          120.65568363831343,23.53306467606637,789.9733459487971
          120.65568929371861,23.533067736524387,784.491798693372
          120.65569714093547,23.533057141379913,789.2463156577919
          120.65569832850454,23.533081013497707,789.2873734886296
          120.65572177415338,23.53308395444568,790.3087017042326
          120.65575068191019,23.533092219946028,790.4367193040937
          120.65579401144589,23.533082004239642,791.8618978025443
          120.65579594538751,23.533090356680997,791.2009855028709
          120.65580589711064,23.53313719273525,789.9379943487012
          120.65585158245426,23.533127932039733,791.5103946547667
          120.65588377560097,23.533129155844787,791.7763623449255
          120.65586821759837,23.533147427872215,791.159992758687
          120.65588853194619,23.533187873142495,789.9591914086388
          120.65592652521326,23.533179093513382,792.6565674581075
          120.65594915352521,23.533186442886056,792.9426693749955
          120.65594798508764,23.533195736926384,792.5444939334133
          120.65593991907677,23.533222760522005,791.664740266797
          120.6559627654191,23.533233647826187,792.3882607996578
          120.65600298096875,23.533273156493756,793.6707102136343
          120.65599986897156,23.5333010314275,802.6079862131161
          120.65623142141206,23.533249235621064,805.6730197473846
          120.65616162342695,23.533205307731077,768.6339507137517
          120.65623142141206,23.533249235621064,805.6730197473846
          120.65599986897156,23.5333010314275,802.6079862131161
          120.65600298096875,23.533273156493756,793.6707102136343
          120.6559627654191,23.533233647826187,792.3882607996578
          120.65593991907677,23.533222760522005,791.664740266797
          120.65594798508764,23.533195736926384,792.5444939334133
          120.65594915352521,23.533186442886056,792.9426693749955
          120.65592652521326,23.533179093513382,792.6565674581075
          120.65588853194619,23.533187873142495,789.9591914086388
          120.65586821759837,23.533147427872215,791.159992758687
          120.65588377560097,23.533129155844787,791.7763623449255
          120.65585158245426,23.533127932039733,791.5103946547667
          120.65580589711064,23.53313719273525,789.9379943487012
          120.65579594538751,23.533090356680997,791.2009855028709
          120.65579401144589,23.533082004239642,791.8618978025443
          120.65575068191019,23.533092219946028,790.4367193040937
          120.65572177415338,23.53308395444568,790.3087017042326
          120.65569832850454,23.533081013497707,789.2873734886296
          120.65569714093547,23.533057141379913,789.2463156577919
          120.65568929371861,23.533067736524387,784.491798693372
          120.65568363831343,23.53306467606637,789.9733459487971
          120.65564986287592,23.53305949932727,788.9055080690667
          120.65561169988142,23.53305261642524,788.9205742635976
          120.65557426218844,23.533032153265204,789.4073430052262
          120.65554313242842,23.533020367311966,789.4704508043139
          120.65553599452447,23.533003383490907,788.396510093258
          120.65548951138419,23.532978664856408,791.22270310103
          120.65547649741886,23.53296842622138,790.19275962723
          120.65548441572246,23.53296651544805,787.0272229443035
          120.65549258580609,23.53295878808939,787.0258642155452
          120.65552145942664,23.53291181393204,787.4271948871165
          120.65549611254316,23.532913414050885,792.9038047735171
          120.6554748181357,23.532919718459627,794.9397594961623
          120.65546307211768,23.532916478544575,794.9952868738987
          120.65546234659446,23.532916837523928,792.6124331123148
          120.65546137530299,23.532915495330972,790.2771779140999
          120.65544106830721,23.532911514077146,794.7176477161487
          120.65544357755967,23.53288666905258,793.7039818340952
          120.65548131010559,23.532850316860607,794.4202218713359
          120.65547363864161,23.53283155368413,798.864170724475
          120.6554714594672,23.532830437196893,799.4588025818701
          120.6554707597496,23.532827639846367,799.8034707372029
          120.65547012246876,23.53282510974047,800.481014638086
          120.65546835452325,23.532824719486758,801.3565251172972
          120.6554649973339,23.532825693562962,800.8062015660824
          120.65545705439646,23.532805264354305,801.7607580482803
          120.65543308298861,23.532787379337318,803.3395315890153
          120.65536392971958,23.53281982931419,799.4653838390395
          120.65535622016783,23.53275023142899,794.9155487551491
          120.65539092745053,23.532705054544902,791.7596412025099
          120.65543892561973,23.532648896253942,791.6772119552611
          120.65547537613901,23.532602920373982,793.7221853476655
          120.65551172600047,23.532546220801116,794.4580574598265
          120.65551932078574,23.532541327083376,795.0128570990262
          120.65551609156073,23.532525944792358,795.8097898353204
          120.65550855414969,23.532515787857378,796.3154475960899
          120.65546699573376,23.53249718287276,829.7827305954892
          120.65545951461272,23.53246231379524,812.0194799304184
          120.65547654961492,23.532450927950823,802.7006568008281
          120.65548092380027,23.532430409418698,800.3800188273117
          120.65547330399157,23.53244484954234,799.5215173914864
          120.65550489580424,23.532429785920076,799.0436254009772
          120.65554016632515,23.532416451749476,799.69615618974
          120.65554937738457,23.532408711622303,835.6400773764565
          120.65558214770807,23.532392986994836,840.6397187620829
          120.65564330211865,23.53236684404652,842.3782774828546
          120.6556554932198,23.53236331108453,842.877350280007
          120.6556478126986,23.532356649057995,821.1163400515655
          120.65564963620712,23.532352040755434,810.9099498466576
          120.6556730258845,23.53235659562128,843.6173214358334
          120.65569710391358,23.532346962589056,831.4489277944685
          120.65567322208003,23.532339915817523,818.1784052050539
          120.65563501323447,23.532336886316806,845.1985016863576
          120.65564258633461,23.53230286111492,821.0309256469437
          120.6556564043091,23.53223248170365,812.7122666307685
          120.65564715047044,23.53218895476667,858.6397276426896
          120.65561682527935,23.532170226800083,824.0374749116761
          120.65555792251524,23.53216024628879,860.5616399246051
          120.65550928996804,23.532171844085543,859.7260300017371
          120.65546425513563,23.532183542273497,857.8000771485675
          120.65542222330033,23.532180432386305,857.030079225709
          120.65541776175166,23.53219471228219,856.7381951536595
          120.65537627207898,23.532221633863923,853.644039756181
          120.6553406084313,23.532254577438795,850.0904424425567
          120.65530808775685,23.532274301729377,846.9202852873209
          120.65532850657026,23.53227635474954,846.607544290095
          120.65532527572255,23.53227551151758,846.8938432531392
          120.6553151113305,23.532263033944737,847.4918270286043
          120.6552962407605,23.532257294542294,847.9323096692087
          120.65529918887735,23.532274024447418,838.3573857433812
          120.65529509529338,23.532256276839206,828.9345873437316
          120.65528655268122,23.532241662210833,846.5688349000799
          120.65524672402167,23.532226290205973,849.5352525309622
          120.65522323121938,23.532214209598408,850.0564990237518
          120.6552126626642,23.532194875509624,851.105646529918
          120.6551877090542,23.532172488439972,852.7278610603006
          120.65516967426738,23.532156693377406,853.6846598389973
          120.65514416130608,23.53213352345181,855.8083813729274
          120.65512683527838,23.532136528972483,855.0193561086779
          120.65512225113397,23.532119928712273,856.0915139447436
          120.65510963704251,23.532105661368863,847.710954209743
          120.65509206700463,23.532076686864077,844.3612472070679
          120.65509211206165,23.532070277672293,844.1325627289166
          120.6550833401766,23.532056760877502,845.5655301362465
          120.6550717152436,23.53205043546708,856.9247702782859
          120.65505921681309,23.532054394640355,852.4192860584986
          120.65506116645639,23.53205541662845,851.4217842054478
          120.65505900111648,23.53205430889876,851.0648168632774
          120.6550534992847,23.532052142464185,858.6498372602488
          120.65504053803225,23.532027195465613,853.0748663278723
          120.65502379267677,23.53201470967845,852.1400793499831
          120.65505653776523,23.532008527158023,852.9986303527752
          120.65508674580528,23.53200629195365,865.8427499508649
          120.6550938087724,23.531992760366528,866.9661329776324
          120.65510144835748,23.531987006122478,867.4544815362916
          120.65511055838385,23.531981899010255,868.2027777582782
          120.65512613676884,23.53197786103424,869.3124433613575
          120.65513445323673,23.53198087145002,869.291105385748
          120.65514988049557,23.531990064710083,868.9083479604542
          120.65514636208168,23.531981927361617,869.3201440547549
          120.65514317241515,23.531967457249962,864.4432395355908
          120.65514062710452,23.53196657682385,860.9393723226124
          120.65514642059989,23.531961838065214,861.7901442844473
          120.65514679926342,23.53196014907254,863.0896734408161
          120.65515074160564,23.53195980689073,871.2443425415001
          120.65516629402636,23.53196191793785,871.8885758845494
          120.65517128468244,23.531943143671484,872.9112806661162
          120.65519195897755,23.5319273087222,874.5762350109735
          120.65524482152216,23.53192438494125,876.230636500227
          120.65526463419505,23.531941203232343,875.6375374436559
          120.65530577995897,23.53192817661387,876.2322248543402
          120.65536957404996,23.53191614946348,876.9902852500669
          120.65539496701497,23.531919605952126,876.7087779118475
          120.65540995045846,23.53190691803178,876.9705606302215
          120.65541623800414,23.53190167381212,877.1983561264666
          120.65543403198033,23.5319041658329,877.2060487791774
          120.65545437081032,23.531911548278806,876.8441463591556
          120.65546874890255,23.531865095973167,877.8510341756784
          120.65546814892136,23.531832498533422,879.0067765309334
          120.65544550374804,23.531833018447394,879.2779194439479
          120.65543235840603,23.5318166302699,879.8928559004942
          120.65542967521289,23.531799609313286,880.5002989828422
          120.65542012830794,23.53180233507115,880.7844507787084
          120.65539388109438,23.53180087443215,880.8208066823603
          120.65538225485899,23.53179891736787,881.2007940771692
          120.65538585082943,23.531801219191735,880.8976914231858
          120.65539792196063,23.531804958530675,880.7632080015343
          120.65541606472644,23.531807418801137,880.4333731856307
          120.65540976838635,23.531793527613104,880.8978586128685
          120.65543930267128,23.53178108291006,881.1004634805012
          120.65546935559908,23.53179057943281,880.4619904168281
          120.65547752090285,23.531803101556505,879.8379897028739
          120.65549364036016,23.531791115946145,880.1912452127447
        </coordinates>
      </LineString>
    </Placemark>
    <Placemark>
      <name>雲潭瀑布</name>
      <description>瀑布標高約780公尺至680公尺，
有「瑞里第一景」的美稱</description>
      <ExtendedData>
        <Data name="icon"><value>star</value></Data>
        <Data name="color"><value>#10b981</value></Data>
      </ExtendedData>
      <Point>
        <coordinates>120.65600298096875,23.533273156493756,0</coordinates>
      </Point>
    </Placemark>
    <Placemark>
      <name>休息涼亭</name>
      <description></description>
      <ExtendedData>
        <Data name="icon"><value>star</value></Data>
        <Data name="color"><value>#10b981</value></Data>
      </ExtendedData>
      <Point>
        <coordinates>120.65568929371861,23.533067736524387,0</coordinates>
      </Point>
    </Placemark>
    <Placemark>
      <name>休息平台</name>
      <description></description>
      <ExtendedData>
        <Data name="icon"><value>google-pin</value></Data>
        <Data name="color"><value>#e27653</value></Data>
      </ExtendedData>
      <Point>
        <coordinates>120.6553151113305,23.532263033944737,0</coordinates>
      </Point>
    </Placemark>
    <Placemark>
      <name>起點|Start</name>
      <description></description>
      <ExtendedData>
        <Data name="icon"><value>start</value></Data>
        <Data name="color"><value>#10b981</value></Data>
      </ExtendedData>
      <Point>
        <coordinates>120.65550201772538,23.531779368444504,0</coordinates>
      </Point>
    </Placemark>
    <Placemark>
      <name>終點|End</name>
      <description></description>
      <ExtendedData>
        <Data name="icon"><value>end</value></Data>
        <Data name="color"><value>#e27653</value></Data>
      </ExtendedData>
      <Point>
        <coordinates>120.65551222355077,23.531727907361883,0</coordinates>
      </Point>
    </Placemark>
    <Placemark>
      <name>雲潭瀑布站</name>
      <description>꒰7315 / 7315A꒱— 每日兩班</description>
      <ExtendedData>
        <Data name="icon"><value>bus-front</value></Data>
        <Data name="color"><value>#3b82f6</value></Data>
      </ExtendedData>
      <Point>
        <coordinates>120.65626451133534,23.53172083899581,0</coordinates>
      </Point>
    </Placemark>
  </Document>
</kml>