<?xml version="1.0" encoding="UTF-8"?>
<kml xmlns="http://www.opengis.net/kml/2.2">
  <Document>
    <name>太平村-雲之南茶園步道</name>
    <Placemark>
      <name>路線軌跡</name>
      <LineString>
        <tessellate>1</tessellate>
        <coordinates>
          120.60014176,23.55949345,967.252075195312
          120.60012642,23.55947685,969.3505859375
          120.60002908,23.55946432,981.865234375
          120.60003667,23.55955588,980.361083984375
          120.60004224,23.55964769,976.982177734375
          120.59996485,23.55971371,977.234008789062
          120.59987398,23.55974871,976.8935546875
          120.59977433,23.55973391,976.10498046875
          120.59966821,23.55972171,974.249755859375
          120.59957213,23.55974082,975.03466796875
          120.59947415,23.55974288,977.385009765625
          120.59938265,23.55978932,978.299072265625
          120.5992804,23.55981264,979.281127929688
          120.59917814,23.559824,980.181640625
          120.59907764,23.55982473,975.869384765625
          120.59904448,23.55991335,973.578369140625
          120.5989877,23.55998981,974.924926757812
          120.5988993,23.56004242,976.91455078125
          120.59881526,23.56009275,977.2822265625
          120.59870836,23.56010841,979.624633789062
          120.5986131,23.56013206,977.336791992188
          120.59854135,23.56019902,980.58447265625
          120.59843996,23.56021212,984.5283203125
          120.59837272,23.56028335,987.77294921875
          120.59829043,23.56033667,988.288940429688
          120.59820302,23.56029367,990.724853515625
          120.59818571,23.5603848,991.674438476562
          120.59809273,23.56042456,992.48876953125
          120.59803048,23.56035245,995.266723632812
          120.59802194,23.56034817,995.318481445312
          120.59800774,23.5602503,1000.90295410156
          120.5979959,23.5601535,992.80908203125
          120.59800254,23.56005908,998.450561523438
          120.59797732,23.55996597,999.378662109375
          120.59797171,23.55987155,1000.39514160156
          120.59794648,23.55978025,995.225341796875
          120.59793171,23.55968348,994.3193359375
          120.59790144,23.55959473,994.086791992188
          120.59790884,23.55950086,993.855834960938
          120.59788953,23.55941069,994.958251953125
          120.59787402,23.55931514,995.3623046875
          120.59786126,23.55921774,997.20654296875
          120.59784811,23.55912551,996.361328125
          120.59786783,23.55903223,995.02587890625
          120.59782818,23.55894318,995.26513671875
          120.5977875,23.55885787,993.633544921875
          120.59775036,23.55876976,992.562866210938
          120.59775616,23.55867772,992.252197265625
          120.59775154,23.55858066,994.46142578125
          120.59773914,23.55849107,994.238525390625
          120.59772623,23.5583944,990.059448242188
          120.59769962,23.5582997,994.26171875
          120.59770345,23.55820547,996.490112304688
          120.59768218,23.55810861,999.999755859375
          120.5976865,23.55801328,1001.4716796875
          120.59767628,23.55792082,1007.75598144531
          120.59757913,23.55789006,1005.82885742188
          120.59750494,23.55790833,1008.30859375
          120.59744084,23.55798065,1007.9853515625
          120.59735288,23.55793247,1009.525390625
          120.59737655,23.55783878,1018.54833984375
          120.59741788,23.55775588,1023.34057617188
          120.59743955,23.55766661,1027.64697265625
          120.59742524,23.55757572,1031.93615722656
          120.59743977,23.55748054,1036.97326660156
          120.59747582,23.55739192,1040.62890625
          120.59754236,23.55732255,1046.77514648438
          120.59764316,23.55731356,1038.97412109375
          120.59763478,23.55722343,1049.11254882812
          120.59762999,23.55713262,1052.46166992188
          120.59762071,23.55722493,1052.07739257812
          120.59768133,23.55730337,1052.26574707031
          120.59777179,23.55726593,1047.97863769531
          120.5978362,23.55719768,1052.9169921875
          120.59787491,23.5571144,1050.19311523438
          120.59793765,23.55703944,1049.10046386719
          120.59801797,23.55697612,1045.50451660156
          120.59801539,23.55692691,1045.54553222656
          120.59803547,23.55682903,1046.29455566406
          120.59804571,23.55673779,1046.67700195312
          120.5980729,23.55664295,1044.23913574219
          120.59815194,23.55657826,1041.48315429688
          120.59824205,23.55654281,1040.72973632812
          120.59833203,23.5565035,1038.68029785156
          120.59841539,23.55644468,1037.42895507812
          120.59849847,23.55638633,1041.8271484375
          120.59856856,23.55632035,1043.39855957031
          120.59864042,23.55625809,1041.51550292969
          120.59873469,23.55621126,1044.14733886719
          120.59883052,23.55615672,1047.5673828125
          120.59891961,23.55611897,1045.36193847656
          120.59901769,23.55609721,1044.90979003906
          120.59905747,23.55618128,1045.05822753906
          120.59907476,23.55627433,1045.31018066406
          120.59912649,23.55635307,1047.18444824219
          120.59915798,23.55644606,1052.40515136719
          120.59912909,23.55653594,1051.42272949219
          120.59919547,23.5566131,1047.83630371094
          120.59920653,23.5567029,1056.30908203125
          120.59923655,23.55679357,1057.77526855469
          120.59927912,23.55688089,1060.37902832031
          120.59934745,23.55694885,1051.80627441406
          120.59944023,23.55698844,1055.08618164062
          120.59953403,23.55703338,1057.583984375
          120.59954571,23.55712896,1053.44970703125
          120.59962919,23.55718737,1055.75366210938
          120.59969769,23.55725648,1053.26245117188
          120.59975714,23.55734073,1053.92236328125
          120.59983567,23.55739899,1050.45971679688
          120.59992302,23.55746114,1049.76599121094
          120.60000697,23.55751437,1046.18322753906
          120.60008184,23.55757509,1045.95166015625
          120.60011734,23.55766686,1046.99755859375
          120.60013532,23.5577619,1046.78479003906
          120.60020733,23.55783349,1045.9208984375
          120.60029358,23.55788085,1042.17895507812
          120.60037283,23.55793994,1039.34790039062
          120.60043802,23.55801344,1037.16467285156
          120.60051654,23.55807557,1033.95141601562
          120.60058484,23.55814765,1032.16479492188
          120.60068994,23.55815609,1030.65893554688
          120.60078088,23.55820114,1027.91711425781
          120.60088469,23.55820767,1021.50610351562
          120.6009787,23.55824014,1017.0380859375
          120.60107005,23.55829,1013.81591796875
          120.6011639,23.55832131,1009.31323242188
          120.60119203,23.5583444,1006.22985839844
          120.60127493,23.55839551,1003.42224121094
          120.60135648,23.55845431,1003.8388671875
          120.60142849,23.55851984,1000.82348632812
          120.60150613,23.55857499,1001.00939941406
          120.60159432,23.55862072,1000.06811523438
          120.60169444,23.55865446,998.790283203125
          120.60178918,23.55869376,998.496826171875
          120.60181336,23.55877983,1001.2109375
          120.60190684,23.55881749,999.103515625
          120.60199783,23.55885306,997.727783203125
          120.60206678,23.55878288,994.523193359375
          120.60202073,23.55869714,993.69921875
          120.60204646,23.55860676,990.89599609375
          120.60213074,23.55865539,989.366943359375
          120.60223025,23.55868136,991.630615234375
          120.60233483,23.55869971,988.642944335938
          120.60239674,23.55877404,995.187744140625
          120.60249304,23.55879812,993.622802734375
          120.60255512,23.55871377,997.7080078125
          120.6025628,23.55861689,995.83447265625
          120.60257446,23.55851821,997.1552734375
          120.60267218,23.55854387,996.312622070312
          120.60277279,23.55854104,996.845092773438
          120.6028489,23.55860583,995.27197265625
          120.60292289,23.5586753,993.236938476562
          120.60298556,23.55874855,992.13525390625
          120.60302716,23.55884098,990.691162109375
          120.60307964,23.5589273,989.741821289062
          120.60312499,23.55901078,989.08251953125
          120.60316301,23.55909645,989.892333984375
          120.60323247,23.55916355,988.273193359375
          120.60322264,23.55925394,991.873291015625
          120.60320459,23.55934847,992.421142578125
          120.60316753,23.55944088,991.851684570312
          120.60310599,23.55951285,991.068603515625
          120.60303193,23.55957924,991.046630859375
          120.60297075,23.5596537,990.417724609375
          120.60289101,23.55971651,993.652587890625
          120.60290844,23.55980915,989.242919921875
          120.6028751,23.55990311,986.926147460938
          120.60281564,23.55998641,982.041748046875
          120.60271661,23.56002188,979.013305664062
          120.60263466,23.56007913,978.098999023438
          120.60254215,23.56011956,979.437255859375
          120.60244755,23.56016568,977.635009765625
          120.60235745,23.56021349,975.0244140625
          120.6022667,23.56025743,973.73828125
          120.60217302,23.56029962,973.717041015625
          120.6020654,23.56030969,973.825073242188
          120.60202775,23.56031233,973.1259765625
          120.60192749,23.56032273,970.459716796875
          120.60182408,23.56028928,968.2919921875
          120.60176876,23.56020852,969.410766601562
          120.60169784,23.56014468,971.872192382812
          120.60162721,23.56006788,972.698486328125
          120.60154331,23.56001141,973.6416015625
          120.60145178,23.55996255,975.342163085938
          120.60141399,23.55987536,979.395263671875
          120.60143094,23.5597831,981.8681640625
          120.60133106,23.55976075,978.63427734375
          120.60123239,23.55979002,978.720458984375
          120.60130548,23.55972307,974.281982421875
          120.60120299,23.55970939,974.821411132812
          120.60109935,23.55967473,976.204833984375
          120.60100638,23.55964454,975.8876953125
          120.60090346,23.55961773,976.24951171875
          120.6008088,23.55959403,975.314697265625
          120.60071146,23.55956215,975.86767578125
          120.60061796,23.55951319,974.294555664062
          120.60053797,23.55944744,977.93212890625
          120.60051765,23.55946035,979.6943359375
          120.60041458,23.55948817,977.991943359375
          120.60031198,23.55947431,976.6513671875
        </coordinates>
      </LineString>
    </Placemark>
    <Placemark>
      <name>太平雲梯服務中心</name>
      <description></description>
      <Point>
        <coordinates>120.60013749981408,23.559523580220855,0</coordinates>
      </Point>
    </Placemark>
    <Placemark>
      <name>雲之南步道入口</name>
      <description></description>
      <Point>
        <coordinates>120.5975899,23.5580143,0</coordinates>
      </Point>
    </Placemark>
    <Placemark>
      <name>第一涼亭</name>
      <description></description>
      <Point>
        <coordinates>120.5975888,23.5570545,0</coordinates>
      </Point>
    </Placemark>
    <Placemark>
      <name>第三涼亭</name>
      <description></description>
      <Point>
        <coordinates>120.60175490229733,23.558875544409673,0</coordinates>
      </Point>
    </Placemark>
    <Placemark>
      <name>雲朵茶坊</name>
      <description>愛玉/飲品</description>
      <Point>
        <coordinates>120.60270135510063,23.55842400731531,0</coordinates>
      </Point>
    </Placemark>
    <Placemark>
      <name>步道出口</name>
      <description></description>
      <Point>
        <coordinates>120.6025551,23.5587138,0</coordinates>
      </Point>
    </Placemark>
    <Placemark>
      <name>洗手間</name>
      <description></description>
      <Point>
        <coordinates>120.6029625,23.5607526,0</coordinates>
      </Point>
    </Placemark>
    <Placemark>
      <name>7-11</name>
      <description></description>
      <Point>
        <coordinates>120.601587,23.5600698,0</coordinates>
      </Point>
    </Placemark>
    <Placemark>
      <name>電車充電樁</name>
      <description></description>
      <Point>
        <coordinates>120.60009927246568,23.559625199361292,0</coordinates>
      </Point>
    </Placemark>
    <Placemark>
      <name>太平雲梯</name>
      <description></description>
      <Point>
        <coordinates>120.5977892,23.5590701,0</coordinates>
      </Point>
    </Placemark>
    <Placemark>
      <name>太平雲梯入口| Entrance</name>
      <description></description>
      <Point>
        <coordinates>120.5980927,23.5604246,0</coordinates>
      </Point>
    </Placemark>
    <Placemark>
      <name>雲之南步道入口</name>
      <description></description>
      <Point>
        <coordinates>120.5975899,23.5580143,0</coordinates>
      </Point>
    </Placemark>
    <Placemark>
      <name>第一涼亭</name>
      <description></description>
      <Point>
        <coordinates>120.5975888,23.5570545,0</coordinates>
      </Point>
    </Placemark>
    <Placemark>
      <name>第二涼亭</name>
      <description></description>
      <Point>
        <coordinates>120.60040165331492,23.55818873540501,0</coordinates>
      </Point>
    </Placemark>
    <Placemark>
      <name>無二窯藝術空間</name>
      <description>柴燒陶藝/手拉胚/陶杯刻畫</description>
      <Point>
        <coordinates>120.60246412756845,23.558249291373585,0</coordinates>
      </Point>
    </Placemark>
    <Placemark>
      <name>步道出口</name>
      <description></description>
      <Point>
        <coordinates>120.6025551,23.5587138,0</coordinates>
      </Point>
    </Placemark>
    <Placemark>
      <name>洗手間</name>
      <description></description>
      <Point>
        <coordinates>120.60025600473995,23.559548109041543,0</coordinates>
      </Point>
    </Placemark>
    <Placemark>
      <name>洗手間</name>
      <description></description>
      <Point>
        <coordinates>120.6029625,23.5607526,0</coordinates>
      </Point>
    </Placemark>
    <Placemark>
      <name>7-11</name>
      <description></description>
      <Point>
        <coordinates>120.601587,23.5600698,0</coordinates>
      </Point>
    </Placemark>
    <Placemark>
      <name>太平雲梯</name>
      <description></description>
      <Point>
        <coordinates>120.5977892,23.5590701,0</coordinates>
      </Point>
    </Placemark>
    <Placemark>
      <name>停車場</name>
      <description></description>
      <Point>
        <coordinates>120.60083324704743,23.559639204726267,0</coordinates>
      </Point>
    </Placemark>
    <Placemark>
      <name>空氣圖書館</name>
      <description>餐廳</description>
      <Point>
        <coordinates>120.6016066805999,23.56034490456365,0</coordinates>
      </Point>
    </Placemark>
  </Document>
</kml>