<?xml version="1.0" encoding="UTF-8"?>
<kml xmlns="http://www.opengis.net/kml/2.2">
  <Document>
    <name>瑞峰村-竹坑溪步道</name>
    <Placemark>
      <name>路線軌跡</name>
      <LineString>
        <tessellate>1</tessellate>
        <coordinates>
          120.651051,23.561896,686.3
          120.651044,23.561878,685
          120.651058,23.561718,684
          120.651115,23.561486,683.8
          120.651124,23.561412,683.3
          120.651127,23.561374,682.8
          120.651154,23.561045,680.5
          120.651251,23.560755,680.5
          120.651361,23.56063,682
          120.651792,23.560289,689.8
          120.651963,23.560111,691.3
          120.65196,23.560112,691
          120.651963,23.560111,691.3
          120.652114,23.559975,692
          120.652228,23.559826,691
          120.652393,23.559745,693.5
          120.652518,23.55972,696.5
          120.652766,23.559771,705.5
          120.652885,23.559752,708
          120.652985,23.559753,711
          120.653079,23.559634,708
          120.653032,23.559488,700
          120.652943,23.559326,690.8
          120.652879,23.559224,685.3
          120.652877,23.559219,685
          120.652847,23.559136,681
          120.652855,23.559026,676.8
          120.652849,23.558868,670
          120.653006,23.558864,671.8
          120.653012,23.558864,672
          120.653129,23.558904,675.5
          120.653187,23.558971,679
          120.653317,23.559086,686
          120.653372,23.559165,691.3
          120.653409,23.55926,697.8
          120.653525,23.559349,706.5
          120.653631,23.559397,713
          120.653758,23.559376,716.5
          120.653839,23.559369,719.3
          120.65387,23.559341,719
          120.653919,23.559323,720
          120.653988,23.559284,720.8
          120.654178,23.559205,724.3
          120.654187,23.559192,724.3
          120.654201,23.559175,724.3
          120.654214,23.559053,721.5
          120.654226,23.55901,721
          120.654303,23.55891,722.8
          120.654319,23.558859,722.3
          120.654336,23.558658,717.3
          120.65435,23.558571,715.8
          120.654354,23.55857,715.8
          120.654445,23.558562,720.8
          120.654519,23.558545,724.3
          120.654596,23.558503,727.3
          120.654789,23.558484,737.3
          120.654828,23.558419,737.3
          120.654815,23.558321,733
          120.654761,23.558182,721.3
          120.654658,23.55799,703.8
          120.654666,23.55795,701.5
          120.654722,23.557899,701.5
          120.654749,23.557856,700
          120.654738,23.557778,694.5
          120.654825,23.557696,694
          120.654983,23.557604,696.5
          120.655197,23.55746,696.8
          120.655201,23.557458,696.8
          120.655321,23.557419,699.3
          120.655539,23.55743,710.8
          120.655616,23.557392,711.5
          120.655694,23.557387,714.8
          120.655727,23.557305,709.8
          120.655911,23.557331,723.8
          120.656112,23.557252,734.3
          120.656151,23.557222,735
          120.656154,23.557215,734.5
          120.656172,23.557183,733.3
          120.656176,23.557129,728.8
          120.6562,23.557026,721.8
          120.656221,23.556982,719.5
          120.656229,23.556886,711.5
          120.656223,23.556839,706.8
          120.656237,23.556808,705
          120.656392,23.556749,711.3
          120.656472,23.556706,713.3
          120.656525,23.556648,712
          120.656549,23.5566,710
          120.656575,23.556525,706
          120.656645,23.556416,702.3
          120.656697,23.556377,701.8
          120.656852,23.556311,702.3
          120.656928,23.556253,700.8
          120.657005,23.556177,698.3
          120.657102,23.556101,696.5
          120.65716,23.556057,695.8
          120.657224,23.555989,693.8
          120.657354,23.555924,695.3
          120.65744,23.555898,697.3
          120.65744,23.555896,697
          120.657478,23.555833,694.8
          120.657547,23.555813,695.5
          120.657534,23.555735,694.5
          120.657557,23.555691,693.8
          120.657557,23.55569,693.5
          120.657557,23.555691,693.8
          120.657613,23.555676,694
          120.657637,23.555724,694.5
          120.657641,23.555823,695.3
          120.657668,23.555875,698.3
          120.657726,23.555893,699.5
          120.657737,23.555892,699.3
          120.657809,23.555891,699
          120.657942,23.555906,700
          120.65808,23.555969,705.3
          120.658209,23.556,708.3
          120.658311,23.555998,708.5
          120.658446,23.555963,706.3
          120.658487,23.555951,705.8
          120.658638,23.55593,705.5
          120.658667,23.555926,705.5
          120.658829,23.555951,709.5
          120.658909,23.555984,713.3
          120.658969,23.556021,717
          120.659043,23.556042,719.5
          120.659114,23.556043,720.3
          120.659201,23.556022,720.8
          120.659317,23.555972,722.8
          120.659548,23.555852,723.5
          120.659582,23.555724,726.3
          120.659585,23.555723,726.3
          120.659649,23.555706,729.5
          120.659232,23.555534,720
          120.659104,23.555511,717.8
          120.658879,23.555435,716
          120.6585,23.555219,714.5
          120.658221,23.555112,709
          120.658098,23.554978,707.8
          120.658178,23.554583,732.5
          120.658186,23.554402,742.8
          120.658067,23.554318,741
          120.657892,23.554297,732.8
          120.65775,23.55432,724
          120.657892,23.554297,732.8
          120.658067,23.554318,741
          120.658186,23.554402,742.8
          120.658178,23.554583,732.5
          120.658098,23.554978,707.8
          120.658221,23.555112,709
          120.6585,23.555219,714.5
          120.658879,23.555435,716
          120.659104,23.555511,717.8
          120.659232,23.555534,720
          120.659639,23.555701,729.3
          120.659649,23.555706,729.5
          120.659734,23.555684,733.5
          120.659745,23.555633,735
          120.659746,23.555632,735
          120.659823,23.555583,738.8
          120.659913,23.555541,742.5
          120.660216,23.555428,753.5
          120.660334,23.555363,757.8
          120.660441,23.555321,761.5
          120.660503,23.555279,763.8
          120.66055,23.55526,765.3
          120.660666,23.555267,768.8
          120.660737,23.555262,771
          120.660902,23.555228,774.8
          120.660953,23.555225,775.3
          120.660978,23.555225,775.8
          120.661048,23.555243,776.5
          120.661097,23.555272,777
          120.661236,23.555405,778.5
          120.661319,23.55546,779.3
          120.661326,23.555462,779.3
          120.661528,23.555518,781.5
          120.661799,23.555551,785.5
          120.66198,23.555566,789.5
          120.662049,23.555583,791.5
          120.662053,23.555582,791.5
          120.662581,23.555523,800.8
          120.662731,23.555486,803.3
          120.662863,23.555446,804.8
          120.662954,23.555411,805.3
          120.663,23.555377,804.8
          120.663121,23.555225,799
          120.66333,23.555128,798.5
          120.6634,23.555113,799.8
          120.663441,23.555123,801.5
          120.663726,23.555267,819.3
          120.663789,23.555278,822
          120.664019,23.555225,825.5
          120.66464,23.555041,837.8
          120.664689,23.555019,838.5
          120.664689,23.555016,838.5
          120.664726,23.554903,847.8
          120.664753,23.554869,851.5
          120.664869,23.55479,861.5
          120.664901,23.554756,864.8
          120.664922,23.5547,869.5
          120.664945,23.554666,872.5
          120.664947,23.554664,872.5
          120.66499,23.554642,874.8
          120.665063,23.554618,877.8
          120.665205,23.554596,881.8
          120.665282,23.554563,884.8
          120.665326,23.554532,887
          120.665379,23.554528,887.8
          120.66551,23.554586,887.8
          120.665567,23.554591,888.5
          120.665572,23.554589,888.5
          120.665806,23.554528,893.8
          120.665879,23.5545,895.8
          120.665928,23.554496,897.3
          120.666007,23.554515,899.5
          120.666081,23.554542,901.8
          120.666131,23.554544,903.3
          120.666141,23.554541,903.5
          120.666186,23.55453,905
          120.666254,23.554502,906.8
          120.666441,23.554407,911
          120.666484,23.554379,911.5
          120.666578,23.554236,911
          120.666618,23.554188,910.8
          120.666626,23.554183,911
          120.666821,23.554075,921.3
          120.666882,23.554054,924.5
          120.667046,23.554035,931.3
          120.667091,23.554043,932.5
          120.667171,23.554075,934.5
          120.66721,23.554075,935.8
          120.667266,23.554054,938.5
          120.667346,23.554001,942.8
          120.667403,23.553953,945.8
          120.66743,23.553919,947.3
          120.667493,23.553845,950.8
          120.667529,23.553825,952.3
          120.667578,23.553823,953.3
          120.667622,23.553831,954.3
          120.667658,23.553828,955.3
          120.667694,23.55381,956.3
          120.66774,23.553773,958
          120.667775,23.553732,959.5
          120.667808,23.553715,960.5
          120.667856,23.553714,961.5
          120.667899,23.553731,962.3
          120.66797,23.553744,963.8
          120.66802,23.553745,964.8
          120.66806,23.553726,966
          120.668091,23.553684,967
          120.668111,23.553644,968
          120.668134,23.553625,968.5
          120.668171,23.553619,969.5
          120.668209,23.553647,970
          120.668254,23.553694,970.5
          120.668398,23.553928,972.8
          120.668479,23.554,975.3
          120.668499,23.554043,975.8
          120.668555,23.554169,977.3
          120.668556,23.554169,977.3
          120.668582,23.554173,978.5
          120.668633,23.554138,980
          120.668663,23.55413,981.3
          120.668767,23.554139,985
          120.668817,23.554158,987
          120.66884,23.554188,988.8
          120.668861,23.554244,992
          120.668881,23.554327,996.8
          120.6689,23.554364,999.3
          120.66897,23.554435,1005.5
          120.668973,23.554464,1007
          120.668967,23.554499,1008.3
          120.668947,23.554569,1010.8
          120.668946,23.554599,1012.3
          120.668961,23.554629,1014.3
          120.668986,23.554643,1016
          120.669135,23.55467,1023.8
          120.669221,23.554679,1027.8
          120.669287,23.554679,1030.5
          120.669372,23.554663,1033
          120.669504,23.554618,1036
          120.669534,23.554618,1037
          120.669535,23.554622,1037.3
          120.669541,23.554642,1038.5
          120.669483,23.554712,1039.8
          120.66948,23.554739,1041
          120.669497,23.554751,1042.3
          120.669632,23.55472,1046
          120.669818,23.554597,1047.3
          120.669935,23.554487,1046.8
          120.669968,23.554432,1045.3
          120.669998,23.554395,1044.8
          120.67011,23.554328,1045
          120.670173,23.554274,1044.3
          120.670274,23.55423,1045.3
        </coordinates>
      </LineString>
    </Placemark>
    <Placemark>
      <name>起點|Start</name>
      <description>步道西入口</description>
      <ExtendedData>
        <Data name="icon"><value>start</value></Data>
        <Data name="color"><value>#10b981</value></Data>
      </ExtendedData>
      <Point>
        <coordinates>120.65105666621218,23.56187100207751,0</coordinates>
      </Point>
    </Placemark>
    <Placemark>
      <name>終點|End</name>
      <description>步道東入口</description>
      <ExtendedData>
        <Data name="icon"><value>end</value></Data>
        <Data name="color"><value>#e27653</value></Data>
      </ExtendedData>
      <Point>
        <coordinates>120.67029406431988,23.554234859565184,0</coordinates>
      </Point>
    </Placemark>
    <Placemark>
      <name>龍宮瀑布</name>
      <description>曾被美國
史密斯國家歷史博物館出版的雜誌
評為꒰臺灣必去的七大瀑布之一꒱</description>
      <ExtendedData>
        <Data name="icon"><value>star</value></Data>
        <Data name="color"><value>#3b82f6</value></Data>
      </ExtendedData>
      <Point>
        <coordinates>120.65766801964531,23.554429038005594,0</coordinates>
      </Point>
    </Placemark>
    <Placemark>
      <name>生毛樹瀑布</name>
      <description></description>
      <ExtendedData>
        <Data name="icon"><value>star</value></Data>
        <Data name="color"><value>#3b82f6</value></Data>
      </ExtendedData>
      <Point>
        <coordinates>120.6645960414844,23.555570053145715,0</coordinates>
      </Point>
    </Placemark>
    <Placemark>
      <name>雷音瀑布</name>
      <description></description>
      <ExtendedData>
        <Data name="icon"><value>star</value></Data>
        <Data name="color"><value>#3b82f6</value></Data>
      </ExtendedData>
      <Point>
        <coordinates>120.65833801740075,23.556776308521805,0</coordinates>
      </Point>
    </Placemark>
    <Placemark>
      <name>停車場</name>
      <description></description>
      <ExtendedData>
        <Data name="icon"><value>P</value></Data>
        <Data name="color"><value>#3b82f6</value></Data>
      </ExtendedData>
      <Point>
        <coordinates>120.65041896361316,23.562612180190285,0</coordinates>
      </Point>
    </Placemark>
    <Placemark>
      <name>瑞峰國小站</name>
      <description>꒰7315/7315A꒱— 每日兩班</description>
      <ExtendedData>
        <Data name="icon"><value>P</value></Data>
        <Data name="color"><value>#3b82f6</value></Data>
      </ExtendedData>
      <Point>
        <coordinates>120.66756796486015,23.556693689735567,0</coordinates>
      </Point>
    </Placemark>
    <Placemark>
      <name>新興寮站</name>
      <description>꒰7315/7315A꒱— 每日兩班</description>
      <ExtendedData>
        <Data name="icon"><value>bus-front</value></Data>
        <Data name="color"><value>#3b82f6</value></Data>
      </ExtendedData>
      <Point>
        <coordinates>120.67015493553919,23.554343624419815,0</coordinates>
      </Point>
    </Placemark>
    <Placemark>
      <name>南天巨屏</name>
      <description>一座由巨型砂岩構成的壯麗峭壁
名列「瑞峰十景」之一</description>
      <ExtendedData>
        <Data name="icon"><value>star</value></Data>
        <Data name="color"><value>#10b981</value></Data>
      </ExtendedData>
      <Point>
        <coordinates>120.67180843425734,23.55422155653669,0</coordinates>
      </Point>
    </Placemark>
    <Placemark>
      <name>停車場</name>
      <description></description>
      <ExtendedData>
        <Data name="icon"><value>P</value></Data>
        <Data name="color"><value>#3b82f6</value></Data>
      </ExtendedData>
      <Point>
        <coordinates>120.6724251418355,23.553709973557986,0</coordinates>
      </Point>
    </Placemark>
    <Placemark>
      <name>東出入口封閉中</name>
      <description>目前僅能從西入口步行至此</description>
      <ExtendedData>
        <Data name="icon"><value>traffic-cone</value></Data>
        <Data name="color"><value>#e27653</value></Data>
      </ExtendedData>
      <Point>
        <coordinates>120.65970700470933,23.555644439856792,0</coordinates>
      </Point>
    </Placemark>
    <Placemark>
      <name>未命名地標</name>
      <description></description>
      <ExtendedData>
        <Data name="icon"><value>traffic-cone</value></Data>
        <Data name="color"><value>#e27653</value></Data>
      </ExtendedData>
      <Point>
        <coordinates>120.6639379034487,23.55526829226875,0</coordinates>
      </Point>
    </Placemark>
  </Document>
</kml>